BioMedtechTypeCopy,MA Bio Member,CompanyName,FName,LName,Title,AddressLine1,AddressLine2,City,State,Zip,NumEmplSt,address
Contract Research & Manufacturing,,27 GAYLORD LLC,Richard,Himmelwright,Sr Exec R&D/Manufacturing,70 Lamb St,,S Hadley,MA,01035,4,"70 Lamb St, S Hadley, MA 01035"
Drug Development,,3DM INC,Keiji,Nagano,CEO,245 First St,18th Floor,Cambridge,MA,02142,0,"245 First St 18th Floor, Cambridge, MA 02142"
BioInformatics,,3RD MILLENNIUM INC,Ousama,Shamma,President,391 Totten Pond Rd,Suite 201,Waltham,MA,02451,10,"391 Totten Pond Rd Suite 201, Waltham, MA 02451"
Medical Device,MA Bio Member,480 BIOMEDICAL,Duke,Collier,CEO,480 Arsenal St,,Watertown,MA,02472,0,"480 Arsenal St, Watertown, MA 02472"
Research Products & Instrumentation,,89 NORTH,Chris,Baumann,General Manager,1 Mill St,Unit 285,Burlington,VT,05401,0,"1 Mill St Unit 285, Burlington, VT 05401"
Medical Device,,A T SURGICAL CO INC,Mark,Shoham,President,115 Clemente St,,Holyoke,MA,01040,30,"115 Clemente St, Holyoke, MA 01040"
Medical Device,,AADCO MEDICAL INC,,,,PO Box 410,,Randolph,VT,05060,40,"PO Box 410, Randolph, VT 05060"
Research Products & Instrumentation,,ABAZYME LLC,Amy,Dasch,Owner,85 Pine Grove St,,Needham,MA,02494,0,"85 Pine Grove St, Needham, MA 02494"
Drug Development,MA Bio Member,ABBOTT BIORESEARCH CENTER,Miles,White,Chairman/CEO,100 Research Dr,,Worcester,MA,01605,685,"100 Research Dr, Worcester, MA 01605"
Contract Research & Manufacturing,MA Bio Member,ABERJONA LABORATORIES INC,Jifeng,Liu,President,100 Cummings Center,Suite 242F,Beverly,MA,01915,4,"100 Cummings Center Suite 242F, Beverly, MA 01915"
Medical Device,MA Bio Member,ABIOMED INC,Michael,Minogue,CEO/COB/President,22 Cherry Hill Dr,,Danvers,MA,01923,400,"22 Cherry Hill Dr, Danvers, MA 01923"
Contract Research & Manufacturing,,ABOGEN INC,,,,417 Auburn St,,Portland,ME,04103,2,"417 Auburn St, Portland, ME 04103"
Contract Research & Manufacturing,MA Bio Member,ABPRO INC,Ian,Chan,CEO,101 Hartwell Ave,,Lexington,MA,02421,30,"101 Hartwell Ave, Lexington, MA 02421"
Contract Research & Manufacturing,,ACCELERATE INC,Michael,Ryan,President/CEO,3 Meadow Dr,,Upton,MA,01568,1,"3 Meadow Dr, Upton, MA 01568"
Disease Foundation,MA Bio Member,ACCELERATED CURE PROJECT FOR MULTIPLE SCLEROSIS,,,,300 5th Ave,,Waltham,MA,02451,7,"300 5th Ave, Waltham, MA 02451"
Drug Development,MA Bio Member,ACCELERON PHARMA INC,John,Knopf,CEO/Founder,128 Sidney St,,Cambridge,MA,02139,75,"128 Sidney St, Cambridge, MA 02139"
Medical Device,,ACCU-LINE PRODUCTS INC,,,,P O Box 875,,Hyannis,MA,02601,6,"P O Box 875, Hyannis, MA 02601"
Medical Device,,ACCUBOOST,,,,One Industrial Way,,Tyngsboro,MA,01879,25,"One Industrial Way, Tyngsboro, MA 01879"
Medical Device,,ACE SURGICAL SUPPLY CO,Craig,Carchidi,President,1034 Pearl St,,Brockton,MA,02301,50,"1034 Pearl St, Brockton, MA 02301"
Drug Development,MA Bio Member,ACETYLON PHARMACEUTICALS INC,Walter,Ogier,CEO,70 Fargo St,Suite 205,Boston,MA,02210,0,"70 Fargo St Suite 205, Boston, MA 02210"
Drug Development,,ACHILLION PHARMACEUTICALS INC,Michael,Kishbauch,President/CEO,300 George St,,New Haven,CT,06511,46,"300 George St, New Haven, CT 06511"
Research Products & Instrumentation,,ACLEARIUM LAB SOLUTIONS INC,Yen Yen,Lim,President,Shannon Circle,,Westford,MA,01886,2,"Shannon Circle, Westford, MA 01886"
Medical Device,,ACORN PRODUCT DEVELOPMENT,Ken,Haven,Founder/CEO,1 Broadway,14th Floor,Cambridge,MA,02142,5,"1 Broadway 14th Floor, Cambridge, MA 02142"
Drug Development,,ACRETIA INC,Robert,Urban,President/CEO,51 Follen,,Lexington,MA,02421,15,"51 Follen, Lexington, MA 02421"
Medical Device,,ACROMATIC PLASTICS,Peter,Crisci,President,32 Jungle Rd,,Leominster,MA,01453,32,"32 Jungle Rd, Leominster, MA 01453"
Drug Development,,ACTON PHARMACEUTICALS INC,John,Simon,CEO,225 Cedar Hill St,Suite 115,Marlborough,MA,01752,4,"225 Cedar Hill St Suite 115, Marlborough, MA 01752"
Medical Device,,ACUITYBIO CORP,Mark,Grinstaff,Co-Founder,200 Upland Rd,,Newton,MA,02460,0,"200 Upland Rd, Newton, MA 02460"
Drug Development,MA Bio Member,ACUSPHERE INC,Sherri,Oberg,President/CEO,99 Hayden Ave,Suite 385,Lexington,MA,02421,0,"99 Hayden Ave Suite 385, Lexington, MA 02421"
Medical Device,,ADAM EQUIPMENT INC,Tom,Storey,US Operations President,26 Commerce Dr,,Danbury,CT,06810,15,"26 Commerce Dr, Danbury, CT 06810"
Non-profit Research Institution,,ADDGENE INC,Melina,Fan,Executive Director,1 Kendall Sq,B7102,Cambridge,MA,02139,0,"1 Kendall Sq B7102, Cambridge, MA 02139"
Medical Device,,ADHESIVE TECHNOLOGIES INC,Peter,Melendy,CEO/Founder,3 Merrill Industrial Dr,,Hampton,NH,03842,0,"3 Merrill Industrial Dr, Hampton, NH 03842"
Contract Research & Manufacturing,,ADIMAB INC,Tillman,Gerngross,Co-Founder/CEO,7 Lucent Dr,,Lebanon,NH,03766,0,"7 Lucent Dr, Lebanon, NH 03766"
Drug Development,MA Bio Member,ADNEXUS A BRISTOL-MYERS SQUIBB R&D CO,Clifford,Bechtold,VP Strategic Operations,100 Beaver St,,Waltham,MA,02453,104,"100 Beaver St, Waltham, MA 02453"
Contract Research & Manufacturing,,ADVANCED BIOSCIENCE LABORATORIES INC,Rose,Marcheso-Hansen,Manager Regional Sales,,,,MA,,0,", , MA "
Research Products & Instrumentation,,ADVANCED BIOSCIENCE TECHNOLOGIES LLC,Vinay,Goel,CEO,PO Box 2504,,Acton,MA,01720,1,"PO Box 2504, Acton, MA 01720"
Drug Development,MA Bio Member,ADVANCED CELL TECHNOLOGY INC,Gary,Rabin,CEO,33 Locke Dr,,Marlborough,MA,01752,0,"33 Locke Dr, Marlborough, MA 01752"
Medical Device,,ADVANCED INSTRUMENTS INC,John,Caughlin,CEO/President,2 Technology Way,,Norwood,MA,02062,130,"2 Technology Way, Norwood, MA 02062"
Contract Research & Manufacturing,,ADVANCED PRECISION ENGINEERING INC,Alan,Soucy,President/CEO,19 Mitchell Road,P.O. Box 549,Ipswich,MA,01938,50,"19 Mitchell Road P.O. Box 549, Ipswich, MA 01938"
Drug Development,,ADVANCED PROTEOME THERAPEUTICS INC,Allen,Krantz,President/CEO/Director,650 Albany St,,Boston,MA,02118,0,"650 Albany St, Boston, MA 02118"
Human Diagnostic Development,MA Bio Member,ADVANDX INC,Thais,Johansen,President/CEO,400 TradeCenter,Suite 6990,Woburn,MA,01801,25,"400 TradeCenter Suite 6990, Woburn, MA 01801"
Medical Device,,ADVANSOURCE BIOMATERIALS CORP,Michael,Adams,President,229 Andover St,,Wilmington,MA,01887,22,"229 Andover St, Wilmington, MA 01887"
Drug Development,,ADVANTAGENE INC,Estuardo,Aguilar-Cordova,CEO/Chairman,440 Lexington St,,Auburndale,MA,02466,0,"440 Lexington St, Auburndale, MA 02466"
Human Diagnostic Development,,ADVIRNA LLC,Alexey,Wolfson,Co-Founder/CEO,,,Westborough,MA,,3,", Westborough, MA "
Drug Development,MA Bio Member,AEGERION PHARMACEUTICALS,Marc,Beer,CEO,101 Main St,Suite 1850,Cambridge,MA,02142,50,"101 Main St Suite 1850, Cambridge, MA 02142"
Medical Device,MA Bio Member,AERIS THERAPEUTICS LLC,David,Dove MD,President/CEO,10K Gill St,,Woburn,MA,01801,20,"10K Gill St, Woburn, MA 01801"
Drug Development,MA Bio Member,AESRX LLC,Stephen,Seiler,Founder/CEO,275 Grove St,Suite 2-400,Newton,MA,02466,0,"275 Grove St Suite 2-400, Newton, MA 02466"
Medical Device,,AFFINIMARK TECHNOLOGIES INC,Vincent,Pieribone,President,300 George St,Suite 561,New Haven,CT,06511,0,"300 George St Suite 561, New Haven, CT 06511"
Contract Research & Manufacturing,MA Bio Member,AFFINITY LIFE SCIENCES INC,Tod,Gavron,President,528 Rte 13 S,,Milford,NH,03055,10,"528 Rte 13 S, Milford, NH 03055"
Human Diagnostic Development,,AG MEDNET INC,Abraham,Gutman,President/CEO,2 Atlantic Avenue,,Boston,MA,02110,18,"2 Atlantic Avenue, Boston, MA 02110"
Contract Research & Manufacturing,,AG SCIENTIFIC INC,Larry,Lindgren,East Coast Office Director,29 Rogers Rd,,Yarmouth,ME,04096,4,"29 Rogers Rd, Yarmouth, ME 04096"
Medical Device,,AGAMATRIX INC,John,Alberico,CEO/Director,7 C Raymond Ave,,Salem,NH,03079,130,"7 C Raymond Ave, Salem, NH 03079"
Drug Development,MA Bio Member,AGENUS INC,Garo,Armen,Chairman/CEO,3 Forbes Rd,,Lexington,MA,02421,230,"3 Forbes Rd, Lexington, MA 02421"
Research Products & Instrumentation,MA Bio Member,AGILENT TECHNOLOGIES (FORMERLY BIOCIUS),Jennifer,Rossi,Director Marketing/Corp Comm,11 Audubon Road,,Wakefield,MA,01880,25,"11 Audubon Road, Wakefield, MA 01880"
Medical Device,,AGILITY MFG INC,Mike,McGreevy,President,279 Locust St,,Dover,NH,03820,50,"279 Locust St, Dover, NH 03820"
Contract Research & Manufacturing,,AGILUX LABORATORIES,Jim,Jersey,CEO,1 Innovation Dr,,Worcester,MA,01605,63,"1 Innovation Dr, Worcester, MA 01605"
Drug Development,MA Bio Member,AGIOS PHARMACEUTICALS INC,David,Schenkein,CEO,38 Sidney St,2nd Floor,Cambridge,MA,02139,78,"38 Sidney St 2nd Floor, Cambridge, MA 02139"
Agricultural/Industrial Biotechnology,MA Bio Member,AGRIVIDA INC,Mark,Wong,CEO,200 Boston Ave,,Medford,MA,02155,20,"200 Boston Ave, Medford, MA 02155"
Drug Development,,AIKO BIOTECHNOLOGY INC,Victor,Otley,Chairman,2 Union St,Suite 501,Portland,ME,04101,0,"2 Union St Suite 501, Portland, ME 04101"
Drug Development,MA Bio Member,AILERON THERAPEUTICS INC,Joseph,Yanchik,President/CEO,281 Albany St,,Cambridge,MA,02139,40,"281 Albany St, Cambridge, MA 02139"
Contract Research & Manufacturing,,AIR SYSTEMS TECHNOLOGIES INC,James,Sigler,President,33 Wales Ave,Suite A,Avon,MA,02322,15,"33 Wales Ave Suite A, Avon, MA 02322"
Medical Device,,ALBRIGHT TECHNOLOGIES INC,David,Comeau,President/Owner,25 Litchfield St,,Leominster,MA,01453,18,"25 Litchfield St, Leominster, MA 01453"
Drug Development,,ALC INOVATORS INC,,,,230 Pepe's Farm Rd,,Milford,CT,06460,6,"230 Pepe's Farm Rd, Milford, CT 06460"
Medical Device,,ALCOR SCIENTIFIC INC,Carlo,Ruggeri,CEO,11 Knight St,#F-23,Warwick,RI,02886,13,"11 Knight St #F-23, Warwick, RI 02886"
Drug Development,,ALCYONE LIFESCIENCES INC,P J,Anand,Founder/President/CEO,,,Ayer,MA,,0,", Ayer, MA "
Medical Device,,ALERCHEK INC,,,,15 Oak St,Suite 302,Springvale,ME,04083,5,"15 Oak St Suite 302, Springvale, ME 04083"
Human Diagnostic Development,,ALERE INC,Ron,Zwanziger,Chairman/CEO/President,51 Sawyer Rd,Suite 200,Waltham,MA,02453,100,"51 Sawyer Rd Suite 200, Waltham, MA 02453"
Drug Development,MA Bio Member,ALEXION PHARMACEUTICALS INC,Leonard,Bell,CEO,352 Knotter Dr,,Cheshire,CT,06410,0,"352 Knotter Dr, Cheshire, CT 06410"
Medical Device,,ALI MED INC,Julian,Cherubini,President,297 High St,,Dedham,MA,02026,220,"297 High St, Dedham, MA 02026"
Drug Development,MA Bio Member,ALKERMES INC,Richard,Pops,CEO,852 Winter St,,Waltham,MA,02451,200,"852 Winter St, Waltham, MA 02451"
Human Diagnostic Development,MA Bio Member,ALLEGRO DIAGNOSTICS INC,Michael,Webb,President/CEO,6 Clock Tower Pl,Suite 225,Maynard,MA,01754,0,"6 Clock Tower Pl Suite 225, Maynard, MA 01754"
Medical Device,,ALLEN MEDICAL SYSTEMS,Jason,Krieser,VP/GM,1 Post Office Sq,,Acton,MA,01720,0,"1 Post Office Sq, Acton, MA 01720"
Drug Development,,ALLENA PHARMACEUTICALS INC,Alexey,Margolin,CEO,One Newton Executive Pk,Suite 202,Newton,MA,02462,8,"One Newton Executive Pk Suite 202, Newton, MA 02462"
Contract Research & Manufacturing,,ALLOCURE INC,Robert,Brenner,President/CEO,25 Corporate Dr,Suite 360,Burlington,MA,01803,10,"25 Corporate Dr Suite 360, Burlington, MA 01803"
Drug Development,,ALLOSTEM THERAPEUTICS LLC,Uday,Khire,CEO,400 Farmington Ave,,Farmington,CT,06032,2,"400 Farmington Ave, Farmington, CT 06032"
Drug Development,MA Bio Member,ALNYLAM PHARMACEUTICALS INC,John,Maraganore,CEO,300 Third St,3rd Floor,Cambridge,MA,02142,180,"300 Third St 3rd Floor, Cambridge, MA 02142"
Medical Device,,ALOKA,David,Famiglietti,CEO/GM,10 Fairfield Blvd,,Wallingford,CT,06492,86,"10 Fairfield Blvd, Wallingford, CT 06492"
Disease Foundation,MA Bio Member,ALS THERAPY DEVELOPMENT INSTITUTE,Steve,Perrin,CEO,300 Technology Sq,Suite 400,Cambridge,MA,02139,45,"300 Technology Sq Suite 400, Cambridge, MA 02139"
Drug Development,,ALSERES PHARMACEUTICALS,Peter,Savas,Chairman/CEO,239 South St,,Hopkinton,MA,01748,28,"239 South St, Hopkinton, MA 01748"
Drug Development,MA Bio Member,AMAG PHARMACEUTICALS INC,Frank,Thomas,COO/Interim President/CEO,100 Hayden Ave,,Lexington,MA,02421,0,"100 Hayden Ave, Lexington, MA 02421"
Drug Development,,AMARIN PHARMA INC,Joseph,Zakrzewski,CEO,475 Bridge St,,Groton,CT,06340,16,"475 Bridge St, Groton, CT 06340"
Medical Device,,AMD GLOBAL TELEMEDICINE INC,Steven,Normandin,President,321 Billerica Rd,,Chelmsford,MA,01824,18,"321 Billerica Rd, Chelmsford, MA 01824"
Medical Device,,AMERICAD TECHNOLOGY CORP,Mark,Haslett,President/Marketing,700 Pleasant St,,Norwood,MA,02062,40,"700 Pleasant St, Norwood, MA 02062"
Medical Device,,AMERICAN AQUA SYSTEMS INC,Brooks,Porter,President,90 Dean Knauss Dr,S Ferry Industrial,Narragansett,RI,02882,5,"90 Dean Knauss Dr S Ferry Industrial, Narragansett, RI 02882"
Contract Research & Manufacturing,,AMERICAN BIOANALYTICAL INC,Vincent,Cooney,Owner,15 Erie Dr,,Natick,MA,01760,20,"15 Erie Dr, Natick, MA 01760"
Human Diagnostic Development,,AMERICAN DIAGNOSTICA INC,Kevin,Morrissey,President,500 West Ave,P O Box 110215,Stamford,CT,06911,40,"500 West Ave P O Box 110215, Stamford, CT 06911"
Medical Device,,AMERICAN INNOVATIVE RESEARCH CORP,David,Palmer,Founder/Chairman,19 Abbott St,,Andover,MA,01810,0,"19 Abbott St, Andover, MA 01810"
Agricultural/Industrial Biotechnology,,AMERICAN INTERNATIONAL CHEMICAL (AIC),Mark,Robertson,Marketing,135 Newbury St,,Framingham,MA,01701,44,"135 Newbury St, Framingham, MA 01701"
Research Products & Instrumentation,,AMERICAN LABORATORY PRODUCTS CO (ALPCO),Sean,Conley,President,26G Keewaydin Dr,,Salem,NH,03079,40,"26G Keewaydin Dr, Salem, NH 03079"
Medical Device,,AMERICAN SURGICAL CO,Erik,Piasio,Managing Director,82 Sanderson Ave,,Lynn,MA,01902,34,"82 Sanderson Ave, Lynn, MA 01902"
Drug Development,MA Bio Member,AMGEN INC,Kevin,Sharer,CEO,360 Binney St,,Cambridge,MA,02142,170,"360 Binney St, Cambridge, MA 02142"
Medical Device,,AMRI,,,,99 S Bedford St,,Burlington,MA,01803,0,"99 S Bedford St, Burlington, MA 01803"
Medical Device,,AMTI,Fred,Ruland,COO,176 Waltham St,,Watertown,MA,02472,40,"176 Waltham St, Watertown, MA 02472"
Medical Device,,ANALOGIC CORP,Jim,Green,President/CEO,8 Centennial Dr,,Peabody,MA,01960,800,"8 Centennial Dr, Peabody, MA 01960"
Medical Device,,ANALOX INSTRUMENTS USA INC,Martin,Widdowson,President,P O Box 208,,Lunenburg,MA,01462,2,"P O Box 208, Lunenburg, MA 01462"
Contract Research & Manufacturing,,ANALYTICAL BIOTECHNOLOGY SERVICES,Malcolm,Pluskal,Founder,19 Silver Hill Rd,,Acton,MA,01720,3,"19 Silver Hill Rd, Acton, MA 01720"
Drug Development,MA Bio Member,ANCHOR THERAPEUTICS INC,Stephen,Hunt,Acting President,67 Rogers St,,Cambridge,MA,02142,21,"67 Rogers St, Cambridge, MA 02142"
Medical Device,,ANDONIAN CRYOGENICS INC,Martin,Andonian,President/CFO,90 Hatch St,,New Bedford,MA,02745,10,"90 Hatch St, New Bedford, MA 02745"
Research Products & Instrumentation,,ANDOR TECHNOLOGY,Conor,Walsh,CEO,425 Sullivan Ave,Suite 3,S Windsor,CT,06074,26,"425 Sullivan Ave Suite 3, S Windsor, CT 06074"
Drug Development,MA Bio Member,ANIKA THERAPEUTICS INC,Charles,Sherwood,President/CEO,32 Wiggins Ave,,Bedford,MA,01730,50,"32 Wiggins Ave, Bedford, MA 01730"
Contract Research & Manufacturing,,ANIMAL RESEARCH CONSULTING LLC,Michele,Cunneen,President,841 Worcester Rd,#325,Natick,MA,01760,3,"841 Worcester Rd #325, Natick, MA 01760"
Contract Research & Manufacturing,,ANOMET PRODUCTS INC,Terry,Wong,President,830 Boston Tpk,,Shrewsbury,MA,01545,65,"830 Boston Tpk, Shrewsbury, MA 01545"
Contract Research & Manufacturing,,ANTERION THERAPEUTICS INC,,,,11 Vista Ave,,Salem,MA,01970,0,"11 Vista Ave, Salem, MA 01970"
Drug Development,MA Bio Member,ANTIGEN EXPRESS INC,Eric,von Hofe,President,1 Innovation Dr,,Worcestor,MA,01605,3,"1 Innovation Dr, Worcestor, MA 01605"
Drug Development,MA Bio Member,APHIOS CORP,Trevor,Castor,President/CEO,3-E Gill St,New Boston Park,Woburn,MA,01801,12,"3-E Gill St New Boston Park, Woburn, MA 01801"
Medical Device,,APOGEE TECHNOLOGY INC,Herbert,Stein,CEO/President,129 Morgan Dr,,Norwood,MA,02062,6,"129 Morgan Dr, Norwood, MA 02062"
Research Products & Instrumentation,,APPLIED BIOSYSTEMS INC,,,,35 Wiggins Ave,,Bedford,MA,01730,106,"35 Wiggins Ave, Bedford, MA 01730"
Medical Device,,APPLIED PLASTICS CO INC,Frank,Ring,President,25 Endicott St,P O Box 128,Norwood,MA,02062,34,"25 Endicott St P O Box 128, Norwood, MA 02062"
Contract Research & Manufacturing,MA Bio Member,APREDICA,Katya,Tsaioun,President,313 Pleasant St,,Watertown,MA,02472,13,"313 Pleasant St, Watertown, MA 02472"
Medical Device,MA Bio Member,APTIV SOLUTIONS,Vicki,Anastasi,SVP Medical Devices,49 Plain St,,N Attleboro,MA,02760,50,"49 Plain St, N Attleboro, MA 02760"
Agricultural/Industrial Biotechnology,MA Bio Member,AQUA BOUNTY TECHNOLOGIES,Ronald,Stotish,Executive Director/President/CEO,,,Maynard,MA,01754,0,", Maynard, MA 01754"
Agricultural/Industrial Biotechnology,,AQUA LABORATORIES INC,Thomas,Cass,President,8 Industrial Way,Box 645,Amesbury,MA,01913,13,"8 Industrial Way Box 645, Amesbury, MA 01913"
Medical Device,,AQUA MASSAGE INTERNATIONAL INC,David,Cote,President,1101 Noank Ledyard Rd,,Mystic,CT,06355,9,"1101 Noank Ledyard Rd, Mystic, CT 06355"
Agricultural/Industrial Biotechnology,,ARCANATURA LLC,Serge,Martinod,President,1084 Shennecossett Rd,,Groton,CT,06340,4,"1084 Shennecossett Rd, Groton, CT 06340"
Medical Device,,ARCH LIGHTING GROUP INC,,,,30 Sherwood Dr,,Taunton,MA,02780,30,"30 Sherwood Dr, Taunton, MA 02780"
Drug Development,MA Bio Member,ARIAD PHARMACEUTICALS INC,Harvey,Berger,Chairman/CEO,26 Landsdowne St,,Cambridge,MA,02139,135,"26 Landsdowne St, Cambridge, MA 02139"
Drug Development,MA Bio Member,ARISAPH PHARMACEUTICALS INC,Christopher,Kiritsy,President/CEO,100 High St,Suite 1202,Boston,MA,02110,5,"100 High St Suite 1202, Boston, MA 02110"
Academic,,ARLUK TECHNOLOGIES LLC DBA ROBOTECH CENTER,Naveena,Swamy,Founder,3i Taggart Dr,Green Ridge Park,Nashua,NH,03060,5,"3i Taggart Dr Green Ridge Park, Nashua, NH 03060"
Agricultural/Industrial Biotechnology,,AROOSTOOK TESTING AND CONSULTING LABORATORY INC,G N,Currie II Ph D,President,160 Airport Dr,,Presque Isle,ME,04769,7,"160 Airport Dr, Presque Isle, ME 04769"
Human Diagnostic Development,,ARP - AMERICAN RESEARCH PRODUCTS INC,Peter,Souw,President,135 Beaver St,Suite 204,Waltham,MA,02452,5,"135 Beaver St Suite 204, Waltham, MA 02452"
Drug Development,MA Bio Member,ARQULE INC,Paolo,Pucci,CEO,19 Presidential Way,,Woburn,MA,01801,115,"19 Presidential Way, Woburn, MA 01801"
Drug Development,,ARRIEN PHARMACEUTICALS LLC,Rajendra,Appalaneni,Chairman/CEO,121 Wakelee Ave,,Ansonia,CT,06401,3,"121 Wakelee Ave, Ansonia, CT 06401"
Medical Device,MA Bio Member,ARSENAL MEDICAL,Duke,Collier,Executive Chairman,480 Arsenal St,,Watertown,MA,02172,0,"480 Arsenal St, Watertown, MA 02172"
Medical Device,,ARTHROSURFACE,Steven,Tallarida,President,28 Forge Pkwy,,Franklin,MA,02038,0,"28 Forge Pkwy, Franklin, MA 02038"
Contract Research & Manufacturing,,ARTIFICIAL CELL TECHNOLOGIES INC,Donald,Masters,President/CEO,5 Science Park,Suite 13,New Haven,CT,06511,,"5 Science Park Suite 13, New Haven, CT 06511"
Contract Research & Manufacturing,,ARVYS PROTEINS INC,Yelena,Sheptovitsky,President,76 Progress Dr,,Stamford,CT,06902,10,"76 Progress Dr, Stamford, CT 06902"
Drug Development,MA Bio Member,ASAHI KASEI PHARMA AMERICA CORP,Naoyuki,Ono,President/CEO,200 Fifth Avenue,,Waltham,MA,02451,20,"200 Fifth Avenue, Waltham, MA 02451"
Contract Research & Manufacturing,MA Bio Member,ASAMAN INC,Elvis,Usumanu,President,258 Bodwell St,,Avon,MA,02322,11,"258 Bodwell St, Avon, MA 02322"
Contract Research & Manufacturing,MA Bio Member,ASH STEVENS INC,James,Hamby,Vice President,1 Broadway,14th Floor,Cambridge,MA,02142,65,"1 Broadway 14th Floor, Cambridge, MA 02142"
Medical Device,,ASIA MEDSOURCE,Jeremy,Shepard,President,88 Goodwin Rd,,Eliot,ME,03903,5,"88 Goodwin Rd, Eliot, ME 03903"
Contract Research & Manufacturing,,ASISCHEM INC,Phill,Jones,Business Dev't Director,738 Main St #205,,Waltham,MA,02451,4,"738 Main St #205, Waltham, MA 02451"
Agricultural/Industrial Biotechnology,,ASPEN SYSTEMS INC,,,,184 Cedar Hill St,,Marlborough,MA,01752,30,"184 Cedar Hill St, Marlborough, MA 01752"
Research Products & Instrumentation,,ASSAY GURU,Rich,Tula,President/CEO,245 Constitution Dr,,Taunton,MA,02780,20,"245 Constitution Dr, Taunton, MA 02780"
Medical Device,,ASSOCIATED X-RAY IMAGING CORP,John,Olenio,President,49 Newark St,,Haverhill,MA,01830,40,"49 Newark St, Haverhill, MA 01830"
Research Products & Instrumentation,MA Bio Member,ASSOCIATES OF CAPE COD INC,AJ,Meuse,President/CEO,124 Bernard E Saint Jean Dr,,E Falmouth,MA,02536,125,"124 Bernard E Saint Jean Dr, E Falmouth, MA 02536"
Medical Device,,AST PRODUCTS INC,Matt,Connolly,Product Manager,9 Linnell Cir,,Billerica,MA,01821,18,"9 Linnell Cir, Billerica, MA 01821"
Drug Development,,ASTERAND INC,Victor,Zevallos,Director Sales,231 White St,,Belmont,MA,02478,1,"231 White St, Belmont, MA 02478"
Medical Device,,ASTIR TECHNOLOGIES,Chris,McNulty,President,1679 Lowell Rd,,Concord,MA,01742,2,"1679 Lowell Rd, Concord, MA 01742"
Medical Device,,ASTRATECH INC,,,,590 Lincoln St,,Waltham,MA,02451,105,"590 Lincoln St, Waltham, MA 02451"
Drug Development,MA Bio Member,ASTRAZENECA PHARMACEUTICALS LP,John,Hennessy,Executive Director/Site General Manager,35 Gatehouse Dr,,Waltham,MA,02451,0,"35 Gatehouse Dr, Waltham, MA 02451"
Medical Device,,ATECH DESIGNS INC,Karl,Leinsing,President,3 Playhouse Cir,,Hampton,NH,03842,5,"3 Playhouse Cir, Hampton, NH 03842"
Human Diagnostic Development,MA Bio Member,ATHENA DIAGNOSTICS INC,Michael,Henry,VP Business Dev't,377 Plantation St,4 Biotech Park,Worcester,MA,01605,125,"377 Plantation St 4 Biotech Park, Worcester, MA 01605"
Contract Research & Manufacturing,,ATKINSON THIN FILM SYSTEMS INC,Jack,Bradshaw,President/CEO,25 Garland Dr,,Hampstead,NH,03841,4,"25 Garland Dr, Hampstead, NH 03841"
Contract Research & Manufacturing,,ATMI INC,Doug,Neugold,Chairman/CEO/President,7 Commerce Dr,,Danbury,CT,06810,170,"7 Commerce Dr, Danbury, CT 06810"
Medical Device,,ATRIUM MEDICAL CORP,Trevor,Carlton,President,5 Wentworth Dr,,Hudson,NH,03051,270,"5 Wentworth Dr, Hudson, NH 03051"
Medical Device,,ATS LABORATORIES INC,Lynda,Hammond,President,404 Knowlton St,,Bridgeport,CT,06608,8,"404 Knowlton St, Bridgeport, CT 06608"
Medical Device,,AUDAX MEDICAL INC,Mark,Johanson,Founder/President/CEO,119 Russell St,Suite 4,Littleton,MA,01460,0,"119 Russell St Suite 4, Littleton, MA 01460"
Medical Device,,AUGMENIX INC,Amar,Sawhney,Founder,204 2nd Ave,Lower Level,Waltham,MA,02451,,"204 2nd Ave Lower Level, Waltham, MA 02451"
Medical Device,,AUGMENTRX LIFE SCIENCES,Stuart,Smyth,Founder/CEO,43 Riverside Ave,Suite 444,Medford,MA,02155,3,"43 Riverside Ave Suite 444, Medford, MA 02155"
Drug Development,MA Bio Member,AURA BIOSCIENCES INC,Elisabet,de los Pinos,Founder/CEO,85 Bolton St,,Cambridge,MA,02140,0,"85 Bolton St, Cambridge, MA 02140"
Research Products & Instrumentation,MA Bio Member,AUSHON BIOSYSTEMS INC,Peter,Honkanen,CEO,43 Manning Rd,,Billerica,MA,01821,45,"43 Manning Rd, Billerica, MA 01821"
Disease Foundation,MA Bio Member,AUTISM CONSORTIUM,Deirdre,Phillips,Executive Director,10 Shattuck St,Suite 249,Boston,MA,02115,0,"10 Shattuck St Suite 249, Boston, MA 02115"
Research Products & Instrumentation,,AUTOGEN,Robert,Sullivan,President,84 October Hill Rd,,Holliston,MA,01746,10,"84 October Hill Rd, Holliston, MA 01746"
Medical Device,,AUTOMATED MEDICAL INSTRUMENTS INC,Martin,Sklar,President/CEO,60 Richard Road,,Needham,MA,02492,1,"60 Richard Road, Needham, MA 02492"
Drug Development,MA Bio Member,AVAXIA BIOLOGICS INC,Barbara,Fox,CEO,128 Spring St,Suite 620,Lexington,MA,02421,11,"128 Spring St Suite 620, Lexington, MA 02421"
Contract Research & Manufacturing,,AVED ELECTRONICS INC,Robin,Santosuosso,Director New Business Dev't,95 Billerica Ave,,N Billerica,MA,01862,96,"95 Billerica Ave, N Billerica, MA 01862"
Medical Device,,AVEDRO INC,David,Muller,President/CEO,230 Third Ave,,Waltham,MA,02451,0,"230 Third Ave, Waltham, MA 02451"
Drug Development,MA Bio Member,AVEO PHARMACEUTICALS,Tuan,Ha-Ngoc,President/CEO,75 Sidney St,,Cambridge,MA,02139,200,"75 Sidney St, Cambridge, MA 02139"
Contract Research & Manufacturing,,AVERICA DISCOVERY SERVICES INC,Jeffrey,Kiplinger,President/Founder,1 Innovation Dr,3 Biotech,Worcester,MA,01605,7,"1 Innovation Dr 3 Biotech, Worcester, MA 01605"
Medical Device,,AXENA TECHNOLOGIES,Jonathan,Brown,CEO,One Davol Sq,Suite 200,Providence,RI,02903,0,"One Davol Sq Suite 200, Providence, RI 02903"
Drug Development,,AXERION THERAPEUTICS INC,Sylvia,McBrinn,President/CEO,555 Long Wharf Dr,11 Floor,New Haven,CT,06511,9,"555 Long Wharf Dr 11 Floor, New Haven, CT 06511"
Drug Development,,AXIOS BIOSCIENCES,Douglas,McMillin,Founder,,,,MA,,0,", , MA "
Medical Device,,B - K MEDICAL SYSTEMS INC,Mark,Miller,General Manager,8 Centennial Dr,,Peabody,MA,01960,100,"8 Centennial Dr, Peabody, MA 01960"
Academic,MA Bio Member,BABSON EXECUTIVE EDUCATION,,,,231 Forest St,,Babson Park,MA,02457,0,"231 Forest St, Babson Park, MA 02457"
Drug Development,MA Bio Member,BACH PHARMA INC,Mark,Henry,CEO,800 Turnpike St,Suite 300,N Andover,MA,01845,7,"800 Turnpike St Suite 300, N Andover, MA 01845"
Contract Research & Manufacturing,,BAR HARBOR BIOTECHNOLOGY INC,Robert,Phelps,CEO,18 River Field Rd,,Trenton,ME,04605,0,"18 River Field Rd, Trenton, ME 04605"
Medical Device,,BARD DAVOL,,,,100 Crossing Blvd,,Warwick,RI,02886,100,"100 Crossing Blvd, Warwick, RI 02886"
Medical Device,,"BARD ELECTROPHYSIOLOGY, DIVISION OF C R BARD INC",Benjamin,Davis,Director Business Dev't,55 Technology Dr,,Lowell,MA,01851,100,"55 Technology Dr, Lowell, MA 01851"
Medical Device,,BARIL CORP,Daniel,Baril,President,50 Ward Hill Ave,,Haverhill,MA,01835,31,"50 Ward Hill Ave, Haverhill, MA 01835"
Medical Device,,BARON MACHINE CO INC,Kim,Baron,President,O'Shea Industrial Park,40 Primrose Dr,Laconia,NH,03246,70,"O'Shea Industrial Park 40 Primrose Dr, Laconia, NH 03246"
Medical Device,,BARTRON MEDICAL IMAGING INC,Fitz,Walker,CEO/President,91 Shelton Ave,,New Haven,CT,06511,4,"91 Shelton Ave, New Haven, CT 06511"
Contract Research & Manufacturing,MA Bio Member,BATAVIA BIOSERVICES INC,Joan,Hilly,Director Cell Sciences,300 Trade Center,Suite 6650,Woburn,MA,01801,5,"300 Trade Center Suite 6650, Woburn, MA 01801"
Medical Device,,BAY INNOVATION GROUP LLC,Kevin,Ohashi,Managing Director,60 Orchard St,,Jamaica Plain,MA,02130,0,"60 Orchard St, Jamaica Plain, MA 02130"
Medical Device,,BEAVER-VISITEC INTERNATIONAL INC,Thomas,Kapfer,President/CEO,411 Waverley Oaks Rd,,Waltham,MA,02452,200,"411 Waverley Oaks Rd, Waltham, MA 02452"
Research Products & Instrumentation,,BECKMAN COULTER GENOMICS,,,,36 Cherry Hill Dr,,Danvers,MA,01923,110,"36 Cherry Hill Dr, Danvers, MA 01923"
Disease Foundation,MA Bio Member,BEDFORD STEM CELL RESEARCH FOUNDATION,Ann,Kiessling,Executive Director,P O Box 1028,,Bedford,MA,01730,3,"P O Box 1028, Bedford, MA 01730"
Agricultural/Industrial Biotechnology,,BEDOUKIAN RESEARCH INC,Robert,Bedoukian,Owner,21 Finance Dr,,Danbury,CT,06810,45,"21 Finance Dr, Danbury, CT 06810"
Medical Device,,BELMONT INSTRUMENT CORP,George,Herzlinger,President/CEO,780 Boston Rd,,Billerica,MA,01821,55,"780 Boston Rd, Billerica, MA 01821"
Academic,MA Bio Member,BENTLEY UNIVERSITY,Lynn,Arenella,Assoc Professor Biotechnology,175 Forest St,,Waltham,MA,02452,0,"175 Forest St, Waltham, MA 02452"
Contract Research & Manufacturing,,BEPETERSON INC,Terry,Moore,CEO,40 Murphy Dr,,Avon,MA,02322,80,"40 Murphy Dr, Avon, MA 02322"
Drug Development,MA Bio Member,BERG BIOSYSTEMS,Niven,Narain,President/CTO,12 Michigan Dr,,Natick,MA,01760,0,"12 Michigan Dr, Natick, MA 01760"
Research Products & Instrumentation,,BERKSHIRE CORP,Whitmore,Kelley,Founder/CEO/Vice Chairman,21 River St,,Great Barrington,MA,01230,,"21 River St, Great Barrington, MA 01230"
Medical Device,,BERN OPTICS INC,Bernd,Gottschalk,President,579 Southampton Rd,,Westfield,MA,01085,43,"579 Southampton Rd, Westfield, MA 01085"
Hospital,MA Bio Member,BETH ISRAEL DEACONESS MEDICAL CENTER,Eric,Buehrens,Interim CEO,330 Brookline Ave,,Boston,MA,02215,7000,"330 Brookline Ave, Boston, MA 02215"
Human Diagnostic Development,MA Bio Member,BG MEDICINE INC,Eric,Bouvier,President/CEO,610 Lincoln St North,,Waltham,MA,02451,30,"610 Lincoln St North, Waltham, MA 02451"
Non-profit Research Institution,,BGI AMERICAS CORP,Yang,Huanming,President/Professor,1 Broadway,14th Floor,Cambridge,MA,02142,10,"1 Broadway 14th Floor, Cambridge, MA 02142"
BioInformatics,,BI2 TECHNOLOGIES,Sean,Mullin,President/CEO,488 State Rd,Suite 1,Plymouth,MA,02360,0,"488 State Rd Suite 1, Plymouth, MA 02360"
Medical Device,,BICON DENTAL IMPLANTS,,,,501 Arborway,,Boston,MA,02130,35,"501 Arborway, Boston, MA 02130"
Drug Development,MA Bio Member,BIND BIOSCIENCES INC,Scott,Minick,President/CEO,325 Vassar St,,Cambridge,MA,02139,30,"325 Vassar St, Cambridge, MA 02139"
Drug Development,,BIO SAN LABORATORIES INC/INNATE RESPONSE,Carl,Jackson,President,8 Bowers Rd,,Derry,NH,03038,50,"8 Bowers Rd, Derry, NH 03038"
Contract Research & Manufacturing,MA Bio Member,BIO-CONCEPT LABORATORIES INC,Francis,Smith,President/CEO,13 Industrial Way,,Salem,NH,03079,24,"13 Industrial Way, Salem, NH 03079"
Medical Device,,BIO-DETEK INC,Mark,Totman,President,525 Narragansett Park Dr,,Pawtucket,RI,02861,160,"525 Narragansett Park Dr, Pawtucket, RI 02861"
Medical Device,,BIO-MED DEVICES INC,Dean,Bennett,CEO,61 Soundview Rd,,Guilford,CT,06437,60,"61 Soundview Rd, Guilford, CT 06437"
Human Diagnostic Development,,BIOARRAY THERAPEUTICS INC,Marcia,Fournier,CEO/Founder,"Venture Development Center, UMASS",100 Morrissey Blvd.,Boston,MA,02125,0,"Venture Development Center, UMASS 100 Morrissey Blvd., Boston, MA 02125"
Human Diagnostic Development,,BIOBEHAVIORAL DIAGNOSTICS CO,Byron,Hewett,Chairman/CEO,239 Littleton Rd,Suite 6A,Westford,MA,01886,5,"239 Littleton Rd Suite 6A, Westford, MA 01886"
Agricultural/Industrial Biotechnology,MA Bio Member,BIOCELL CENTER,,,,200 Boston Ave,Suite 1550,Medford,MA,02445,0,"200 Boston Ave Suite 1550, Medford, MA 02445"
Contract Research & Manufacturing,,BIOCLINICA INC,Mark,Weinstein,President/CEO,321 Commonwealth Rd,Suite 303,Wayland,MA,01778,12,"321 Commonwealth Rd Suite 303, Wayland, MA 01778"
Agricultural/Industrial Biotechnology,,BIODEFENSE CORP,David,Smith,Chairman/CEO,12 Channel St,Marine Industrial Park,Boston,MA,02210,10,"12 Channel St Marine Industrial Park, Boston, MA 02210"
Drug Development,,BIODEL INC,Errol,De Souza,President/CEO/Director,100 Saw Mill Rd,,Danbury,CT,06810,38,"100 Saw Mill Rd, Danbury, CT 06810"
Contract Research & Manufacturing,,BIODEVICE PARTNERS,Steven,Auger,President,17 Lantern Ln,,Cohasset,MA,02025,1,"17 Lantern Ln, Cohasset, MA 02025"
Research Products & Instrumentation,,BIODIRECT INC,Richard,Tula,President/CEO,245 Constitution Dr,,Taunton,MA,02780,20,"245 Constitution Dr, Taunton, MA 02780"
Contract Research & Manufacturing,MA Bio Member,BIOFOCUS,Julie,Frearson,Professor,,,,CT,,1,", , CT "
Drug Development,MA Bio Member,BIOGEN IDEC,George,Scangos,CEO,133 Boston Post Road,,Weston,MA,02493,740,"133 Boston Post Road, Weston, MA 02493"
Human Diagnostic Development,MA Bio Member,BIOHELIX CORP,Huimin,Kong,President,500 Cummings,Suite 5550,Beverly,MA,01915,18,"500 Cummings Suite 5550, Beverly, MA 01915"
Research Products & Instrumentation,,BIOMEDICAL POLYMERS,Michael,Faulkner,President,42 Linus Allain Ave,,Gardner,MA,01440,43,"42 Linus Allain Ave, Gardner, MA 01440"
Contract Research & Manufacturing,MA Bio Member,BIOMEDICAL RESEARCH MODELS INC,Christina,Fox,Director Business Dev't,67 Millbrook St,,Worcester,MA,01606,50,"67 Millbrook St, Worcester, MA 01606"
Medical Device,,BIOMEDICAL STRUCTURES LLC,Dean,Tulumaris,President/CEO,60 Commerce Dr,,Warwick,RI,02886,44,"60 Commerce Dr, Warwick, RI 02886"
Drug Development,MA Bio Member,BIOMEDICAL SYSTEMS,Leah,Zilla,Director Business Dev't,6 Matteo St,,Worcester,MA,01606,1,"6 Matteo St, Worcester, MA 01606"
Research Products & Instrumentation,,BIOMEDICAL TECHNOLOGIES INC,Maurice,Lamarque,President,378 Page St,,Stoughton,MA,02072,10,"378 Page St, Stoughton, MA 02072"
Contract Research & Manufacturing,MA Bio Member,BIOMODELS LLC,Edward,Fey,Managing Partner,313 Pleasant St,,Watertown,MA,02472,12,"313 Pleasant St, Watertown, MA 02472"
Human Diagnostic Development,,BIONOSTICS INC,Michael,Thomas,President/CEO,7 Jackson Rd,,Devens,MA,01434,100,"7 Jackson Rd, Devens, MA 01434"
Contract Research & Manufacturing,,BIOPARTNERS INC,Larry,Bush,President,10 Andy Rd,,Worcester,MA,01602,1,"10 Andy Rd, Worcester, MA 01602"
Research Products & Instrumentation,MA Bio Member,BIOPHYSICS ASSAY LABORATORY INC,Dennis,Vaccaro,Chairman,80 Webster St,,Worcester,MA,01603,10,"80 Webster St, Worcester, MA 01603"
BioInformatics,,BIOPIER,Simon,Gao,President,394 Lowell St,Suite 17,Lexington,MA,02420,10,"394 Lowell St Suite 17, Lexington, MA 02420"
Contract Research & Manufacturing,,BIOPROCESS TECHNOLOGY CONSULTANTS,Howard,Levine,Founder/President/Principal Consultant,12 Gill St,Suite 5450,Woburn,MA,01801,0,"12 Gill St Suite 5450, Woburn, MA 01801"
Human Diagnostic Development,,BIOPROCESSING INC,Gary,Goodrich,President,1045 Riverside St,,Portland,ME,04103,18,"1045 Riverside St, Portland, ME 04103"
Medical Device,,BIORASIS INC,Ioannis,Tomazos,CEO,1392 Storrs Rd,Advanced Tech Lab Room 106,Storrs-Mansfield,CT,06269,5,"1392 Storrs Rd Advanced Tech Lab Room 106, Storrs-Mansfield, CT 06269"
Drug Development,,BIORELIX INC,,,,5 Science Park,401 Winchester Ave,New Haven,CT,06511,,"5 Science Park 401 Winchester Ave, New Haven, CT 06511"
Research Products & Instrumentation,MA Bio Member,BIOSCALE INC,Mark,Lundstrom,CEO/Founder,4 Maguire Rd,,Lexington,MA,02421,40,"4 Maguire Rd, Lexington, MA 02421"
Medical Device,,BIOSIGNETICS CORP,,,,29 Downing Ct,,Exeter,NH,03833,3,"29 Downing Ct, Exeter, NH 03833"
Medical Device,,BIOSURFACES INC,Matthew,Phaneuf,President/CTO,200 Homer Ave,Unit 1P,Ashland,MA,01721,8,"200 Homer Ave Unit 1P, Ashland, MA 01721"
Research Products & Instrumentation,,"BIOTECH SOURCE, THE",Bill,McDonald,Director Business Dev't,4 Commons Dr,Suite 1C,Windham,ME,04062,4,"4 Commons Dr Suite 1C, Windham, ME 04062"
Drug Development,MA Bio Member,BIOTECHNIC PRODUCTS LTD,Prakash,Kadkade,President/CEO,60 Prescott St,,Worcester,MA,01605,7,"60 Prescott St, Worcester, MA 01605"
Medical Device,,BIOTRICITY MEDICAL INC,Stephen,Rathmill,President/Co-founder,17 Alexander Rd,,Hopkinton,MA,01748,1,"17 Alexander Rd, Hopkinton, MA 01748"
Contract Research & Manufacturing,MA Bio Member,BIOTROFIX INC,Seth,Finklestein,CEO,830 Winter St,1st Floor,Waltham,MA,02451,0,"830 Winter St 1st Floor, Waltham, MA 02451"
Agricultural/Industrial Biotechnology,,BIOVATION LLC,Peter,Anania,President/Chairman,55 Industrial Park Rd,,Boothbay,ME,04537,0,"55 Industrial Park Rd, Boothbay, ME 04537"
Research Products & Instrumentation,,BIOVIEW (USA) INC,Dr Alan,Schwebel,President/CEO,44 Manning Rd,,Billerica,MA,01821,10,"44 Manning Rd, Billerica, MA 01821"
Medical Device,,BIT ANALYTICAL INSTRUMENTS,Brian,Jarvis,VP Marketing,388 Munsing St,,Ludlow,MA,01056,3,"388 Munsing St, Ludlow, MA 01056"
Medical Device,,BLACK DIAMOND MANUFACTURING & ENGINEERING INC,Carrie,Denley,President,119 Foster St,Bldg 12 2nd Floor Rear,Peabody,MA,01960,7,"119 Foster St Bldg 12 2nd Floor Rear, Peabody, MA 01960"
Drug Development,MA Bio Member,BLEND THERAPEUTICS,Omid,Farokhzad,Founder,134 Coolidge Ave,,Watertown,MA,02472,0,"134 Coolidge Ave, Watertown, MA 02472"
Contract Research & Manufacturing,MA Bio Member,BLUE SKY BIOTECH INC,Paul,Wengender,CEO,60 Prescott St,,Worcester,MA,01605,,"60 Prescott St, Worcester, MA 01605"
Contract Research & Manufacturing,MA Bio Member,BLUE STREAM LABORATORIES INC,Michael,Kouchakdjian,President,763 Concord Ave,Bldg E,Cambridge,MA,02138,17,"763 Concord Ave Bldg E, Cambridge, MA 02138"
Medical Device,,BLUE THUNDER TECHNOLOGIES,Gina,Cyr,Sales Manager,1 Corporate Rd,#108,Enfield,CT,06082,12,"1 Corporate Rd #108, Enfield, CT 06082"
Drug Development,MA Bio Member,BLUEBIRD BIO,Nick,Leschly,President/CEO,840 Memorial Dr,,Cambridge,MA,02139,12,"840 Memorial Dr, Cambridge, MA 02139"
Drug Development,MA Bio Member,BLUEPRINT MEDICINES,Chris,Varma,President/CEO,215 First St,,Cambridge,MA,02142,22,"215 First St, Cambridge, MA 02142"
Drug Development,,BOEHRINGER INGELHEIM PHARMACEUTICALS INC,J Martin,Carroll,President/CEO,900 Ridgebury Rd,P O Box 368,Ridgefield,CT,06877,2200,"900 Ridgebury Rd P O Box 368, Ridgefield, CT 06877"
Contract Research & Manufacturing,MA Bio Member,BOSTON ANALYTICAL INC,Jim,Mich,General Manager,8 Industrial Way,Unit D-3,Salem,NH,03079,58,"8 Industrial Way Unit D-3, Salem, NH 03079"
Research Products & Instrumentation,MA Bio Member,BOSTON BIOCHEM INC,Francesco,Melandri,President/CEO,840 Memorial Dr,,Cambridge,MA,02139,12,"840 Memorial Dr, Cambridge, MA 02139"
Drug Development,MA Bio Member,BOSTON BIOMEDICAL INC,Paula,Magoon,Executive Administrator,333 Providence Highway,,Norwood,MA,02062,25,"333 Providence Highway, Norwood, MA 02062"
Medical Device,,BOSTON BRACE INTERNATIONAL INC,Tom,Morrissey,President/CEO,20 Ledin Dr,,Avon,MA,02322,120,"20 Ledin Dr, Avon, MA 02322"
Research Products & Instrumentation,,BOSTON ELECTRONICS CORP,Fred,Perry,President,91 Boylston St,,Brookline,MA,02445,8,"91 Boylston St, Brookline, MA 02445"
Medical Device,,BOSTON HEART DIAGNOSTICS,Susan,Hertzberg,CEO, 2 Central St,,Framingham,MA,01701,0," 2 Central St, Framingham, MA 01701"
Medical Device,,BOSTON MEDICAL PRODUCTS INC,Stuart,Montgomery,CEO/President,117 Flanders Rd,,Westborough,MA,01581,14,"117 Flanders Rd, Westborough, MA 01581"
Medical Device,,BOSTON MEDTECH ADVISORS,David,Barone,Principal,990 Washington St,,Dedham,MA,02026,5,"990 Washington St, Dedham, MA 02026"
Medical Device,,BOSTON MICROMACHINES CORP,Paul,Bierden,President/CEO,30 Spinelli Pl,,Cambridge,MA,02138,10,"30 Spinelli Pl, Cambridge, MA 02138"
Medical Device,,BOSTON NEUROFEEDBACK CENTER PC,Anita,Myer,CEO,7 Alfred St,,Woburn,MA,01801,4,"7 Alfred St, Woburn, MA 01801"
Medical Device,,BOSTON SCIENTIFIC CORP,"William ""Hank""",Kucheman,CEO,1 Boston Scientific Pl,,Natick,MA,01760,2100,"1 Boston Scientific Pl, Natick, MA 01760"
Contract Research & Manufacturing,,BOYD COATINGS RESEARCH CO INC,Donald,Garcia,President,51 Parmenter Rd,,Hudson,MA,01749,98,"51 Parmenter Rd, Hudson, MA 01749"
Medical Device,,BRAIN RESEARCH LABORATORIES INC,,,,Waban PO Box 88,,Newton,MA,02468,0,"Waban PO Box 88, Newton, MA 02468"
Research Products & Instrumentation,,BRAND-NU LABORATORIES INC,John,Gorman,President,377 Research Parkway,,Meriden,CT,06450,30,"377 Research Parkway, Meriden, CT 06450"
Drug Development,MA Bio Member,BRISTOL-MYERS SQUIBB CO,Eamonn,Goold,VP/GM Devens Technical,38 Jackson Road,,Devens,MA,01434,250,"38 Jackson Road, Devens, MA 01434"
Medical Device,,BRUCE MEDICAL SUPPLY,Richard,Najarian,President,411 Waverly Oaks Rd,,Waltham,MA,02452,35,"411 Waverly Oaks Rd, Waltham, MA 02452"
Medical Device,,BRUKER BIOSPIN CORP,Frank,Laukien,President,15 Fortune Dr,,Billerica,MA,01821,110,"15 Fortune Dr, Billerica, MA 01821"
Research Products & Instrumentation,,BRUKER DALTONICS INC,Frank,Laukien,President/CEO,40 Manning Rd,,Billerica,MA,01821,100,"40 Manning Rd, Billerica, MA 01821"
Medical Device,,BRUNSWICK BIOMEDICAL TECHNOLOGIES,John,Driscoll,CEO/President,4 Little Brook Rd,,W Wareham,MA,02576,10,"4 Little Brook Rd, W Wareham, MA 02576"
Medical Device,,BRYAN CORP,Brian,Abrano,GM,4 Plympton St,,Woburn,MA,01801,9,"4 Plympton St, Woburn, MA 01801"
Medical Device,,BRYMILL CORP,Claudio,Russo,GM,105 Windermere Ave,,Ellington,CT,06029,12,"105 Windermere Ave, Ellington, CT 06029"
Research Products & Instrumentation,,BULLDOG BIO INC,Michael,Mortillaro,Owner,One New Hampshire Ave,Suite 125,Portsmouth,NH,03801,0,"One New Hampshire Ave Suite 125, Portsmouth, NH 03801"
Medical Device,,CADENCE SCIENCE INC,TM,Dickinson,VP Marketing,2080 Plainfield Pike,,Cranston,RI,02921,87,"2080 Plainfield Pike, Cranston, RI 02921"
Research Products & Instrumentation,,"CALIPER, A PERKINELMER CO",,,,68 Elm St,,Hopkinton,MA,01748,225,"68 Elm St, Hopkinton, MA 01748"
Contract Research & Manufacturing,MA Bio Member,CAMBRIDGE BIOMEDICAL INC,Barbara,Osband,President/CEO,1320 Soldiers Field Rd,,Boston,MA,02135,32,"1320 Soldiers Field Rd, Boston, MA 02135"
Human Diagnostic Development,,CAMBRIDGE BIOSOURCE LLC,Michael,Rothman,CEO,3 Frost St,,Cambridge,MA,02140,10,"3 Frost St, Cambridge, MA 02140"
Medical Device,,CAMBRIDGE ENDOSCOPIC DEVICES INC,Woojin,Lee,President,119 Herbert St,,Framingham,MA,01702,10,"119 Herbert St, Framingham, MA 01702"
Medical Device,,CAMBRIDGE HEART INC,Ali,Haghighi Mood,President/CEO,100 Ames Pond Dr,Suite 100,Tewksbury,MA,01786,20,"100 Ames Pond Dr Suite 100, Tewksbury, MA 01786"
Contract Research & Manufacturing,,CAMBRIDGE ISOTOPE LABORATORIES,Joel,Bradley,CEO,50 Frontage Rd,,Andover,MA,01810,100,"50 Frontage Rd, Andover, MA 01810"
Contract Research & Manufacturing,,CAMBRIDGE SCIENTIFIC PRODUCTS,Barbara,Pearlman,President,199 Dexter Ave,,Watertown,MA,02472,15,"199 Dexter Ave, Watertown, MA 02472"
Disease Foundation,MA Bio Member,CANCER RESEARCH TECHNOLOGY INC,Larry,Steranka,Managing Director,1 Kendall Square,Suite B2101,Cambridge,MA,02139,3,"1 Kendall Square Suite B2101, Cambridge, MA 02139"
Medical Device,,CANDELA CORP,Gerard,Puorro,President/CEO,530 Boston Post Rd,,Wayland,MA,01778,196,"530 Boston Post Rd, Wayland, MA 01778"
Research Products & Instrumentation,MA Bio Member,CAPRALOGICS INC,Stan,White,President/CEO,P O Box 356,,Hardwick,MA,01037,9,"P O Box 356, Hardwick, MA 01037"
Medical Device,,CAPSULE TECH INC,Brian,McAlpine,Director Strategic Products,300 Brickstone Sq,Suite 203,Andover,MA,01810,55,"300 Brickstone Sq Suite 203, Andover, MA 01810"
Drug Development,,CARA THERAPEUTICS INC,Derek,Chalmers,CEO/President/Director,One Parrott Dr,,Shelton,CT,06484,9,"One Parrott Dr, Shelton, CT 06484"
Medical Device,,CARDIOFOCUS,Steve,Sagon,President/CEO,500 Nickerson Rd,Suite 500-200,Marlborough,MA,01752,15,"500 Nickerson Rd Suite 500-200, Marlborough, MA 01752"
Medical Device,,CARDIOPULMONARY CORP,Mike,Agro,Northeast Regional Sales Executive,200 Cascade Blvd,,Milford,CT,06460,,"200 Cascade Blvd, Milford, CT 06460"
Medical Device,,CARDIOSOLUTIONS INC,Steven,Tallarida,President/Chairman,375 West St,,W Bridgewater,MA,02379,15,"375 West St, W Bridgewater, MA 02379"
Medical Device,,CARDIOVASCULAR INSTRUMENT CORP,A Edward,Urkiewicz,President,102 Foundry St,P O Box 188,Wakefield,MA,01880,12,"102 Foundry St P O Box 188, Wakefield, MA 01880"
Medical Device,,CARESTREAM HEALTH MOLECULAR IMAGING SYSTEMS,Kevin,Hobert,CEO,4 Research Dr,,Woodbridge,CT,06525,75,"4 Research Dr, Woodbridge, CT 06525"
Medical Device,,CASCO BAY MOLDING,Andrew,Powell,President,32 Smada Dr,,Sanford,ME,04073,12,"32 Smada Dr, Sanford, ME 04073"
Medical Device,,CASMED/CAS MEDICAL SYSTEMS INC,Louis,Scheps,Chairman,44 East Industrial Rd,,Branford,CT,06405,100,"44 East Industrial Rd, Branford, CT 06405"
Medical Device,,CASTLEWOOD SURGICAL INC,Wolfgang,Daum,CEO,20 Main St,Suite 302,Concord,MA,01742,0,"20 Main St Suite 302, Concord, MA 01742"
Drug Development,MA Bio Member,CATABASIS PHARMACEUTICALS INC,Jill,Milne,CEO/Co-Founder,1 Kendall Sq,Suite B14202,Cambridge,MA,02139,20,"1 Kendall Sq Suite B14202, Cambridge, MA 02139"
Contract Research & Manufacturing,,CATO RESEARCH BOSTON,,,,1100 Winter St,,Waltham,MA,02451,6,"1100 Winter St, Waltham, MA 02451"
Non-profit Research Institution,MA Bio Member,CBSET INC,Dan,Howell,Director Sales/Marketing,500 Shire Way,,Lexington,MA,02421,45,"500 Shire Way, Lexington, MA 02421"
Contract Research & Manufacturing,,CBT ADVISORS,Steven,Dickman,CEO,1 Broadway,14th Flr,Cambridge,MA,02142,1,"1 Broadway 14th Flr, Cambridge, MA 02142"
Drug Development,,CELEXION LLC,Brian,Baynes,CEO,1 Kendall Sq,Bldg 1400,Cambridge,MA,02139,0,"1 Kendall Sq Bldg 1400, Cambridge, MA 02139"
Contract Research & Manufacturing,,CELL ESSENTIALS INC,Douglas,Jefferson,President,198 Tremont St #181,,Boston,MA,02116,20,"198 Tremont St #181, Boston, MA 02116"
Research Products & Instrumentation,MA Bio Member,CELL SIGNALING TECHNOLOGY INC,Michael,Comb,CEO,3 Trask Ln,,Danvers,MA,01923,0,"3 Trask Ln, Danvers, MA 01923"
Medical Device,MA Bio Member,CELLAY INC,Shannon,Knuth,Marketing Manager,100 Inman St,Suite 200,Cambridge,MA,02139,17,"100 Inman St Suite 200, Cambridge, MA 02139"
Drug Development,,CELLCEUTIX CORP,Krishna,Menon,President/CSO,100 Cumming Center,Suite 151-B,Beverly,MA,01915,0,"100 Cumming Center Suite 151-B, Beverly, MA 01915"
Drug Development,MA Bio Member,CELLDEX THERAPEUTICS INC,Anthony,Marucci,President/CEO,119 4th Ave,,Needham,MA,02494,43,"119 4th Ave, Needham, MA 02494"
Research Products & Instrumentation,MA Bio Member,CELLECTIS BIORESEARCH INC,Eric,Merle,US Sales Director,One Broadway,,Cambridge,MA,02142,2,"One Broadway, Cambridge, MA 02142"
Contract Research & Manufacturing,,CELLMOSAIC LLC,Yumei,Huang,Founder/President/CEO,100 Barber Ave,,Worcester,MA,01606,4,"100 Barber Ave, Worcester, MA 01606"
Medical Device,,CEMS (USA) INC,Larry,Hargreaves,Managing Director,,,Dover,MA,02030,11,", Dover, MA 02030"
Non-profit Research Institution,MA Bio Member,CENTER INTERDISCIPLINARY CARDIOVASCULAR SCIENCES,,,,3 Blackfan Cir,17th Floor,Boston,MA,02115,0,"3 Blackfan Cir 17th Floor, Boston, MA 02115"
Agricultural/Industrial Biotechnology,,CEREALUS HOLDINGS LLC,Tony,Jabar,Founder/CEO,25 Clearview Ave,,Waterville,ME,04901,0,"25 Clearview Ave, Waterville, ME 04901"
Contract Research & Manufacturing,MA Bio Member,CERTUS INTERNATIONAL INC,Edward,Aten,President/CEO,10 Corporate Dr,Suite 101,Bedford,NH,02110,0,"10 Corporate Dr Suite 101, Bedford, NH 02110"
Drug Development,MA Bio Member,CERULEAN PHARMA INC,Oliver,Fetzer,President/CEO,840 Memorial Dr,,Cambridge,MA,02139,26,"840 Memorial Dr, Cambridge, MA 02139"
Medical Device,,"CHAMBERLAIN GROUP LLC, THE",Eric,Chamberlain,President,934 Main St,,Great Barrington,MA,01230,20,"934 Main St, Great Barrington, MA 01230"
Drug Development,,CHARLES RIVER LABORATORIES INTERNATIONAL INC,James,Foster,Chairman/President/CEO,251 Ballardvale St,,Wilmington,MA,01887,850,"251 Ballardvale St, Wilmington, MA 01887"
Research Products & Instrumentation,,CHEAP TUBES INC,Mike,Foley,President,112 Mercury Dr,,Brattleboro,VT,05301,3,"112 Mercury Dr, Brattleboro, VT 05301"
Drug Development,,CHEMINPHARMA LLC,Uday,Khire,Founder/CEO,400 Farmington Ave,,Farmington,CT,06030,0,"400 Farmington Ave, Farmington, CT 06030"
Agricultural/Industrial Biotechnology,,CHEMSIM LLC,Huan,Hsu,President,26 Berkeley St,,Arlington,MA,02474,2,"26 Berkeley St, Arlington, MA 02474"
Hospital,MA Bio Member,CHILDREN'S HOSPITAL BOSTON,Erik,Halvorsen,Executive Director Technology/Innovation Dev't,300 Longwood Ave,Technology & Innovation Development Office,Boston,MA,02144,25,"300 Longwood Ave Technology & Innovation Development Office, Boston, MA 02144"
Research Products & Instrumentation,,CHROMATAN,Oleg,Shinkazh,Founder/President,,,Dedham,MA,,1,", Dedham, MA "
Research Products & Instrumentation,,CIENCIA INC,Arturo,Pilar,President,111 Roberts St,Suite K,E Hartford,CT,06108,11,"111 Roberts St Suite K, E Hartford, CT 06108"
Medical Device,,CIMEDICAL INC,Clifford,Garnett,CEO/CFO,15 Commerce Way,Norton Commerce Ctr,Norton,MA,02766,50,"15 Commerce Way Norton Commerce Ctr, Norton, MA 02766"
Medical Device,,CIRTEC MEDICAL SYSTEMS,Michael,Forman,President/CTO/Founder,55 Deer Park Dr,,E Longmeadow,MA,01028,64,"55 Deer Park Dr, E Longmeadow, MA 01028"
Human Diagnostic Development,,CITRA ANTICOAGULANTS INC,,,,55 Messina Dr,,Braintree,MA,02184,0,"55 Messina Dr, Braintree, MA 02184"
Drug Development,MA Bio Member,CIVITAS THERAPEUTICS,Stephanie,Gillis,Manager Administration,190 Everett Ave,,Chelsea,MA,02150,15,"190 Everett Ave, Chelsea, MA 02150"
Human Diagnostic Development,,CLAROS DIAGNOSTICS INC,Michael,Magliochetti,President/CEO,4 Consitution Way,Suite E,Woburn,MA,01801,0,"4 Consitution Way Suite E, Woburn, MA 01801"
BioInformatics,,CLINIWORKS INC,Nitzan,Sneh,CEO,245 First St,Suite 1800,Cambridge,MA,02142,,"245 First St Suite 1800, Cambridge, MA 02142"
Contract Research & Manufacturing,MA Bio Member,CLINQUEST INC,James,Thomasch,CEO,One Cabot Rd,,Hudson,MA,01749,0,"One Cabot Rd, Hudson, MA 01749"
Contract Research & Manufacturing,,CMB SCIENCE INC,Scott,Wharram,Founder,600 Suffolk St,Wannalancit Mills,Lowell,MA,01854,,"600 Suffolk St Wannalancit Mills, Lowell, MA 01854"
BioInformatics,,CMD BIOSCIENCE,Joseph,Audie,CEO,5 Science Park,,New Haven,CT,06511,7,"5 Science Park, New Haven, CT 06511"
Medical Device,,COATINGS2GO LLC,Margaret,Palmer,CEO,399 Concord St,,Carlisle,MA,01741,2,"399 Concord St, Carlisle, MA 01741"
Medical Device,,COBURN TECHNOLOGIES,Alex,Incera,President,55 Gerber Rd,,S Windsor,CT,06074,90,"55 Gerber Rd, S Windsor, CT 06074"
Medical Device,,COGMEDIX,Lianne,Coppinger,Director Compliance/Regulatory,70 Hartwell St,,W Boylston,MA,01583,,"70 Hartwell St, W Boylston, MA 01583"
Drug Development,,COLLEGIUM PHARMACEUTICAL INC,Michael,Heffernan,Co-Founder/President/CEO,400 Highland Corporate Dr,,Cumberland,RI,02864,,"400 Highland Corporate Dr, Cumberland, RI 02864"
Contract Research & Manufacturing,,COLUMBIA TECH,James,Coghlin Sr,Chairman,17 Briden St,,Worcester,MA,01605,300,"17 Briden St, Worcester, MA 01605"
Medical Device,,COMET NORTH AMERICA INC,Ronald,Fehlmann,CEO,76 Progress Dr,,Stamford,CT,06902,25,"76 Progress Dr, Stamford, CT 06902"
Medical Device,,COMPONENT ENGINEERS INC,Ronald,Hansen Jr,President/CEO,108 North Plains Industrial Rd,,Wallingford,CT,06492,90,"108 North Plains Industrial Rd, Wallingford, CT 06492"
Medical Device,,CONCERT MEDICAL,,,,77 Accord Park Dr,,Norwell,MA,02061,50,"77 Accord Park Dr, Norwell, MA 02061"
Drug Development,MA Bio Member,CONCERT PHARMACEUTICALS INC,Roger,Tung,President/CEO,99 Hayden Ave,Suite 500,Lexington,MA,02421,45,"99 Hayden Ave Suite 500, Lexington, MA 02421"
Medical Device,,CONDUCTIVE COMPOUNDS INC,Don,Banfield,President,17 Hampshire Dr,Suite 8,Hudson,NH,03051,10,"17 Hampshire Dr Suite 8, Hudson, NH 03051"
Medical Device,,CONFORMIS INC,Philipp,Lang,President/CEO,11 North Ave,,Burlington,MA,01803,45,"11 North Ave, Burlington, MA 01803"
Academic,,CONNECTICUT VALLEY BIOLOGICAL SUPPLY CO INC,Robert,Lohr,President,82 Valley Rd,P O Box 326,Southampton,MA,01073,17,"82 Valley Rd P O Box 326, Southampton, MA 01073"
Research Products & Instrumentation,,CONOPTICS,Ronald,Pizzo,President,19 Eagle Rd,,Danbury,CT,06810,20,"19 Eagle Rd, Danbury, CT 06810"
Medical Device,,CONSOLIDATED STILLS AND STERILIZERS,William,Barnstead,President/CEO,76 Ashford St,,Boston,MA,02134,45,"76 Ashford St, Boston, MA 02134"
Drug Development,MA Bio Member,CONSTELLATION PHARMACEUTICALS,Mark,Goldsmith,President/CEO,215 First St,Suite 200,Cambridge,MA,02142,68,"215 First St Suite 200, Cambridge, MA 02142"
Medical Device,,CONTAINERS 2 CLINICS INC,Elizabeth,Sheehan,Executive Director,P O Box 446,53 Yorkshire Rd,Dover,MA,02030,0,"P O Box 446 53 Yorkshire Rd, Dover, MA 02030"
Medical Device,,CONTINENTAL METAL PRODUCTS CO INC,Paul,Siegal,President,35 Olympia Ave,,Woburn,MA,01801,40,"35 Olympia Ave, Woburn, MA 01801"
BioInformatics,,CONTROL MODULE INC,James,Bianco,VP,89 Phoenix Ave,,Enfield,CT,06082,80,"89 Phoenix Ave, Enfield, CT 06082"
Agricultural/Industrial Biotechnology,,CONVERTED ORGANICS INC,Edward,Gildea,President/CEO,74 Commercial Wharf West,,Boston,MA,02110,0,"74 Commercial Wharf West, Boston, MA 02110"
Medical Device,,COOPER SURGICAL,Nicholas,Pichotta,CEO,95 Corporate Dr,,Trumbull,CT,06611,200,"95 Corporate Dr, Trumbull, CT 06611"
Medical Device,,CORFLEX INC,Paul,Lorenzetti,President,669 E Industrial Park Dr #2,,Manchester,NH,03109,25,"669 E Industrial Park Dr #2, Manchester, NH 03109"
Medical Device,,CORINDUS INC,David,Handler,President/CEO,11 Erie St,,Natick,MA,01760,35,"11 Erie St, Natick, MA 01760"
Medical Device,,CORNING INC/LIFE SCIENCES,Richard,Eglen,VP/GM,900 Chelmsford St,Tower 2 4th Floor,Lowell,MA,01851,120,"900 Chelmsford St Tower 2 4th Floor, Lowell, MA 01851"
Drug Development,MA Bio Member,CORONADO BIOSCIENCES,Glen,Cooper,Executive Chairman/Director,15 New England Executive Park,,Burlington,MA,01803,15,"15 New England Executive Park, Burlington, MA 01803"
Medical Device,,CORREX INC,J Alan,Crunkleton,President/CEO/Director,135 Beaver St,Suite 203,Waltham,MA,02452,0,"135 Beaver St Suite 203, Waltham, MA 02452"
Medical Device,,COSMAN MEDICAL INC,Michael,Arnold,President,76 Cambridge St,,Burlington,MA,01803,0,"76 Cambridge St, Burlington, MA 01803"
Medical Device,,COTRAN CORP,Bertrand,Dumont,CEO,574 Park Ave,P O Box 130,Portsmouth,RI,02871,10,"574 Park Ave P O Box 130, Portsmouth, RI 02871"
Medical Device,MA Bio Member,COURTAGEN LIFE SCIENCES INC,R Brian,McKernan,CEO,12 Gill St,Suite 3700,Woburn,MA,01801,20,"12 Gill St Suite 3700, Woburn, MA 01801"
Research Products & Instrumentation,,COVARIS INC,,,,14 Gill St,Unit H,Woburn,MA,01801,0,"14 Gill St Unit H, Woburn, MA 01801"
Medical Device,,COVIDIEN,Jose,Almeida,President/CEO,15 Hampshire St,,Mansfield,MA,02048,1300,"15 Hampshire St, Mansfield, MA 02048"
Contract Research & Manufacturing,MA Bio Member,CREAGEN BIOSCIENCES INC,Raj,Rajur,Founder/Chairman/CEO,23 Rainin Rd,,Woburn,MA,01801,12,"23 Rainin Rd, Woburn, MA 01801"
Medical Device,,CREGANNA MEDICAL DEVICES,Randall,Sword,Global Business Dev't,23 Holly Lane,,Beverly,MA,01915,1,"23 Holly Lane, Beverly, MA 01915"
Medical Device,,CRESCENT INDUSTRIES INC,Rex,Bradbury,CEO/CFO,191 Washington St,,Auburn,ME,04210,10,"191 Washington St, Auburn, ME 04210"
Contract Research & Manufacturing,MA Bio Member,CSCS,Mark,Willis,VP Sales/Marketing,59 Greenhill St,,W Warwick,RI,02893,0,"59 Greenhill St, W Warwick, RI 02893"
Medical Device,,CTS ELECTRONICS MANUFACTURING SOLUTIONS,Vinod,Khilnani,CEO,34 Londonderry Rd,,Londonderry,NH,03053,200,"34 Londonderry Rd, Londonderry, NH 03053"
Drug Development,MA Bio Member,CUBIST PHARMACEUTICALS INC,Michael,Bonney,President/CEO,65 Hayden Ave,,Lexington,MA,02421,422,"65 Hayden Ave, Lexington, MA 02421"
Drug Development,MA Bio Member,CURIS INC,James,McNab,Chairman,4 Maguire Rd,,Lexington,MA,02421,45,"4 Maguire Rd, Lexington, MA 02421"
Medical Device,,CUSTOM HEAT LLC,Nick,Childs,Engineering Manager,10 School St,#2,Danvers,MA,01923,8,"10 School St #2, Danvers, MA 01923"
Contract Research & Manufacturing,,CUSTOM NANOTECH LLC,Brent,Buchine,President/Co-Founder,,,Watertown,MA,,2,", Watertown, MA "
Medical Device,,CYNOSURE INC,Michael R,Davin,President/CEO/Chairman,5 Carlisle Rd,,Westford,MA,01886,80,"5 Carlisle Rd, Westford, MA 01886"
Disease Foundation,MA Bio Member,CYSTIC FIBROSIS FOUNDATION THERAPEUTICS LAB,Martin,Mense,Lab Head,3 Preston Court,,Bedford,MA,01730,5,"3 Preston Court, Bedford, MA 01730"
Research Products & Instrumentation,,CYTOGEN RESEARCH AND DEVELOPMENT INC,George,Yerganian,President,89 Bellevue Hill Rd,,W  Roxbury,MA,02132,3,"89 Bellevue Hill Rd, W  Roxbury, MA 02132"
Drug Development,MA Bio Member,CYTOSOLV INC,Moses,Goddard,CEO,117 Chapman St,Suite 107,Providence,RI,02905,0,"117 Chapman St Suite 107, Providence, RI 02905"
Medical Device,,D-CHN LLC,Tim,Cabot,President,One Shorr Court,,Woonsocket,RI,02895,40,"One Shorr Court, Woonsocket, RI 02895"
Medical Device,,D&R PRODUCTS CO INC,Richard,Newman,President,455 River Rd,P O Box 718,Hudson,MA,01749,102,"455 River Rd P O Box 718, Hudson, MA 01749"
BioInformatics,MA Bio Member,DAEDALUS SOFTWARE INC,Azita,Sharif,Founder/CEO,215 First St,Suite 240,Cambridge,MA,02142,52,"215 First St Suite 240, Cambridge, MA 02142"
Contract Research & Manufacturing,,DAKOTA SYSTEMS INC,John,Thomas,President,1057 Broadway Rd,,Dracut,MA,01826,125,"1057 Broadway Rd, Dracut, MA 01826"
BioInformatics,,DAKTARI DIAGNOSTICS INC,William,Rodriguez,CEO,85 Bolton St,,Cambridge,MA,02140,0,"85 Bolton St, Cambridge, MA 02140"
Medical Device,,DALE MEDICAL PRODUCTS,John,Brezack,President,7 Cross St,,Plainville,MA,02762,100,"7 Cross St, Plainville, MA 02762"
Research Products & Instrumentation,,DAN-KAR CORP,Terry,Hahn,President,192C New Boston St,,Woburn,MA,01801,8,"192C New Boston St, Woburn, MA 01801"
Non-profit Research Institution,MA Bio Member,DANA-FARBER CANCER INSTITUTE,Edward,Benz Jr,President/CEO,450 Brookline Ave,,Boston,MA,02215,3700,"450 Brookline Ave, Boston, MA 02215"
Medical Device,,DATACON INC,John,Marshall,CEO/President,60 Blanchard Rd,,Burlington,MA,01803,70,"60 Blanchard Rd, Burlington, MA 01803"
Medical Device,,DAVID SCOTT CO,David,Kaplan,President/CEO DSC Division,59 Fountain St,,Framingham,MA,01702,12,"59 Fountain St, Framingham, MA 01702"
Medical Device,,DAVINCI BIOMEDICAL RESEARCH PRODUCTS INC,Tony,Nazal,Business Dev't,P O Box 1125,,S Lancaster,MA,01561,0,"P O Box 1125, S Lancaster, MA 01561"
Agricultural/Industrial Biotechnology,,DDES LLC,Matt,Norton,President,484 Lowell St,Suite 1A,Peabody,MA,01960,9,"484 Lowell St Suite 1A, Peabody, MA 01960"
BioInformatics,,DECISION RESOURCES,Sarah,Fuller,President,8 New England Executive Pk,,Burlington,MA,01803,0,"8 New England Executive Pk, Burlington, MA 01803"
Medical Device,,DEFIBTECH LLC,Ray,Valek,Media Contact,741 Boston Post Rd,Suite 201,Guilford,CT,06437,0,"741 Boston Post Rd Suite 201, Guilford, CT 06437"
Medical Device,,DELSYS INC,Carlo,De Luca,President,P O Box 15734,,Boston,MA,02215,0,"P O Box 15734, Boston, MA 02215"
Medical Device,,DEPUY MITEK,,,,325 Paramount Dr,,Raynham,MA,02767,0,"325 Paramount Dr, Raynham, MA 02767"
Medical Device,,DEPUY SPINE INC,,,,325 Paramount Dr,,Raynham,MA,02767,440,"325 Paramount Dr, Raynham, MA 02767"
Medical Device,,DERINGER-NEY INC,John,Wallace,CEO/President,2 Douglas St,Ney Industrial Park,Bloomfield,CT,06002,185,"2 Douglas St Ney Industrial Park, Bloomfield, CT 06002"
Medical Device,,DESIGN MEDICAL INC,Douglas,Vincent,President/CEO,70 Bridge St  #8,,Pelham,NH,03076,0,"70 Bridge St  #8, Pelham, NH 03076"
Medical Device,,DESIGN MENTOR INC,Douglas,Vincent,President/CEO,70 Bridge St  #7,,Pelham,NH,03076,6,"70 Bridge St  #7, Pelham, NH 03076"
Drug Development,MA Bio Member,DEUTERIA PHARMACEUTICALS INC,Sheila,DeWitt,President,300 Brickstone Sq,Suite 201,Andover,ME,01810,0,"300 Brickstone Sq Suite 201, Andover, ME 01810"
Non-profit Research Institution,MA Bio Member,DIAGNOSTICS FOR ALL INC,Una,Ryan,President/CEO,840 Memorial Dr,,Boston,MA,02139,10,"840 Memorial Dr, Boston, MA 02139"
Drug Development,MA Bio Member,DICERNA PHARMACEUTICALS INC,Doug,Fambrough,CEO,480 Arsenal St,Bldg #1  Suite 120,Watertown,MA,02472,31,"480 Arsenal St Bldg #1  Suite 120, Watertown, MA 02472"
Medical Device,,DIELECTRICS INC,Bart,Rietkerk,Vice President,300 Burnett Rd,,Chicopee,MA,01020,250,"300 Burnett Rd, Chicopee, MA 01020"
Research Products & Instrumentation,MA Bio Member,DIFFERENTIAL PROTEOMICS INC,Paul,Stroobant,CSO,30 Morningside Ave,,Natick,MA,01760,5,"30 Morningside Ave, Natick, MA 01760"
BioInformatics,,DIGILAB INC,Lily,Zhang,Global Marketing Manager,84 October Hill Rd,,Holliston,MA,01746,0,"84 October Hill Rd, Holliston, MA 01746"
Medical Device,,DISANTO TECHNOLOGY INC,Ronald,Dunn,VP,10 Constitution Blvd S,,Shelton,CT,06484,80,"10 Constitution Blvd S, Shelton, CT 06484"
Medical Device,,DRAEGER MEDICAL SYSTEMS INC,Steve,Weisner,Senior Director OEM Development,6 Tech Dr,,Andover,MA,01810,517,"6 Tech Dr, Andover, MA 01810"
Medical Device,,DSC OPTICAL SERVICES,William,Trask,CEO/President,1359 Centre St,,Newton,MA,02459,3,"1359 Centre St, Newton, MA 02459"
Drug Development,MA Bio Member,DUSA PHARMACEUTICALS INC,Robert,Doman,President/CEO,25 Upton Dr,,Wilmington,MA,01887,95,"25 Upton Dr, Wilmington, MA 01887"
Drug Development,MA Bio Member,DYAX CORP,Gustav,Christensen,President/CEO,55 Network Dr,,Burlington,MA,01803,140,"55 Network Dr, Burlington, MA 01803"
Research Products & Instrumentation,,DYCEM,Marcus,Vaughn,National Sales Manager,83 Gilbane St,,Warwick,RI,02886,22,"83 Gilbane St, Warwick, RI 02886"
Contract Research & Manufacturing,,DYNAMET TECHNOLOGY INC,Stanley,Abkowitz,CEO,8 A Street,,Burlington,MA,01803,12,"8 A Street, Burlington, MA 01803"
Medical Device,,DYNASIL CORP OF AMERICA,Steven,Ruggieri,President,44 Hunt St,,Watertown,MA,02472,131,"44 Hunt St, Watertown, MA 02472"
Medical Device,,E BENSON HOOD LABORATORIES INC,Lewis,Marten,President,575 Washington St,,Pembroke,MA,02359,11,"575 Washington St, Pembroke, MA 02359"
Medical Device,,E-PILL MEDICATION REMINDERS,Magnus,Moliteus,Chairman,49 Walnut St,Bldg 4,Wellesley,MA,02481,6,"49 Walnut St Bldg 4, Wellesley, MA 02481"
Medical Device,,E-TROLZ INC,James,Robertson,President/CEO,1600 Osgood St,Suite 2-17,N Andover,MA,01845,5,"1600 Osgood St Suite 2-17, N Andover, MA 01845"
Human Diagnostic Development,,EAGLE BIOSCIENCES,Dan,Keefe,President,20A NW Blvd,Suite 112,Nashua,NH,03063,6,"20A NW Blvd Suite 112, Nashua, NH 03063"
Medical Device,,EAGLE STAINLESS TUBE & FABRICATION INC,Robert,Bubencik,President,10 Discovery Way,,Franklin,MA,02038,70,"10 Discovery Way, Franklin, MA 02038"
Medical Device,,EBTEC CORP,Mark,Hauser,Marketing Director,120 Shoemaker Ln,,Agawam,MA,01001,120,"120 Shoemaker Ln, Agawam, MA 01001"
Medical Device,,ECHO THERAPEUTICS INC,Patrick,Mooney,President/CEO/Chairman,10 Forge Pkwy,,Franklin,MA,02038,19,"10 Forge Pkwy, Franklin, MA 02038"
Medical Device,,ECHOHEART INC,Janet,Eugley,Founder/COO,P O Box 215,,Damariscotta,ME,04543,0,"P O Box 215, Damariscotta, ME 04543"
Drug Development,,ECI BIOTECH INC,Mitch,Sanders,CEO,85 Prescott St,,Worcester,MA,01605,10,"85 Prescott St, Worcester, MA 01605"
Medical Device,,ECLIPSE PRODUCT DEVELOPMENT,James,Sellers,President,21 Water St,5th Floor,Amesbury,MA,01913,0,"21 Water St 5th Floor, Amesbury, MA 01913"
Drug Development,MA Bio Member,EDIMER PHARMACEUTICALS INC,Neil,Kirby,President/CEO,1 Broadway,8th Floor,Cambridge,MA,02142,0,"1 Broadway 8th Floor, Cambridge, MA 02142"
Contract Research & Manufacturing,,ELECTROMECHANICA,Karl,Edminster,President,13 Industrial Dr,Unit 2 Rear,Mattapoisett,MA,02739,5,"13 Industrial Dr Unit 2 Rear, Mattapoisett, MA 02739"
Drug Development,,ELECTRON OPTICS DEVELOPMENT CO LLC,Michael,Retsky,Principal,237 Strobel Rd,,Trumbull,CT,06611,2,"237 Strobel Rd, Trumbull, CT 06611"
Drug Development,MA Bio Member,ELEVEN BIOTHERAPEUTICS,Abbie,Celniker,CEO,215 First St,Suite 400,Cambridge,MA,02142,0,"215 First St Suite 400, Cambridge, MA 02142"
Research Products & Instrumentation,,ELM HILL BREEDING LABS,Jean,Kydd,President,7 Kidder Rd,,Chelmsford,MA,01824,12,"7 Kidder Rd, Chelmsford, MA 01824"
Drug Development,MA Bio Member,EMBER THERAPEUTICS,Lou,Tartaglia,President/Interim CEO,29 Newbury St,,Boston,MA,02116,0,"29 Newbury St, Boston, MA 02116"
Drug Development,MA Bio Member,EMBERA NEUROTHERAPEUTICS INC,Robert,Linke,President/CEO,29 Babe Ruth Dr,,Sudbury,MA,01776,0,"29 Babe Ruth Dr, Sudbury, MA 01776"
Research Products & Instrumentation,MA Bio Member,EMD MILLIPORE,Robert,Yates,President,290 Concord Rd,,Billerica,MA,01821,1200,"290 Concord Rd, Billerica, MA 01821"
Drug Development,MA Bio Member,EMD SERONO INC,James,Hoyes,President/CEO,1 Technology Pl,,Rockland,MA,02370,150,"1 Technology Pl, Rockland, MA 02370"
BioInformatics,,EMPIRIKO,Pam,Randhawa,CEO/Founder,,,,MA,,0,", , MA "
Medical Device,,EMPLOY   ABILITY INC,Mike,Rodrigues,CEO,100 L Messina Dr,,Braintree,MA,02184,38,"100 L Messina Dr, Braintree, MA 02184"
Drug Development,MA Bio Member,ENANTA PHARMACEUTICALS INC,Jay,Luly,President/CEO/Director,500 Arsenal St,,Watertown,MA,02472,50,"500 Arsenal St, Watertown, MA 02472"
Medical Device,,ENDURO MEDICAL TECHNOLOGY INC,John,Schuyler,Chairman,310 Nutmeg Road South,Unit C-5,S Windsor,CT,06074,3,"310 Nutmeg Road South Unit C-5, S Windsor, CT 06074"
Medical Device,,ENERCON TECHNOLOGIES,Ronald,Marcotte,President/CEO,25 Northbrook Dr,PO Box 665,Gray,ME,04039,135,"25 Northbrook Dr PO Box 665, Gray, ME 04039"
Drug Development,,ENERGESIS PHARMACEUTICALS,Olivier,Boss,Founder/CSO,1 Cambridge Center,6th floor,Cambridge,MA,02142,3,"1 Cambridge Center 6th floor, Cambridge, MA 02142"
Medical Device,,ENERGETIQ TECHNOLOGY INC,Paul,Blackborow,CEO,7 Constitution Way,,Woburn,MA,01801,20,"7 Constitution Way, Woburn, MA 01801"
Medical Device,,ENERGY BEAM SCIENCES,Michael,Nesta,CEO,29B Kripes Rd,,E Granby,CT,06026,12,"29B Kripes Rd, E Granby, CT 06026"
Contract Research & Manufacturing,,ENLIGHT BIOSCIENCES,Michelle,Browner,CEO/Board Member,500 Boylston St,Suite 1600,Boston,MA,02116,0,"500 Boylston St Suite 1600, Boston, MA 02116"
Drug Development,MA Bio Member,ENSEMBLE THERAPEUTICS CORP,Michael,Taylor,CEO,99 Erie St,,Cambridge,MA,02139,34,"99 Erie St, Cambridge, MA 02139"
Drug Development,,ENTHEOGEN CORP,John,Halpern,Co-Founder/Chief Medical Officer,,,Boston,MA,,0,", Boston, MA "
Research Products & Instrumentation,,ENVIRONAIR,William,Holman,President,555 Cottage St,,Springfield,MA,01104,12,"555 Cottage St, Springfield, MA 01104"
Drug Development,MA Bio Member,ENVIVO PHARMACEUTICALS,Kees,Been,President/CEO,480 Arsenal St,Bldg 1,Watertown,MA,02472,42,"480 Arsenal St Bldg 1, Watertown, MA 02472"
Research Products & Instrumentation,MA Bio Member,ENZYMATICS INC,Stephen,Picone,CEO,100 Cummings Center,Suite 407J,Beverly,MA,01915,62,"100 Cummings Center Suite 407J, Beverly, MA 01915"
Contract Research & Manufacturing,,EOLAS BIOSCIENCES USA,Kimberley,Gannon,Head US Operations,87 Church St,,Watertown,MA,02472,1,"87 Church St, Watertown, MA 02472"
Contract Research & Manufacturing,MA Bio Member,EPISTEM,Laura,Lennox,Business Dev't Manager,One Broadway,14th Floor,Cambridge,MA,02142,2,"One Broadway 14th Floor, Cambridge, MA 02142"
Drug Development,MA Bio Member,EPIVAX INC,Anne,DeGroot,CEO,146 Clifford St,,Providence,RI,02903,12,"146 Clifford St, Providence, RI 02903"
Drug Development,MA Bio Member,EPIZYME INC,Robert,Gould,President/CEO,325 Vassar St,,Cambridge,MA,02139,45,"325 Vassar St, Cambridge, MA 02139"
Research Products & Instrumentation,,EQUIPMENT FOR TECHNOLOGY,Jack,Ubersax,President,1 Lodge Ln,,Wilbraham,MA,01095,1,"1 Lodge Ln, Wilbraham, MA 01095"
Medical Device,,EQUUSYS INC,Amy,Davies,CEO,One Broadway,,Cambridge,MA,02142,7,"One Broadway, Cambridge, MA 02142"
Research Products & Instrumentation,,ERLAB INC,,,,388 Newburyport Tpke,,Rowley,MA,01969,10,"388 Newburyport Tpke, Rowley, MA 01969"
Research Products & Instrumentation,,ESOURCE OPTICS,Richard,Belinski,Optics Sales Manager,1225 Providence Rd,PMB 126,Whitinsville,MA,01588,3,"1225 Providence Rd PMB 126, Whitinsville, MA 01588"
Contract Research & Manufacturing,,ESTERN MEDICAL CRO,Jorge,Estrella,President/Chief Medical Officer,40 Warren St,3rd Floor,Boston,MA,02129,0,"40 Warren St 3rd Floor, Boston, MA 02129"
Medical Device,MA Bio Member,ETEX CORP,Shane,Doyle,Director Marketing,675 Massachusetts Ave,12th Floor,Cambridge,MA,02139,50,"675 Massachusetts Ave 12th Floor, Cambridge, MA 02139"
Contract Research & Manufacturing,,ETHIDE LABORATORIES INC,Michael,Sprague,Lab Manager,91 Hill Farm Rd,,Coventry,RI,02816,12,"91 Hill Farm Rd, Coventry, RI 02816"
BioInformatics,,EUREKACONNECT LLC,Curtis,Sprouse,President/CEO,2 Central St,Suite 18,Ipswich,MA,01938,4,"2 Central St Suite 18, Ipswich, MA 01938"
Drug Development,,EUTHYMICS BIOSCIENCE INC,Anthony,McKinney,President/CEO/Co-Founder,43 Thorndike St,Suite S1-3,Cambridge,MA,02141,12,"43 Thorndike St Suite S1-3, Cambridge, MA 02141"
Drug Development,MA Bio Member,EUTROPICS PHARMACEUTICALS,Michael,Cardone,CEO,767-C Concord Ave,,Cambridge,MA,02138,10,"767-C Concord Ave, Cambridge, MA 02138"
Research Products & Instrumentation,MA Bio Member,EXALPHA BIOLOGICALS,John,Castracane,President,2 Shaker Rd,Suite 8101,Shirley,MA,01464,6,"2 Shaker Rd Suite 8101, Shirley, MA 01464"
Drug Development,MA Bio Member,EXCELIMMUNE,Quinton,Zondervan,CEO,12-B Cabot Rd,,Woburn,MA,01801,20,"12-B Cabot Rd, Woburn, MA 01801"
Research Products & Instrumentation,,EXCELLIMS CORP,Paul,Eisenbraun,Chairman,20 Main St,Suite A,Acton,MA,01720,14,"20 Main St Suite A, Acton, MA 01720"
Medical Device,,EXERGEN CORP,Francesco,Pompei,CEO,400 Pleasant St,,Watertown,MA,02472,55,"400 Pleasant St, Watertown, MA 02472"
Medical Device,MA Bio Member,EXOGENESIS CORP,Richard,Svrluga,President/CEO,20 Fortune Dr,,Billerica,MA,01821,20,"20 Fortune Dr, Billerica, MA 01821"
Drug Development,,EXTEND BIOSCIENCES INC,Laura,Hales,Founder,,,Cambridge,MA,,2,", Cambridge, MA "
Medical Device,MA Bio Member,EYEGATE PHARMACEUTICALS,Stephen,From,President/CEO,100 Beaver St,,Waltham,MA,02453,0,"100 Beaver St, Waltham, MA 02453"
Medical Device,,F-SPOON CO,Mary Jane,Scholz,President,32 Grandhill Dr,,Dover,MA,02030,1,"32 Grandhill Dr, Dover, MA 02030"
Medical Device,,FARM DESIGN INC,Jack,Harkins,President,12 Silver Lake Rd,,Hollis,NH,03049,50,"12 Silver Lake Rd, Hollis, NH 03049"
Medical Device,,FCI OPHTHALMICS,,,,PO Box 465,,Marshfield Hills,MA,02051,5,"PO Box 465, Marshfield Hills, MA 02051"
Medical Device,,FEECO HK LTD,Kim,Shepard,Chairman,88 Goodwin Rd,,Eliot,ME,03903,5,"88 Goodwin Rd, Eliot, ME 03903"
Research Products & Instrumentation,,FIREFLY BIOWORKS INC,Davide,Marini,CEO,One Kendall Sq,"Bldg 1400W, 3rd Floor",Cambridge,MA,02139,0,"One Kendall Sq Bldg 1400W, 3rd Floor, Cambridge, MA 02139"
Medical Device,MA Bio Member,FIRST LIGHT BIOSCIENCES INC,Don,Straus,CEO,One Oak Park Dr,2nd Floor,Bedford,MA,01730,6,"One Oak Park Dr 2nd Floor, Bedford, MA 01730"
Research Products & Instrumentation,MA Bio Member,FISHER SCIENTIFIC WORLDWIDE,,,,1 Liberty Ln,,Hampton,NH,03842,,"1 Liberty Ln, Hampton, NH 03842"
Research Products & Instrumentation,,FITZGERALD INDUSTRIES INTERNATIONAL,Pamela,Williams,CEO,30 Sudbury Road,Suite 1A North,Acton,MA,01720,14,"30 Sudbury Road Suite 1A North, Acton, MA 01720"
Medical Device,,FIVE STAR COMPANIES,John,Camara,President (Five Star Surgical),163 Samuel Barnet Blvd,,New Bedford,MA,02745,98,"163 Samuel Barnet Blvd, New Bedford, MA 02745"
Non-profit Research Institution,MA Bio Member,FLATLEY DISCOVERY LAB,John,Flatley,Founder,529 Main St,Suite 208,Charlestown,MA,02129,30,"529 Main St Suite 208, Charlestown, MA 02129"
Drug Development,MA Bio Member,FLEXION THERAPEUTICS INC,Mike,Clayman,CEO,300 TradeCenter,Suite 2460,Woburn,MA,01801,0,"300 TradeCenter Suite 2460, Woburn, MA 01801"
Medical Device,,FLUIDNET CORP,Ben,Bulkley,President/CEO,21 Water St,5th Floor,Amesbury,MA,01913,,"21 Water St 5th Floor, Amesbury, MA 01913"
Human Diagnostic Development,,FLUOROPHARMA INC,Thijs,Spoor,CEO,222 Berkeley St,Suite 1040,Boston,MA,02116,0,"222 Berkeley St Suite 1040, Boston, MA 02116"
Medical Device,,FORESIGHT IMAGING,Mark,Mariotti,President/CEO,1 Executive Dr,Suite 102,Chelmsford,MA,01824,20,"1 Executive Dr Suite 102, Chelmsford, MA 01824"
Drug Development,MA Bio Member,FORMA THERAPEUTICS INC,Steven,Tregay,Founder/President/CEO,500 Arsenal St Suite 100,,Watertown,MA,02472,0,"500 Arsenal St Suite 100, Watertown, MA 02472"
Research Products & Instrumentation,,FORMULATRIX INC,Jeremy,Stevenson,President/CEO,1254 Main St,,Waltham,MA,02451,25,"1254 Main St, Waltham, MA 02451"
Non-profit Research Institution,MA Bio Member,"FORSYTH INSTITUTE, THE",Philip,Staskenko,President/CEO,245 First St,,Cambridge,MA,02142,165,"245 First St, Cambridge, MA 02142"
Medical Device,,FOSTER CORP,Larry,Acquarulo,CEO/Owner,45 Ridge Rd,,Putnam,CT,06260,61,"45 Ridge Rd, Putnam, CT 06260"
Non-profit Research Institution,,FOUNDATION FOR BLOOD RESEARCH,Jane,Sheehan,President/CEO,P O Box 190,8 Science Park Rd,Scarborough,ME,04070,42,"P O Box 190 8 Science Park Rd, Scarborough, ME 04070"
Human Diagnostic Development,MA Bio Member,FOUNDATION MEDICINE INC,Neil,Exter,Chief Business Officer,"1 Kendall Sq, Bldg 300",5th Floor,Cambridge,MA,02139,0,"1 Kendall Sq, Bldg 300 5th Floor, Cambridge, MA 02139"
Medical Device,,FRANK SCHOLZ X-RAY CORP,Thomas,Richter,President,244 Liberty St,,Brockton,MA,02301,15,"244 Liberty St, Brockton, MA 02301"
Contract Research & Manufacturing,MA Bio Member,FRAUNHOFER CENTER FOR MANUFACTURING INNOVATION,Dr Andre,Sharon,Executive Director,15 Saint Mary's St,,Brookline,MA,02446,40,"15 Saint Mary's St, Brookline, MA 02446"
Non-profit Research Institution,MA Bio Member,FRAUNHOFER HEINRICH HERTZ INSTITUTE USA,Frank,Menzler,Senior Director USA,25 1st St,Suite 101,Cambridge,MA,02141,0,"25 1st St Suite 101, Cambridge, MA 02141"
Medical Device,MA Bio Member,FRESENIUS MEDICAL CARE HOLDINGS INC,Ben,Lipps,Chairman/CEO,920 Winter St,,Waltham,MA,02451,900,"920 Winter St, Waltham, MA 02451"
Medical Device,,FUNNELL INSTRUMENTS LP,David,Funnell,President,61 Surrey St,,Medford,MA,02155,1,"61 Surrey St, Medford, MA 02155"
Medical Device,,G & F INDUSTRIES INC,,,,PO Box 515,Rte 20,Sturbridge,MA,01960,30,"PO Box 515 Rte 20, Sturbridge, MA 01960"
Research Products & Instrumentation,,GAC CHEMICAL CORP,James,Poure,CEO,P O Box 436,34 Kidder Point Rd,Searsport,ME,04974,55,"P O Box 436 34 Kidder Point Rd, Searsport, ME 04974"
Drug Development,MA Bio Member,GALECTIN THERAPEUTICS,Peter,Traber,President/CEO/Chief Medical Officer,7 Wells Ave,Suite #34,Newton,MA,02459,7,"7 Wells Ave Suite #34, Newton, MA 02459"
Drug Development,MA Bio Member,GALENEA CORP,Mark,Benjamin,President/CEO,300 Technology Sq,2nd Floor,Cambridge,MA,02139,30,"300 Technology Sq 2nd Floor, Cambridge, MA 02139"
Contract Research & Manufacturing,MA Bio Member,GALLUS BIOPHARMACEUTICALS,Mark,Bamforth,President/CEO,20 William St,,Wellesley,MA,02481,0,"20 William St, Wellesley, MA 02481"
Research Products & Instrumentation,,GE INFRASTRUCTURE SENSING (MA),Dennis,Plante,Sales Director,1100 Technology Park Dr,,Billerica,MA,01821,75,"1100 Technology Park Dr, Billerica, MA 01821"
Drug Development,,GELESIS INC,John,Lamattina,Chairman,500 Boylston St,,Boston,MA,02116,0,"500 Boylston St, Boston, MA 02116"
Drug Development,MA Bio Member,GENFIT CORP,Jean-Francois,Mouney,CEO,245 First St,Suite 1807 18th Fl,Cambridge,MA,02142,2,"245 First St Suite 1807 18th Fl, Cambridge, MA 02142"
Drug Development,MA Bio Member,GENOCEA BIOSCIENCES INC,Chip,Clark,President/CEO,161 First St,Suite 2C,Cambridge,MA,02142,33,"161 First St Suite 2C, Cambridge, MA 02142"
Drug Development,,GENOMAS INC,Gualberto,Ruao,President/CEO,67 Jefferson St,,Hartford,CT,06106,11,"67 Jefferson St, Hartford, CT 06106"
BioInformatics,,GENOMEQUEST INC,Richard,Resnick,CEO,1700 W Park Dr,Suite 260,Westborough,MA,01581,10,"1700 W Park Dr Suite 260, Westborough, MA 01581"
Drug Development,MA Bio Member,GENZYME CORP,David,Meeker,President/CEO,500 Kendall St,,Cambridge,MA,02142,900,"500 Kendall St, Cambridge, MA 02142"
Medical Device,,GERIATRIC MEDICAL AND SURGICAL SUPPLY INC,Arthur,Siegal,President/CEO,28 Torrice Dr,,Woburn,MA,01801,35,"28 Torrice Dr, Woburn, MA 01801"
Drug Development,,GI DYNAMICS INC,Stuart,Randle,President/CEO,1 Maguire Rd,,Lexington,MA,02421,40,"1 Maguire Rd, Lexington, MA 02421"
Medical Device,,GILTRON INC,Fred,Pittman,President,61 Endicott St,Unit #25,Norwood,MA,02062,3,"61 Endicott St Unit #25, Norwood, MA 02062"
Contract Research & Manufacturing,,GINKGO BIOWORKS,Tom,Knight,Co-founder,7 Tide St,Unit 2B,Boston,MA,02210,19,"7 Tide St Unit 2B, Boston, MA 02210"
Drug Development,MA Bio Member,GLIACURE INC,Philip,Haydon,President,234 Causeway St,Apt 809,Boston,MA,02114,2,"234 Causeway St Apt 809, Boston, MA 02114"
Medical Device,,GLOBAL BLOOD RESOURCES LLC,Keith,Samolyk,President/CEO,P O Box 383,,Somers,CT,06071,10,"P O Box 383, Somers, CT 06071"
Agricultural/Industrial Biotechnology,,GLOBAL PROTEIN PRODUCTS INC,Robert,Cyr,CEO,76 Main St,Suite 300,Waterville,ME,04901,,"76 Main St Suite 300, Waterville, ME 04901"
Medical Device,,GLOBAL TECHNOLOGIES,Jim,Barrett,Director Sales/Marketing,392 Beech Rd,,Eliot,ME,03903,1,"392 Beech Rd, Eliot, ME 03903"
Contract Research & Manufacturing,MA Bio Member,GLSYNTHESIS INC,Jan,Chen,CEO,1 Innovation Dr,,Worcester,MA,01605,18,"1 Innovation Dr, Worcester, MA 01605"
Human Diagnostic Development,,GLYCOZYM,Thayer,White,CEO/President,100 Cummings Center,Suite 430J,Beverly,MA,01915,5,"100 Cummings Center Suite 430J, Beverly, MA 01915"
BioInformatics,MA Bio Member,GNS HEALTHCARE,Colin,Hill,President/Chairman/Co-Founder,58 Charles St,,Cambridge,MA,02141,0,"58 Charles St, Cambridge, MA 02141"
Human Diagnostic Development,MA Bio Member,GOOD START GENETICS INC,Don,Hardison,President/CEO,237 Putnam Ave,,Cambridge,MA,02139,39,"237 Putnam Ave, Cambridge, MA 02139"
Medical Device,,GORE LABORATORIES INC,Michael,Decubellis,CEO,10 Northern Blvd,Suite 5,Amherst,NH,03031,12,"10 Northern Blvd Suite 5, Amherst, NH 03031"
Medical Device,,GRADY RESEARCH,John,Grady,President/CEO,323 W Main St,,Ayer,MA,01432,8,"323 W Main St, Ayer, MA 01432"
Medical Device,,GRASS TECHNOLOGIES,Albert,Ondis,CEO,600 E Greenwich Ave,,W Warwick,RI,02893,200,"600 E Greenwich Ave, W Warwick, RI 02893"
Research Products & Instrumentation,,GREEN MOUNTAIN ANTIBODIES INC,William,Church,President,P O Box 1283,1 Mill St,Burlington,VT,05402,10,"P O Box 1283 1 Mill St, Burlington, VT 05402"
Medical Device,,GREGSTROM CORP,Jim,Roy,Sales Manager,64 Holton St,,Woburn,MA,01801,50,"64 Holton St, Woburn, MA 01801"
Medical Device,,GROUPE INNOVA INC,David,Masury,President,1 Foyes Ln,,Kittery Point,ME,03905,3,"1 Foyes Ln, Kittery Point, ME 03905"
Medical Device,,GROVE INSTRUMENTS,Arthur,Combs,CEO/Chairman,100 Grove St,Suite 315,Worcester,MA,01605,9,"100 Grove St Suite 315, Worcester, MA 01605"
Agricultural/Industrial Biotechnology,,GSC ENGINEERING INC,Thomas,Vaughan P E,President,P O Box 269,,Stoughton,MA,02072,0,"P O Box 269, Stoughton, MA 02072"
Drug Development,MA Bio Member,GTC BIOTHERAPEUTICS,William,Heiden,Chairman/President/CEO,175 Crossing Blvd,Suite 410,Framingham,MA,01702,70,"175 Crossing Blvd Suite 410, Framingham, MA 01702"
Agricultural/Industrial Biotechnology,,GULF OF MAINE RESEARCH INSTITUTE,Donald,Perkins,President,350 Commercial St,,Portland,ME,04101,0,"350 Commercial St, Portland, ME 04101"
Medical Device,,GW PLASTICS INC,Fredrick,Riehl,Chairman,239 Pleasant St,,Bethel,VT,05032,250,"239 Pleasant St, Bethel, VT 05032"
Medical Device,,GW SILICONES,Mark,Hammond,GW Silicones General Manager,272 Waterman Road,,Royalton,VT,05068,0,"272 Waterman Road, Royalton, VT 05068"
Medical Device,,GYRUS ACMI,Samantha,Hornung,Director Human Resources,136 Turnpike Rd,,Southborough,MA,01772,104,"136 Turnpike Rd, Southborough, MA 01772"
Drug Development,MA Bio Member,H3 BIOMEDICINE INC,Markus,Warmuth,President/CEO,300 Technology Sq,5th Floor,Cambridge,MA,02139,0,"300 Technology Sq 5th Floor, Cambridge, MA 02139"
Medical Device,,HAEMONETICS CORP,Brian,Concannon,President/CEO,400 Wood Rd,,Braintree,MA,02184,1100,"400 Wood Rd, Braintree, MA 02184"
Contract Research & Manufacturing,,HALLAM - ICS,Keith,Flaherty,CEO,705 Myles Standish Blvd,Unit 1,Taunton,MA,02780,12,"705 Myles Standish Blvd Unit 1, Taunton, MA 02780"
Contract Research & Manufacturing,,HALLAM - ICS,Keith,Flaherty,CEO,38 Eastwood Dr,Suite 200,S Burlington,VT,05403,60,"38 Eastwood Dr Suite 200, S Burlington, VT 05403"
Research Products & Instrumentation,,HAMILTON STORAGE TECHNOLOGIES,Radi,Hofstetter,CEO,103 South St,,Hopkinton,MA,01748,55,"103 South St, Hopkinton, MA 01748"
Research Products & Instrumentation,,HAMILTON THORNE BIOSCIENCES,Meg,Spencer,Chairman,100 Cummings Ctr,Suite 465E,Beverly,MA,01915,30,"100 Cummings Ctr Suite 465E, Beverly, MA 01915"
Medical Device,,HANGER PROSTHETICS & ORTHOTICS INC,,,,232 W Cummings Park,,Woburn,MA,01801,0,"232 W Cummings Park, Woburn, MA 01801"
Research Products & Instrumentation,,HANNA INSTRUMENTS USA,David,Minsk,President,270 George Washington Hwy,,Smithfield,RI,02917,54,"270 George Washington Hwy, Smithfield, RI 02917"
Contract Research & Manufacturing,,HARVARD APPARATUS,Chane,Graziano,CEO HBIO,84 October Hill Rd,,Holliston,MA,01746,125,"84 October Hill Rd, Holliston, MA 01746"
Research Products & Instrumentation,,HARVARD BIOSCIENCE INC,Chane,Graziano,CEO/Chairman,84 October Hill Rd,,Holliston,MA,01746,0,"84 October Hill Rd, Holliston, MA 01746"
Medical Device,,HARVEST TECHNOLOGIES CORP,Gary,Tureski,CEO,40 Grissom Rd,Suite 100,Plymouth,MA,02360,50,"40 Grissom Rd Suite 100, Plymouth, MA 02360"
Non-profit Research Institution,,HASKINS LABORATORIES INC,Kenneth,Pugh,President,300 George St,Suite 900,New Haven,CT,06511,30,"300 George St Suite 900, New Haven, CT 06511"
Contract Research & Manufacturing,,HAYDON KERK MOTION SOLUTIONS INC,John,Norris,"Vice President, Business Unit Manager",1500 Meriden Rd,,Waterbury,CT,06705,120,"1500 Meriden Rd, Waterbury, CT 06705"
Research Products & Instrumentation,,HEADWALL PHOTONICS INC,David,Bannon,CEO,601 River St,,Fitchburg,MA,01420,40,"601 River St, Fitchburg, MA 01420"
Drug Development,MA Bio Member,HEALTH SCIENCES INTERNATIONAL INC,David,Shearer,President/CEO,25 Saltus Dr,,Old Saybrook,CT,06475,0,"25 Saltus Dr, Old Saybrook, CT 06475"
Medical Device,,HEARTWARE INTERNATIONAL INC,Douglas,Godshall,Managing Director/CEO,205 Newbury St,Suite 101,Framingham,MA,01701,0,"205 Newbury St Suite 101, Framingham, MA 01701"
Medical Device,,HELBLING PRECISION ENGINEERING INC,Michel,Bruehwiler,President/CEO,1 Broadway,14th floor,Cambridge,MA,02142,,"1 Broadway 14th floor, Cambridge, MA 02142"
Research Products & Instrumentation,MA Bio Member,HELICOS BIOSCIENCES CORP,Ivan,Trifunovich,President/CEO,1 Kendall Sq,Suite 7301,Cambridge,MA,02139,40,"1 Kendall Sq Suite 7301, Cambridge, MA 02139"
Medical Device,,HELIX MEDICAL - GLOUCESTER OPERATIONS,Edward,Callahan,GM Helix Medical-GLO,92 Blackburn Center,,Gloucester,MA,01930,30,"92 Blackburn Center, Gloucester, MA 01930"
Medical Device,,HEMEDEX INC, Fredrick,Bowman Ph D,Chairman/President/CEO,222 3rd Ave,Suite 123,Cambridge,MA,02142,8,"222 3rd Ave Suite 123, Cambridge, MA 02142"
Contract Research & Manufacturing,MA Bio Member,HEPATOCHEM,Marc,Bazin,President/Co-Founder,185 Alewife Brook Pkwy,Suite 410,Cambridge,MA,02138,3,"185 Alewife Brook Pkwy Suite 410, Cambridge, MA 02138"
Research Products & Instrumentation,MA Bio Member,HEPREGEN CORP,Bonnie,Fendrock,President/CEO,200 Boston Ave,Suite 1500,Medford,MA,02155,13,"200 Boston Ave Suite 1500, Medford, MA 02155"
Medical Device,,HERMELL PRODUCTS INC,Ronald,Pollack,President,9 Britton Dr,,Bloomfield,CT,06002,24,"9 Britton Dr, Bloomfield, CT 06002"
Research Products & Instrumentation,,HETTICH INSTRUMENTS LP,,,,100 Cummings Ctr,Suite 136L,Beverly,MA,01915,14,"100 Cummings Ctr Suite 136L, Beverly, MA 01915"
Medical Device,,HI-TECH MOLD AND TOOL INC,Dave,Pellegrino,VP Operations,1 Technology Rd W,,Pittsfield,MA,01201,100,"1 Technology Rd W, Pittsfield, MA 01201"
Medical Device,,HIGH TECH TURNING CO INC,Paul,Heanue,President/Quality Control Manager,16 Bridge St,,Watertown,MA,02472,20,"16 Bridge St, Watertown, MA 02472"
Contract Research & Manufacturing,,HIGH-TECH CONVERSIONS INC,Claudio,Orefice,CEO,1699 King St,,Enfield,CT,06082,0,"1699 King St, Enfield, CT 06082"
Research Products & Instrumentation,MA Bio Member,HIGHRES BIOSOLUTIONS,Lou,Guarracina,President,299 Washington St,,Woburn,MA,01801,0,"299 Washington St, Woburn, MA 01801"
Drug Development,,HISTOGENICS CORP,Laurence,Berlowitz Tarrant,Chairman/CSO/Founder,830 Winter St,3rd Floor,Waltham,MA,02451,20,"830 Winter St 3rd Floor, Waltham, MA 02451"
Human Diagnostic Development,,HISTORX INC,Rana,Gupta,CEO,35 Northeast Industrial Rd,,Branford,CT,06405,23,"35 Northeast Industrial Rd, Branford, CT 06405"
Medical Device,,HOCOMA INC,Stefan,Bircher,EVP,77 Accord Park Dr,Suite D-1,Norwell,MA,02061,11,"77 Accord Park Dr Suite D-1, Norwell, MA 02061"
Medical Device,,HOLLES LABORATORIES INC,Peter,Lelecas,Director,30 Forest Notch,,Cohasset,MA,02025,5,"30 Forest Notch, Cohasset, MA 02025"
Medical Device,,HOLMED CORP,Russell,Holmes,Chairman,40 Norfolk Ave,,S Easton,MA,02375,60,"40 Norfolk Ave, S Easton, MA 02375"
Medical Device,MA Bio Member,HOLOGIC INC,Rob,Cascella,President/CEO,35 Crosby Dr,,Bedford,MA,01730,0,"35 Crosby Dr, Bedford, MA 01730"
Contract Research & Manufacturing,,HOLOGRAPHIX LLC,David,Rowe,President,577 Main St,Suite 260,Hudson,MA,01749,13,"577 Main St Suite 260, Hudson, MA 01749"
Medical Device,,HOLOVERSE GROUP,Dennis,Solomon,CEO,PO Box 289,,Yarmouth Port,MA,02675,6,"PO Box 289, Yarmouth Port, MA 02675"
Medical Device,,HUDSON POLY BAG INC,,,,578 Main St,,Hudson,MA,01749,0,"578 Main St, Hudson, MA 01749"
Medical Device,,HUESTIS MEDICAL,Fred,Correira,GM,68 Buttonwood St,,Bristol,RI,02809,75,"68 Buttonwood St, Bristol, RI 02809"
Agricultural/Industrial Biotechnology,,HY-SYENCE INC,Don,Crookes,CEO,151 Martine St,,Fall River,MA,02723,6,"151 Martine St, Fall River, MA 02723"
Medical Device,,HY-TEN PLASTICS INC,Franz,Fritsch,Owner,38 Powers St,,Milford,NH,03055,50,"38 Powers St, Milford, NH 03055"
Contract Research & Manufacturing,MA Bio Member,HYBRID SILICA TECHNOLOGIES INC,Kenneth,Wang,President,19 Blackstone St,,Cambridge,MA,02139,7,"19 Blackstone St, Cambridge, MA 02139"
Drug Development,MA Bio Member,HYDRA BIOSCIENCES,Russell,Herndon,President/CEO,790 Memorial Dr,,Cambridge,MA,02139,31,"790 Memorial Dr, Cambridge, MA 02139"
Medical Device,,HYDROCISION INC,Howard,Donnelly,CEO/President,267 Boston Rd,Suite 28,N Billerica,MA,01862,18,"267 Boston Rd Suite 28, N Billerica, MA 01862"
Agricultural/Industrial Biotechnology,,HYDROS INC,Steven,Boyd,President,114 Waterhouse Road,,Bourne,MA,02532,4,"114 Waterhouse Road, Bourne, MA 02532"
Contract Research & Manufacturing,MA Bio Member,I2CHEM INC,Rick,Brown,President,763D Concord Ave,,Cambridge,MA,02138,6,"763D Concord Ave, Cambridge, MA 02138"
Medical Device,,ICAD INC,Kenneth,Ferry,President/CEO,98 Spit Brook Rd,Suite 100,Nashua,NH,03062,51,"98 Spit Brook Rd Suite 100, Nashua, NH 03062"
Drug Development,MA Bio Member,IDERA PHARMACEUTICALS INC,Sudhir,Agrawal,Chairman/President/CEO,167 Sidney St,,Cambridge,MA,02139,0,"167 Sidney St, Cambridge, MA 02139"
Agricultural/Industrial Biotechnology,,IDEXX LABORATORIES INC,Jonathan,Ayers,Chairman/CEO/President,1 Idexx Dr,,Westbrook,ME,04092,2000,"1 Idexx Dr, Westbrook, ME 04092"
Medical Device,,IKE INC (IKE MICRO),Scott,MacKenzie,President,4 Townsend W,,Nashua,NH,03063,20,"4 Townsend W, Nashua, NH 03063"
Medical Device,,IKONISYS INC,Petros,Tsipouras,Chairman/CEO,5 Science Park,,New Haven,CT,06511,0,"5 Science Park, New Haven, CT 06511"
Medical Device,,ILLUMINOSS MEDICAL INC,Scott,Rader,President/CEO,993 Waterman Ave,,E Providence,RI,02914,15,"993 Waterman Ave, E Providence, RI 02914"
Medical Device,,IMAGE DIAGNOSTICS INC,Remo,Rossi,President,310 Authority Dr,,Fitchburg,MA,01420,30,"310 Authority Dr, Fitchburg, MA 01420"
Agricultural/Industrial Biotechnology,,IMMUCELL CORP,Michael,Brigham,President/CEO,56 Evergreen Dr,,Portland,ME,04103,24,"56 Evergreen Dr, Portland, ME 04103"
Contract Research & Manufacturing,,IMMUNE DISEASE INSTITUTE INC,Steve,Simmons,Executive Director,3 Blackfan Circle,,Boston,MA,02115,250,"3 Blackfan Circle, Boston, MA 02115"
Human Diagnostic Development,MA Bio Member,IMMUNEERING CORP,Benjamin,Zeskind,CEO,1 Broadway,14th Floor,Cambridge,MA,02142,0,"1 Broadway 14th Floor, Cambridge, MA 02142"
Research Products & Instrumentation,MA Bio Member,IMMUNETICS INC,Andrew,Levin,CEO/Scientific Director,27 Drydock Ave,,Boston,MA,02210,25,"27 Drydock Ave, Boston, MA 02210"
Drug Development,MA Bio Member,IMMUNOGEN INC,Daniel,Junius,President/CEO,830 Winter St,,Waltham,MA,02451,211,"830 Winter St, Waltham, MA 02451"
BioInformatics,,IMS HEALTH,Ari,Bousbib,CEO,83 Wooster Heights Rd,,Danbury,CT,06810,0,"83 Wooster Heights Rd, Danbury, CT 06810"
Medical Device,,INAVEIN LLC,Keith,Jansen,CEO,420 Bedford St,Suite 130,Lexington,MA,02420,6,"420 Bedford St Suite 130, Lexington, MA 02420"
Medical Device,,INCOM INC,Anthony,Detarando,President,294 Southbridge Rd,,Charlton,MA,01507,240,"294 Southbridge Rd, Charlton, MA 01507"
Medical Device,,INCYTU INC,Alfred,Vasconcellos,President/CEO,701 George Washington Hwy,,Lincoln,RI,02865,0,"701 George Washington Hwy, Lincoln, RI 02865"
Medical Device,,INDEPTH DESIGN CONSULTANCY,Craig,Carlson,Owner/Principal Design Management,15 Union St,Suite 404,Lawrence,MA,01840,,"15 Union St Suite 404, Lawrence, MA 01840"
Medical Device,,INDUSTRIAL & BIOMEDICAL SENSORS CORP,S,Chang,President,1377 Main St,,Waltham,MA,02451,9,"1377 Main St, Waltham, MA 02451"
Drug Development,MA Bio Member,INFINITY PHARMACEUTICALS INC,Adelene,Perkins,President/CEO,780 Memorial Dr,,Cambridge,MA,02139,175,"780 Memorial Dr, Cambridge, MA 02139"
Contract Research & Manufacturing,,INFOSCITEX CORP,Stuart,Haber,President/CEO,303 Bear Hill Rd,,Waltham,MA,02451,37,"303 Bear Hill Rd, Waltham, MA 02451"
Contract Research & Manufacturing,,INFRAMAT CORP,Robert,Lee,President/CEO,151 Progress Dr,,Manchester,CT,06042,30,"151 Progress Dr, Manchester, CT 06042"
Medical Device,,INFRAREDX INC,Donald,Southard,President/CEO/Director,34 Third Ave,,Burlington,MA,01803,80,"34 Third Ave, Burlington, MA 01803"
Drug Development,MA Bio Member,INHIBIKASE THERAPEUTICS INC,Milton H,Werner,President/CEO,12 Gerry's Landing Road,,Cambridge,MA,02138,5,"12 Gerry's Landing Road, Cambridge, MA 02138"
Medical Device,,INJECTRONICS CORP,Paul,Nazzaro,President,One Union St,,Clinton,MA,01510,85,"One Union St, Clinton, MA 01510"
Medical Device,,INNOVATIVE MEDICAL DESIGN INC,Tai,Kien,President/Owner,12 Shirley St,,Ayer,MA,01432,8,"12 Shirley St, Ayer, MA 01432"
Drug Development,MA Bio Member,INOTEK PHARMACEUTICALS CORP,Paul,Howes,CEO,33 Hayden Ave,2nd Floor,Lexington,MA,02421,0,"33 Hayden Ave 2nd Floor, Lexington, MA 02421"
Medical Device,,INOV8 DESIGN INC,Daniel,Jones,Principal,9 Damonmill Sq,5A2,Concord,MA,01742,5,"9 Damonmill Sq 5A2, Concord, MA 01742"
Medical Device,,INSIGHT PRODUCT DEVELOPMENT,Tim,Calderwood,Sales Manager,1 Clock Tower Pl,Suite 250,Maynard,MA,01754,1,"1 Clock Tower Pl Suite 250, Maynard, MA 01754"
Medical Device,,INSIGHTFUL PRODUCTS LLC,Ian,Engleman,Inventor/Founder,2 Lincoln Ave,Suite 8,Scarborough,MA,04074,0,"2 Lincoln Ave Suite 8, Scarborough, MA 04074"
Drug Development,MA Bio Member,INSPIRATION BIOPHARMACEUTICALS,John,Butler,CEO,One Kendall Sq,Bldg 1400 East,Cambridge,MA,02139,0,"One Kendall Sq Bldg 1400 East, Cambridge, MA 02139"
Contract Research & Manufacturing,,"INSTITUTE FOR BIOANALYTICS LLC, THE",Charles,Sloan,Director Project Dev't,23 Business Park Dr,,Branford,CT,06405,80,"23 Business Park Dr, Branford, CT 06405"
Non-profit Research Institution,,INSTITUTE FOR LABORATORY AUTOMATION,Joseph,Liscouski,Executive Director,40 Paquawket Path,,Groton,MA,01450,2,"40 Paquawket Path, Groton, MA 01450"
Medical Device,,INSTRUMENT TECHNOLOGY INC,Greg,Carignan,President,33 Airport Rd,,Westfield,MA,01085,55,"33 Airport Rd, Westfield, MA 01085"
Human Diagnostic Development,,INSTRUMENTATION LABORATORY CO,Ramon,Benet,CEO,180 Hartwell Rd,,Bedford,MA,01730,550,"180 Hartwell Rd, Bedford, MA 01730"
Medical Device,,INSULET CORP,Duane,DeSisto,President/CEO,9 Oak Park Dr,,Bedford,MA,01730,200,"9 Oak Park Dr, Bedford, MA 01730"
Research Products & Instrumentation,,INTEGRA BIOSCIENCES CORP,Linda,ONeil,Admin Assist,2 Wentworth Dr,,Hudson,NH,03051,30,"2 Wentworth Dr, Hudson, NH 03051"
Medical Device,,INTEGRA RADIONICS,Stuart,Essig,CEO/Director,22 Terry Ave,,Burlington,MA,01803,110,"22 Terry Ave, Burlington, MA 01803"
Medical Device,,INTELECT MEDICAL INC,Vincent,Owens,Co-Founder/President/CEO,185 Devonshire St,Suite M102,Boston,MA,02110,0,"185 Devonshire St Suite M102, Boston, MA 02110"
Research Products & Instrumentation,MA Bio Member,INTELLIGENT BIO-SYSTEMS INC,Steven,Gordon,Founder,34 Bear Hill Rd,,Waltham,MA,02451,0,"34 Bear Hill Rd, Waltham, MA 02451"
Medical Device,MA Bio Member,INTELLIGENTMDX,Alice,Jacobs,Founder/Chairman/CEO,19 Blackstone St,,Cambridge,MA,02139,32,"19 Blackstone St, Cambridge, MA 02139"
Human Diagnostic Development,MA Bio Member,INTERLEUKIN GENETICS INC,Lewis,Bender,CEO,135 Beaver St,,Waltham,MA,02452,27,"135 Beaver St, Waltham, MA 02452"
Contract Research & Manufacturing,,INTERPRO,Kevin,Dyer,President,630 Industrial Park Rd,,Deep River,CT,06417,8,"630 Industrial Park Rd, Deep River, CT 06417"
Medical Device,,INTERTECH ENGINEERING ASSOCIATES INC,David,Vogel,President,100 Lowder Brook Dr,Suite 2500,Westwood,MA,02090,10,"100 Lowder Brook Dr Suite 2500, Westwood, MA 02090"
Medical Device,,INTRICON TIBBETTS CORP,Jerry,Squiers,Plant Manager,5 Colcord Ave,P O Box 1096,Camden,ME,04843,100,"5 Colcord Ave P O Box 1096, Camden, ME 04843"
Medical Device,,INTRINSIC THERAPEUTICS INC,Greg,Lambrecht,Founder/Executive Director,30 Commerce Way,,Woburn,MA,01801,0,"30 Commerce Way, Woburn, MA 01801"
Medical Device,MA Bio Member,INVIVO THERAPEUTICS CORP,Frank,Reynolds,Chairman/CEO,One Broadway,14th Floor,Cambridge,MA,02142,25,"One Broadway 14th Floor, Cambridge, MA 02142"
BioInformatics,,IQUEST ANALYTICS INC,Josh,Rosenthal,Chairman/Founder,18 Maple Ave,Suite 252,Barrington,RI,02806,0,"18 Maple Ave Suite 252, Barrington, RI 02806"
Medical Device,,IQUUM INC,Shuqi,Chen,CEO,700 Nickerson Rd,,Marlborough,MA,01752,45,"700 Nickerson Rd, Marlborough, MA 01752"
Medical Device,,IRIS SAMPLE PROCESSING,Robert,Mello,President,60 Glacier Dr,,Westwood,MA,02090,42,"60 Glacier Dr, Westwood, MA 02090"
Medical Device,,IRON DUCK,Tim,Rogers,National Sales Manager,20 Veterans Dr,,Chicopee,MA,01022,75,"20 Veterans Dr, Chicopee, MA 01022"
Drug Development,MA Bio Member,IRONWOOD PHARMACEUTICALS INC,Peter,Hecht,CEO,301 Binney St,2nd Floor,Cambridge,MA,02142,280,"301 Binney St 2nd Floor, Cambridge, MA 02142"
Medical Device,,ISIS BIOPOLYMER INC,Chris,Hobson,President/CEO,233 Richmond St,,Providence,RI,02903,0,"233 Richmond St, Providence, RI 02903"
Contract Research & Manufacturing,,ISPECIMEN INC,Christopher,Ianelli,Founder,275 Grove St,Suite 2-400,Newton,MA,02466,0,"275 Grove St Suite 2-400, Newton, MA 02466"
Medical Device,,ITAMAR MEDICAL INC,Marvin,Slosman,President USA,842 Upper Union St,Suite 2,Franklin,MA,02038,0,"842 Upper Union St Suite 2, Franklin, MA 02038"
Medical Device,,IVY BIOMEDICAL SYSTEMS INC,,,,11 Business Park Dr,,Branford,CT,06405,45,"11 Business Park Dr, Branford, CT 06405"
Research Products & Instrumentation,MA Bio Member,IZON SCIENCES,Kris,Bolen,Director North America,One Kendall Sq,"Building 600, Suite 6101",Cambridge,MA,02139,0,"One Kendall Sq Building 600, Suite 6101, Cambridge, MA 02139"
Medical Device,,J & L PLASTIC MOLDING,Leonard,Rossicone,President,368 N Cherry St Ext,,Wallingford,CT,06492,32,"368 N Cherry St Ext, Wallingford, CT 06492"
Medical Device,,J-PAC LLC,Richard,Eagling,CEO/President,25 Centre Rd,,Somersworth,NH,03878,100,"25 Centre Rd, Somersworth, NH 03878"
Non-profit Research Institution,MA Bio Member,"JACKSON LABORATORY, THE",Edison T,Liu,President/CEO,600 Main St,,Bar Harbor,ME,04609,1212,"600 Main St, Bar Harbor, ME 04609"
Contract Research & Manufacturing,,JANCO ELECTRONICS INC,Rollins,Janetos,President/CEO,P O Box 1309,,Dover,NH,03821,75,"P O Box 1309, Dover, NH 03821"
Drug Development,,JANUS BIOTHERAPEUTICS INC,Grayson,Lipford,President/CSO,888 Worcester St,,Wellesley,MA,02482,0,"888 Worcester St, Wellesley, MA 02482"
Drug Development,,JB THERAPEUTICS INC,Mark,Tepper,CEO,508 Dudley Rd,Suite 100,Newton,MA,02459,4,"508 Dudley Rd Suite 100, Newton, MA 02459"
Medical Device,,JBV OPTICAL CO,John,Voyles,CEO,58 Main St,,Sturbridge,MA,01566,13,"58 Main St, Sturbridge, MA 01566"
Disease Foundation,MA Bio Member,JDRF NEW ENGLAND,Amy,Montalto,Executive Director,60 Walnut St,,Wellesley Hills,MA,02481,8,"60 Walnut St, Wellesley Hills, MA 02481"
Research Products & Instrumentation,,JEOL USA INC,Peter,Genovese,President,11 Dearborn Rd,,Peabody,MA,01960,140,"11 Dearborn Rd, Peabody, MA 01960"
Non-profit Research Institution,,"JOHN B PIERCE LABORATORY INC, THE",Barry,Green,President,290 Congress Ave,,New Haven,CT,06519,0,"290 Congress Ave, New Haven, CT 06519"
Medical Device,,JOHN W MURPHY ASSOCIATES INC,Jack,Murphy,President,30 Sunset Dr,,Seekonk,MA,02771,0,"30 Sunset Dr, Seekonk, MA 02771"
Contract Research & Manufacturing,,JOHNSON MATTHEY PHARMACEUTICAL MATERIALS USA,,,,25 Patton Rd,,Devens,MA,01434,130,"25 Patton Rd, Devens, MA 01434"
Medical Device,,JOHNSON MEDTECH,Jim,Dick,SVP Johnson Medtech,10 Progress Dr,,Shelton,CT,06484,30,"10 Progress Dr, Shelton, CT 06484"
Agricultural/Industrial Biotechnology,MA Bio Member,JOULE UNLIMITED,William,Sims,President/CEO,18 Crosby Dr,,Bedford,MA,01730,0,"18 Crosby Dr, Bedford, MA 01730"
Drug Development,MA Bio Member,KALA PHARMACEUTICALS INC,Robert,Paull,Acting CEO,135 Beaver St,Suite 309,Waltham,MA,02452,12,"135 Beaver St Suite 309, Waltham, MA 02452"
Contract Research & Manufacturing,,KARD SCIENTIFIC,Jonathan,Edwards,Director Business Dev't,,,Beverly,MA,01915,10,", Beverly, MA 01915"
Drug Development,,KARUNA PHARMACEUTICALS INC,,,,500 Boylston St,Suite 1600,Boston,MA,02116,0,"500 Boylston St Suite 1600, Boston, MA 02116"
Drug Development,MA Bio Member,KARYOPHARM THERAPEUTICS INC,Michael,Kauffman,CEO,2 Mercer Rd,,Natick,MA,01760,0,"2 Mercer Rd, Natick, MA 01760"
Medical Device,,KATAHDIN INDUSTRIES INC,Timothy,Cabot,CEO,58 McDonald St,,Dedham,MA,02026,20,"58 McDonald St, Dedham, MA 02026"
Medical Device,,KEYSTONE DENTAL INC,Jaime,Picariello,Director US Sales Operations,144 Middlesex Turnpike,,Burlington,MA,01803,0,"144 Middlesex Turnpike, Burlington, MA 01803"
Medical Device,,KIELY MEDICAL ELECTRONICS,James,Kiely,President,28 Westlund Rd,,Belmont,MA,02478,1,"28 Westlund Rd, Belmont, MA 02478"
Medical Device,,KINE-COIL/SLEEPER DIVISION - KINEFAC CORP,Mark,Russell,Sales Manager,156 Goddard Memorial Dr,,Worcester,MA,01603,65,"156 Goddard Memorial Dr, Worcester, MA 01603"
Medical Device,,KINE-SPIN/BARRETT - KINEFAC CORP,Patrick,Brogan,Sales Manager,156 Goddard Memorial Dr,,Worcester,MA,01603,50,"156 Goddard Memorial Dr, Worcester, MA 01603"
Medical Device,,KINETIC INNOVATIVE SEATING SYSTEM LLC,Susan,Farricielli,President,P O Box 935,,Branford,CT,06405,3,"P O Box 935, Branford, CT 06405"
Medical Device,,KINETIC INSTRUMENT INC,William,Becker,President,17 Berkshire Blvd,,Bethel,CT,06801,20,"17 Berkshire Blvd, Bethel, CT 06801"
Medical Device,,KMC SYSTEMS INC,Patrick,McNallen,President,220 Daniel Webster Hwy,,Merrimack,NH,03054,200,"220 Daniel Webster Hwy, Merrimack, NH 03054"
BioInformatics,MA Bio Member,KNOME INC,Martin,Tolar,President/CEO,25 First St,Suite 107,Cambridge,MA,02141,0,"25 First St Suite 107, Cambridge, MA 02141"
Contract Research & Manufacturing,,KOCH MEMBRANE SYSTEMS INC,Peter,Bouchard,Marketing/Communications Director,850 Main St,,Wilmington,MA,01887,250,"850 Main St, Wilmington, MA 01887"
Drug Development,,KOLLTAN PHARMACEUTICALS INC,Michael,Schmertzler,CEO/President,300 George St,Suite 530,New Haven,CT,06511,0,"300 George St Suite 530, New Haven, CT 06511"
Medical Device,,KROUWER CONSULTING,Jan,Krouwer,President,26 Parks Dr,,Sherborn,MA,01770,1,"26 Parks Dr, Sherborn, MA 01770"
Medical Device,,L & W RESEARCH INC,Paul,Leek,President,57 N Plains Industrial Rd,,Wallingford,CT,06492,8,"57 N Plains Industrial Rd, Wallingford, CT 06492"
Medical Device,,LAB MEDICAL MANUFACTURING INC,Leon,Bester,CEO,28 Cook St,,Billerica,MA,01821,60,"28 Cook St, Billerica, MA 01821"
Medical Device,,LABORIE MEDICAL TECHNOLOGIES CORP,Raymond,Laborie,Chairman/Owner,400 Avenue D,Suite 10,Williston,VT,05495,30,"400 Avenue D Suite 10, Williston, VT 05495"
Research Products & Instrumentation,,"LABSQUAD, THE",Rich,Tula,President/CEO,245 Constitution Dr,,Taunton,MA,02780,20,"245 Constitution Dr, Taunton, MA 02780"
Medical Device,,LABWORLD INC,David,Klayman,President,471 Page St,Unit 7A,Stoughton,MA,02072,10,"471 Page St Unit 7A, Stoughton, MA 02072"
Medical Device,,LAI INTERNATIONAL INC,Stewart,Cramer,President,28 Pond View Rd,,Scarborough,ME,04074,200,"28 Pond View Rd, Scarborough, ME 04074"
Medical Device,,LAMPIN CORP,Richard,Mongeau,President,38 River Rd,PO Box 327,Uxbridge,MA,01569,25,"38 River Rd PO Box 327, Uxbridge, MA 01569"
Human Diagnostic Development,MA Bio Member,LANTHEUS MEDICAL IMAGING INC,Larry,Pickering,Chairman,Bldg 600-2,331 Treble Cove Rd,N Billerica,MA,01862,385,"Bldg 600-2 331 Treble Cove Rd, N Billerica, MA 01862"
Medical Device,,LANTOS TECHNOLOGIES INC,Jeffrey,Leathe,Chairman/CEO,101 Main St,Suite 1760,Cambridge,MA,02142,9,"101 Main St Suite 1760, Cambridge, MA 02142"
Contract Research & Manufacturing,,LAPUCK LABORATORIES INC,Khalil,Zadeh,President/CEO,70 Shawmut Rd,,Canton,MA,02021,9,"70 Shawmut Rd, Canton, MA 02021"
Medical Device,,LAWRENCE MEDICAL PRODUCTS LLC,Ralph,Lawrence,Founder,90 Wood Cove Dr,,Coventry,RI,02816,0,"90 Wood Cove Dr, Coventry, RI 02816"
Medical Device,,LEMAITRE VASCULAR INC,George,LeMaitre,Chairman/CEO,63 Second Ave,,Burlington,MA,01803,280,"63 Second Ave, Burlington, MA 01803"
Medical Device,,LEVITRONIX LLC,,,,45 First Ave,,Waltham,MA,02451,24,"45 First Ave, Waltham, MA 02451"
Research Products & Instrumentation,,LEXITEK INC,Steven,Ebstein,President,14 Mica Ln,,Wellesley,MA,02481,0,"14 Mica Ln, Wellesley, MA 02481"
Medical Device,,LIBERATING TECHNOLOGIES INC,,,,325 Hopping Brook Rd,Suite A,Holliston,MA,01746,0,"325 Hopping Brook Rd Suite A, Holliston, MA 01746"
Drug Development,,LIBRA BIOSCIENCES INC,,,,500 Boylston St,Suite 1600,Boston,MA,02116,0,"500 Boylston St Suite 1600, Boston, MA 02116"
Drug Development,,LIGON DISCOVERY,Patrick,Kleyn,CEO/Co-Founder,85 Bolton St,,Cambridge,MA,02140,0,"85 Bolton St, Cambridge, MA 02140"
Drug Development,,LIPIMETIX LLC,Dennis,Goldberg,President/CEO,50 Land's End Lane,,Sudbury,MA,01776,3,"50 Land's End Lane, Sudbury, MA 01776"
Medical Device,,LOGAN INSTRUMENTS INC,Charles,Gambale,President,2050 Revere Beach Pkwy,,Everett,MA,02149,10,"2050 Revere Beach Pkwy, Everett, MA 02149"
Drug Development,,LOGICAL THERAPEUTICS INC,Peter,Lankau,CEO,300 Second Ave,,Waltham,MA,02451,10,"300 Second Ave, Waltham, MA 02451"
Agricultural/Industrial Biotechnology,MA Bio Member,LONZA BIOLOGICS INC,,,,101 International Dr,,Portsmouth,NH,03801,642,"101 International Dr, Portsmouth, NH 03801"
Drug Development,MA Bio Member,LOTUS TISSUE REPAIR INC,Mark,de Souza,President/CEO,One Mifflin Pl,Suite 400,Cambridge,MA,02138,0,"One Mifflin Pl Suite 400, Cambridge, MA 02138"
Medical Device,,LOU ZAMPINI & ASSOCIATES,Lou,Zampini,Owner,85 Industrial Cir,Suite 2211,Lincoln,RI,02865,1,"85 Industrial Cir Suite 2211, Lincoln, RI 02865"
Medical Device,,LUBRIZOL MEDICAL & HEALTHCARE DIVISION,Eric,Rohr,Global Marketing Manager - Medical & HealthCare,207 Lowell St,,Wilmington,MA,01887,70,"207 Lowell St, Wilmington, MA 01887"
Research Products & Instrumentation,,LUKNOVA INC,Thomas,Chi,Manager,20 Cabot Blvd,Suite 300,Mansfield,MA,02048,4,"20 Cabot Blvd Suite 300, Mansfield, MA 02048"
Medical Device,,LUXTEL LLC,Paul,Beech,Managing Member,100 Ferncroft Rd,,Danvers,MA,01923,0,"100 Ferncroft Rd, Danvers, MA 01923"
Contract Research & Manufacturing,,LYOPHILIZATION SERVICES OF NEW ENGLAND (LSNE),Matthew,Halvorsen,President,1 Sundial Ave,Suite 112,Manchester,NH,03103,70,"1 Sundial Ave Suite 112, Manchester, NH 03103"
Medical Device,,LYTRON INC,,,,55 Dragon Ct,,Woburn,MA,01801,220,"55 Dragon Ct, Woburn, MA 01801"
Research Products & Instrumentation,,M E WORKSPACE,Joseph,Germann,President/CEO,79 Park Rd,,Chelmsford,MA,01824,3,"79 Park Rd, Chelmsford, MA 01824"
Medical Device,,M2S INC,Greg,Lange,President/COO,12 Commerce Ave,,W Lebanon,NH,03784,85,"12 Commerce Ave, W Lebanon, NH 03784"
Medical Device,,MACK MOLDING CO,Jeff,Somple,President Northern Division,608 Warm Brook Rd,,Arlington,VT,05250,0,"608 Warm Brook Rd, Arlington, VT 05250"
Medical Device,,MACKENZIE MACHINE & DESIGN INC,Neal,MacKenzie,Owner,80 Sharp St,,Hingham,MA,02043,12,"80 Sharp St, Hingham, MA 02043"
Human Diagnostic Development,,MAINE BIOTECHNOLOGY SERVICES INC,Joseph,Chandler Ph D,President,1037R Forest Ave,,Portland,ME,04103,35,"1037R Forest Ave, Portland, ME 04103"
Medical Device,,MAINE MACHINE PRODUCTS CO,Adam,Davies,VP Sales/Marketing,79 Prospect Ave,PO Box 260,S Paris,ME,04281,130,"79 Prospect Ave PO Box 260, S Paris, ME 04281"
Drug Development,,MANNKIND CORP,Alfred,Mann,CEO,1 Casper St,,Danbury,CT,06810,0,"1 Casper St, Danbury, CT 06810"
Medical Device,,MANTA PRODUCT DEVELOPMENT INC,Andrew,Jones,President,25 1st St,Suite 103,Cambridge,MA,02141,10,"25 1st St Suite 103, Cambridge, MA 02141"
Contract Research & Manufacturing,,MAR-LEE MEDICAL,,,,190 Authority Dr,,Fitchburg,MA,01420,28,"190 Authority Dr, Fitchburg, MA 01420"
Contract Research & Manufacturing,,MARICAL INC,Bruce,Andrews,CEO,400 Commercial St,,Portland,ME,04101,10,"400 Commercial St, Portland, ME 04101"
Medical Device,,MARINAIR LTD,Harry,Shamir,President,37 Dwight Ave,,Plymouth,MA,02360,1,"37 Dwight Ave, Plymouth, MA 02360"
Drug Development,,MARINUS PHARMACEUTICALS INC,Stephen,Block,Chairman,21 Business Park Dr,,Branford,CT,06405,0,"21 Business Park Dr, Branford, CT 06405"
Medical Device,,MAROX CORP,Fred,Rosenkranz,Chairman/CEO,373 Whitney Ave,,Holyoke,MA,01040,75,"373 Whitney Ave, Holyoke, MA 01040"
Agricultural/Industrial Biotechnology,MA Bio Member,MASCOMA CORP,Bruce,Jamerson,Chairman,67 Etna Rd,Suite 300,Lebanon,NH,03766,85,"67 Etna Rd Suite 300, Lebanon, NH 03766"
Academic,MA Bio Member,MASSACHUSETTS COLLEGE PHARMACY & HEALTH SCIENCES,Brian,Barilone,Assoc Director Admission,179 Longwood Ave,,Boston,MA,02115,0,"179 Longwood Ave, Boston, MA 02115"
Drug Development,,MASSRESEARCH LLC,Steven,Schroder,President,42 Weston St,Suite 8,Waltham,MA,02453,10,"42 Weston St Suite 8, Waltham, MA 02453"
Research Products & Instrumentation,MA Bio Member,MASY SYSTEMS INC,Jason,Daoust,Business Dev't Manager,10 Lomar Park Dr,,Pepperell,MA,01463,55,"10 Lomar Park Dr, Pepperell, MA 01463"
Research Products & Instrumentation,,MATERION BARR PRECISION OPTICS,,,,2 Lyberty Way,,Westford,MA,01886,230,"2 Lyberty Way, Westford, MA 01886"
Drug Development,MA Bio Member,MATRIVAX R&D CORP,Yichen,Lu,CEO,650 Albany St,#117,Boston,MA,02118,9,"650 Albany St #117, Boston, MA 02118"
Contract Research & Manufacturing,,MATTEK CORP,Mitch,Klausner,President/CEO,200 Homer Ave,,Ashland,MA,01721,80,"200 Homer Ave, Ashland, MA 01721"
Medical Device,,MAYFIELD PLASTICS INC,Ron,Cross,President,68 Providence Rd,,Sutton,MA,01590,60,"68 Providence Rd, Sutton, MA 01590"
Research Products & Instrumentation,MA Bio Member,MBL INTERNATIONAL CORP,Dennis,Walczewski,CEO,15A Constitution Way,,Woburn,MA,01801,16,"15A Constitution Way, Woburn, MA 01801"
Contract Research & Manufacturing,MA Bio Member,MEDCHEM PARTNERS LLC,Steven,Riesinger,Co-Founder,99 Hayden Ave,Suite 210,Lexington,MA,02421,4,"99 Hayden Ave Suite 210, Lexington, MA 02421"
Human Diagnostic Development,,MEDICA CORP,Robert,Hagopian,President,5 Oak Pk,,Bedford,MA,01730,150,"5 Oak Pk, Bedford, MA 01730"
Human Diagnostic Development,,MEDICAL DISCOVERY PARTNERS LLC,Steven,Bogen,President/CEO,800 Washington St,Ziskind Bldg 417,Boston,MA,02111,0,"800 Washington St Ziskind Bldg 417, Boston, MA 02111"
Medical Device,,MEDICAL EQUIPMENT SPECIALISTS INC,Eduardo,Paredes MS,President/CEO,107 Otis St,,Northborough,MA,01532,4,"107 Otis St, Northborough, MA 01532"
Medical Device,,MEDICAL SCIENTIFIC INC,Paul,Nardella,President,725 Myles Standish Blvd,,Taunton,MA,02780,10,"725 Myles Standish Blvd, Taunton, MA 02780"
Medical Device,,MEDICAMETRIX INC,Christopher,LaFarge,CEO/Chairman,1 Old Sudbury Rd,,Wayland,MA,01778,6,"1 Old Sudbury Rd, Wayland, MA 01778"
Research Products & Instrumentation,,"MEDICINES CO, THE",Clive,Meanwell,Chairman/CEO,400 Fifth Ave,,Waltham,MA,02451,0,"400 Fifth Ave, Waltham, MA 02451"
Medical Device,,MEDMINDER SYSTEMS INC,Eran,Shavelsky,Founder/CEO,200 Reservoir St,Suite 300,Needham,MA,02494,0,"200 Reservoir St Suite 300, Needham, MA 02494"
Medical Device,,MEDROBOTICS,David,Wagner,Executive Chairman,475 Paramount Dr,,Raynham,MA,02767,0,"475 Paramount Dr, Raynham, MA 02767"
Medical Device,,MEMRY CORP,Matt,Rowe,VP Sales/Marketing,3 Berkshire Blvd,,Bethel,CT,06801,175,"3 Berkshire Blvd, Bethel, CT 06801"
Drug Development,MA Bio Member,MERCK & CO,Reid,Leonard,Executive Director Licensing,33 Avenue Louis Pasteur,,Boston,MA,02115,450,"33 Avenue Louis Pasteur, Boston, MA 02115"
Medical Device,,MERIDIAN MEDICAL SYSTEM LLC,Kenneth,Carr Dr,President,77 Goose Cove Ln,,Woolwich,ME,04579,5,"77 Goose Cove Ln, Woolwich, ME 04579"
Academic,MA Bio Member,MERRIMACK COLLEGE,Mark,Birnbaum,Chair Biology Department,Center for Biotechnology and Biomedical Sciences,315 Turnpike St,N Andover,MA,01845,0,"Center for Biotechnology and Biomedical Sciences 315 Turnpike St, N Andover, MA 01845"
Drug Development,MA Bio Member,MERRIMACK PHARMACEUTICALS INC,Robert,Mulroy,CEO/President,One Kendall Square,Suite B7201,Cambridge,MA,02139,80,"One Kendall Square Suite B7201, Cambridge, MA 02139"
Drug Development,MA Bio Member,MERSANA THERAPEUTICS INC,Nicholas,Bacopoulos,President/CEO,840 Memorial Dr,,Cambridge,MA,02139,0,"840 Memorial Dr, Cambridge, MA 02139"
Medical Device,,MET-L-FAB INC,Ralph,Stantial,President,53 Wentworth Ave,,Londonderry,NH,03053,11,"53 Wentworth Ave, Londonderry, NH 03053"
Contract Research & Manufacturing,,METABOLIC SOLUTIONS INC,David,Wagner,President,460 Amherst St,,Nashua,NH,03063,10,"460 Amherst St, Nashua, NH 03063"
Agricultural/Industrial Biotechnology,MA Bio Member,METABOLIX INC,Richard,Eno,CEO,21 Erie St,,Cambridge,MA,02139,70,"21 Erie St, Cambridge, MA 02139"
Human Diagnostic Development,MA Bio Member,METAMARK GENETICS INC,Mark,Straley,President/CEO,245 First St,,Cambridge,MA,02142,0,"245 First St, Cambridge, MA 02142"
Medical Device,,METASYSTEMS GROUP INC,Ulrich,Klingbeil,President,300 Bear Hill Road,,Waltham,MA,02451,6,"300 Bear Hill Road, Waltham, MA 02451"
Medical Device,,METRIGRAPHICS LLC,Randolph,Sablich,CEO/President,50 Concord St,,Wilmington,MA,01887,60,"50 Concord St, Wilmington, MA 01887"
Research Products & Instrumentation,,METROLOGY PROS,,,,PO Box 566,,Pepperell,MA,01463,20,"PO Box 566, Pepperell, MA 01463"
Research Products & Instrumentation,,METRUM RESEARCH GROUP LLC,Marc,Gastonguay,President/CEO,2 Tunxis Rd,Suite 112,Tariffville,CT,06081,0,"2 Tunxis Rd Suite 112, Tariffville, CT 06081"
Research Products & Instrumentation,,METTLER-TOLEDO THORNTON INC,,,,36 Middlesex Tpk,,Bedford,MA,01730,100,"36 Middlesex Tpk, Bedford, MA 01730"
Medical Device,,MEVION MEDICAL SYSTEMS INC,Joseph,Jachinowski,CEO,300 Foster St,,Littleton,MA,01460,0,"300 Foster St, Littleton, MA 01460"
Medical Device,,MICRO-INVASIVE TECHNOLOGY INC,Ron,Franzino,Chairman,80 Covell Rd,,Pomfret Center,CT,06259,4,"80 Covell Rd, Pomfret Center, CT 06259"
Drug Development,MA Bio Member,MICROBIOTIX INC,Terry,Bowlin,CEO/President,One Innovation Dr,,Worcester,MA,01605,26,"One Innovation Dr, Worcester, MA 01605"
Medical Device,,MICROCHIPS INC,Robert,Farra,President/COO,1000 Winter St,Suite 3350,Waltham,MA,02451,20,"1000 Winter St Suite 3350, Waltham, MA 02451"
Medical Device,,MICROELECTRODES INC,Normand,Hebert,President,40 Harvey Rd,,Bedford,NH,03110,10,"40 Harvey Rd, Bedford, NH 03110"
Research Products & Instrumentation,,MICROFLUIDICS,William,Conroy,General Manager,30 Ossipee Rd,,Newton,MA,02464,35,"30 Ossipee Rd, Newton, MA 02464"
Medical Device,,MICROLINE SURGICAL INC,Sharad,Joshi,President,800 Cummings Ctr,Suite 166T,Beverly,MA,01915,130,"800 Cummings Ctr Suite 166T, Beverly, MA 01915"
Research Products & Instrumentation,,MICROLYTIC NORTH AMERICA INC,Morten,Sommer,Founder,21 A St,,Burlington,MA,01803,2,"21 A St, Burlington, MA 01803"
Medical Device,,MICRON PRODUCTS INC,James,Rouse,President/CEO,25 Sawyer Passway,,Fitchburg,MA,01420,100,"25 Sawyer Passway, Fitchburg, MA 01420"
Medical Device,,MICROPROCESSOR DESIGNS INC,Jeff,Finkelstein,President,65 Longmeadow Dr,P O Box 160,Shelburne,VT,05482,12,"65 Longmeadow Dr P O Box 160, Shelburne, VT 05482"
Agricultural/Industrial Biotechnology,,MICROSORB ENVIROMENTAL PRODUCTS INC,Heather,Baird,VP,104 Longwater Dr,,Norwell,MA,02061,3,"104 Longwater Dr, Norwell, MA 02061"
Medical Device,,MICROSPEC CORP,Tim,Steele,Founder/CEO,327 Jaffrey Rd,,Peterborough,NH,03458,0,"327 Jaffrey Rd, Peterborough, NH 03458"
Medical Device,,MICROTEK INC,Anne,Paradis,CEO,36 Justin Dr,,Chicopee,MA,01022,120,"36 Justin Dr, Chicopee, MA 01022"
Contract Research & Manufacturing,MA Bio Member,MICROTEST LABORATORIES INC,Steven,Richter,President/Scientific Director,104 Gold St,,Agawam,MA,01001,100,"104 Gold St, Agawam, MA 01001"
Research Products & Instrumentation,,MICROTISSUES INC,Jeffrey,Morgan,President/CEO,1 Davol Sq,Suite 200,Providence,RI,02903,0,"1 Davol Sq Suite 200, Providence, RI 02903"
Research Products & Instrumentation,,MIDDLESEX GASES & TECHNOLOGIES INC,Gary,Hylan,Specialty/Industrial Sales consultant,292 Second St,,Everett,MA,02149,40,"292 Second St, Everett, MA 02149"
Drug Development,MA Bio Member,MILLENNIUM PHARMACEUTICALS INC,Deborah,Dunsire,CEO/President,40 Lansdowne St,,Cambridge,MA,02139,1100,"40 Lansdowne St, Cambridge, MA 02139"
Contract Research & Manufacturing,,MILLSTONE MEDICAL OUTSOURCING LLC,Chris,Ramsden,CEO,580 Commerce Dr,,Fall River,MA,02720,190,"580 Commerce Dr, Fall River, MA 02720"
Medical Device,,MINDCHILD MEDICAL INC,Bill,Edelman,CEO,1600 Osgood St,,Andover,MA,01845,0,"1600 Osgood St, Andover, MA 01845"
Drug Development,,MINERVA BIOTECHNOLOGIES CORP,Cynthia,Bamdad,Founder,40 Bear Hill Rd,,Waltham,MA,02451,0,"40 Bear Hill Rd, Waltham, MA 02451"
Research Products & Instrumentation,,MIRA DX,Martin,Verhoef,President/CEO,300 George St,,New Haven,CT,06511,0,"300 George St, New Haven, CT 06511"
Disease Foundation,,MITOACTION,Cristy,Balcells,Executive Director,P O Box 51474,,Boston,MA,02205,2,"P O Box 51474, Boston, MA 02205"
Drug Development,,MITOKINE BIOSCIENCE,Paul,Myer,Interim CEO,,,Hancock,ME,,0,", Hancock, ME "
Medical Device,,MITRALIGN INC,Rick,Geoffrion,CEO,3 Highwood Dr,,Tewksbury,MA,01876,30,"3 Highwood Dr, Tewksbury, MA 01876"
Medical Device,,MITSUBISHI ELECTRIC RESEARCH LABORATORIES,Richard,Waters,President/CEO,201 Broadway,,Cambridge,MA,02139,72,"201 Broadway, Cambridge, MA 02139"
Drug Development,,MNEMOSYNE PHARMACEUTICALS INC,Kollol,Pal,CEO,1 Davol Sq,Suite A340,Providence,RI,02903,3,"1 Davol Sq Suite A340, Providence, RI 02903"
Contract Research & Manufacturing,,MOLDMASTER ENGINEERING INC,Thomas,Kushi,President/Treasurer,187 Newell St,,Pittsfield,MA,01201,45,"187 Newell St, Pittsfield, MA 01201"
Research Products & Instrumentation,,MOLECULAR BIOMETRICS INC,James,Posillico,CEO,1 Edgewater Dr,Suite 110,Norwood,MA,02062,0,"1 Edgewater Dr Suite 110, Norwood, MA 02062"
Drug Development,MA Bio Member,MOLECULAR INSIGHT PHARMACEUTICALS INC,John,Babich,President/CSO,160 Second St,,Cambridge,MA,02142,24,"160 Second St, Cambridge, MA 02142"
Contract Research & Manufacturing,,MOMELAN TECHNOLOGIES INC,Sameer,Sabir,Founder,101 Main St,Suite 1750,Cambridge,MA,02142,0,"101 Main St Suite 1750, Cambridge, MA 02142"
Drug Development,MA Bio Member,MOMENTA PHARMACEUTICALS INC,Craig,Wheeler,President/CEO,675 W Kendall St,,Cambridge,MA,02142,190,"675 W Kendall St, Cambridge, MA 02142"
Medical Device,,MORGAN SCIENTIFIC INC,Patrick,Morgan,President,151 Essex St,,Haverhill,MA,01832,15,"151 Essex St, Haverhill, MA 01832"
Medical Device,,MORGAN TECHNICAL CERAMICS ALBEROX,,,,225 Theodore Rice Blvd,,New Bedford,MA,02745,175,"225 Theodore Rice Blvd, New Bedford, MA 02745"
Medical Device,,MOSSMAN ASSOCIATES INC,Donald,Mossman,President/CEO,9 Village Cir,,Milford,MA,01757,6,"9 Village Cir, Milford, MA 01757"
Research Products & Instrumentation,,MOTT CORP,Roger,Klene,President/CEO,84 Spring Ln,,Farmington,CT,06032,75,"84 Spring Ln, Farmington, CT 06032"
Research Products & Instrumentation,MA Bio Member,MOUSE SPECIFICS INC,Scott,McCue,VP Sales,1354 Hancock St,Room 207,Quincy,MA,02169,3,"1354 Hancock St Room 207, Quincy, MA 02169"
Drug Development,MA Bio Member,MSM PROTEIN TECHNOLOGIES INC,David,Kreimer,CEO,10 Roessler Road,Suite A,Woburn,MA,01801,8,"10 Roessler Road Suite A, Woburn, MA 01801"
Medical Device,,MTD MICRO MOLDING,Dennis,Tully,President,15 Trolley Crossing Rd,,Charlton,MA,01507,20,"15 Trolley Crossing Rd, Charlton, MA 01507"
Medical Device,,MTM LABORATORIES INC,Robert,Silverman,CEO,1 Research Dr,Suite 120c,Westborough,MA,01581,12,"1 Research Dr Suite 120c, Westborough, MA 01581"
Medical Device,,MX ORTHOPEDICS,Matthew,Fonte,Owner,,,Boston,MA,,0,", Boston, MA "
Medical Device,,MYLAN TECHNOLOGIES INC,,,,110 Lake St,,St Albans,VT,05478,400,"110 Lake St, St Albans, VT 05478"
Medical Device,,MYOMO INC,Stephen,Page,Board Member,1 Broadway,14th Floor,Cambridge,MA,02142,11,"1 Broadway 14th Floor, Cambridge, MA 02142"
Agricultural/Industrial Biotechnology,MA Bio Member,MYRIANT CORP,Stephen,Gatto,Chairman/CEO,1 Pine Hill Dr,Suite 301,Quincy,MA,02169,20,"1 Pine Hill Dr Suite 301, Quincy, MA 02169"
Human Diagnostic Development,,N-OF-ONE INC,Jennifer,Levin Carter,Founder/President,400 Fifth Ave,Suite 200,Waltham,MA,02451,0,"400 Fifth Ave Suite 200, Waltham, MA 02451"
Contract Research & Manufacturing,,NABSYS INC,Barrett,Bready,President/CEO,60 Clifford St,,Providence,RI,02903,2,"60 Clifford St, Providence, RI 02903"
Contract Research & Manufacturing,,NANO-TERRA,Myer,Berlow,CEO,50 Soldiers Field Pl,,Brighton,MA,02135,0,"50 Soldiers Field Pl, Brighton, MA 02135"
Medical Device,MA Bio Member,NANOBIOSYM,Anita,Goel,CEO,200 Boston Ave,Suite 4700,Medford,MA,02155,0,"200 Boston Ave Suite 4700, Medford, MA 02155"
Drug Development,,NANOVIRICIDES INC,Eugene,Seymour,CEO,135 Wood St,Suite 205,W Haven,CT,06516,5,"135 Wood St Suite 205, W Haven, CT 06516"
Research Products & Instrumentation,MA Bio Member,NANTERO INC,Greg,Schmergel,Co-Founder/President/CEO,25-E Olympia Ave,,Woburn,MA,01801,25,"25-E Olympia Ave, Woburn, MA 01801"
Medical Device,,NARRAGANSETT IMAGING,Keith,Dowling,Director Digital Imaging,51 Industrial Dr,,N Smithfield,RI,02896,60,"51 Industrial Dr, N Smithfield, RI 02896"
Medical Device,,NATHANIEL GROUP INC,Joel,Melnick,CEO,101 Panton Rd,Suite 1,Vergennes,VT,05491,31,"101 Panton Rd Suite 1, Vergennes, VT 05491"
Research Products & Instrumentation,,NATIONAL APERTURE INC,William,Grenier,President/General Manager,16 Northwestern Dr,,Salem,NH,03079,19,"16 Northwestern Dr, Salem, NH 03079"
Medical Device,,NATIONAL SEATING AND MOBILITY,Richie,Samay,Vice President,150 Padgette St,Unit F,Chicopee,MA,01022,0,"150 Padgette St Unit F, Chicopee, MA 01022"
Human Diagnostic Development,,NAVIGENT3,Peter,Cholakis,Partner,5 Commonwealth Road,,Natick,MA,01748,,"5 Commonwealth Road, Natick, MA 01748"
Medical Device,,NAVILYST MEDICAL INC,Ron,Sparks,Chairman/CEO,26 Forest St,,Marlborough,MA,01752,0,"26 Forest St, Marlborough, MA 01752"
Medical Device,,NEEDLETECH PRODUCTS INC,Joseph,Plante,President,452 John L Dietsch Blvd,,N Attleboro,MA,02763,175,"452 John L Dietsch Blvd, N Attleboro, MA 02763"
Drug Development,,NEMUCORE MEDICAL INNOVATIONS INC,Timothy,Coleman,CEO/President,55 Union St,,Worcester,MA,01608,0,"55 Union St, Worcester, MA 01608"
Contract Research & Manufacturing,MA Bio Member,NEO-ADVENT TECHNOLOGIES LLC,Nelson,Landrau,CEO,410 Great Rd,Suite 4-2-2,Littleton,MA,01460,9,"410 Great Rd Suite 4-2-2, Littleton, MA 01460"
Medical Device,,NEOGRAFT TECHNOLOGIES,Jon,McGrath,President/CEO,470 Constitution Dr,,Taunton,MA,02780,0,"470 Constitution Dr, Taunton, MA 02780"
Human Diagnostic Development,,NETBIO INC,,,,830 Winter St,,Waltham,MA,02451,0,"830 Winter St, Waltham, MA 02451"
Medical Device,,NEUMITRA LLC,Robert,Goldberg,Partner,,,Cambridge,MA,,0,", Cambridge, MA "
BioInformatics,,NEUQUEST SOFTWARE,Michael,Doherty,CEO/President,PO Box 990575,,Boston,MA,02119,3,"PO Box 990575, Boston, MA 02119"
Medical Device,,NEURODYNE MEDICAL CORP,Tahir,Chaudhry,President,186 Alewife Brook Pkwy,,Cambridge,MA,02138,10,"186 Alewife Brook Pkwy, Cambridge, MA 02138"
Drug Development,,NEUROHEALING PHARMACEUTICALS INC,Neal,Farber,CEO,P O Box 238,,Newton,MA,02468,0,"P O Box 238, Newton, MA 02468"
Medical Device,,NEUROLOGICA CORP,Eric,Bailey,President/CEO/Founder,14 Electronics Ave,,Danvers,MA,01923,,"14 Electronics Ave, Danvers, MA 01923"
Medical Device,,NEUROMETRIX INC,Shai,Gozani,Chairman/President/CEO,62 Fourth Ave,,Waltham,MA,02451,44,"62 Fourth Ave, Waltham, MA 02451"
Medical Device,,NEUROMORPHOMETRICS INC,Andrew,Worth,President/CTO,22 Westminster St,,Somerville,MA,02144,3,"22 Westminster St, Somerville, MA 02144"
Drug Development,MA Bio Member,NEUROPHAGE PHARMACEUTICALS,Jonathan,Solomon,CEO,222 Third St,Suite 3120,Cambridge,MA,02142,6,"222 Third St Suite 3120, Cambridge, MA 02142"
Medical Device,,NEUROPHYSICS CORP,Dr Hugh,Stoddart,CEO,1000 Mount Laurel Cir,Unit 4R,Shirley,MA,01464,8,"1000 Mount Laurel Cir Unit 4R, Shirley, MA 01464"
Human Diagnostic Development,,NEUROPTIX CORP,Paul,Hartung,President/CEO,20 Main St,,Acton,MA,01720,6,"20 Main St, Acton, MA 01720"
Drug Development,MA Bio Member,NEUROTECH USA INC,Edward,Danse,President/CEO,701 George Washington Hwy,,Lincoln,RI,02865,28,"701 George Washington Hwy, Lincoln, RI 02865"
Contract Research & Manufacturing,,NEW ENGLAND ANALYTICAL LLC,Rick,Bertaska,President,1 Chestnut St,Suite 3A,Nashua,NH,03060,,"1 Chestnut St Suite 3A, Nashua, NH 03060"
Research Products & Instrumentation,MA Bio Member,NEW ENGLAND BIOLABS INC,Richard,Roberts,CSO,240 County Rd,,Ipswich,MA,01938,0,"240 County Rd, Ipswich, MA 01938"
Contract Research & Manufacturing,,NEW ENGLAND CONTROLS,Tom,Ramundo,President,9 Oxford Rd,,Mansfield,MA,02048,100,"9 Oxford Rd, Mansfield, MA 02048"
Medical Device,,NEW ENGLAND LASER PROCESSING INC,Michael,McCullock,President,Danvers Industrial Park,4 Electronics Ave,Danvers,MA,01923,5,"Danvers Industrial Park 4 Electronics Ave, Danvers, MA 01923"
Contract Research & Manufacturing,,NEW ENGLAND PEPTIDE LLC,Dave,Robinson,CEO,65 Zub Lane,,Gardner,MA,01440,50,"65 Zub Lane, Gardner, MA 01440"
Contract Research & Manufacturing,MA Bio Member,NEW ENGLAND RESEARCH INSTITUTES,Rebecca,Li,VP Clinical Research,9 Galen St,,Watertown,MA,02472,160,"9 Galen St, Watertown, MA 02472"
Medical Device,,NEW HARBOR SQA LLC,Tony,Raymond,President/Principal Consultant,855 Turnpike St,,N Andover,MA,01845,3,"855 Turnpike St, N Andover, MA 01845"
Research Products & Instrumentation,,NEW OBJECTIVE INC,Gary,Valaskovic,President/CEO,2 Constitution Way,,Woburn,MA,01801,25,"2 Constitution Way, Woburn, MA 01801"
Research Products & Instrumentation,MA Bio Member,NEXCELOM BIOSCIENCE LLC,Peter,Li,President/CEO,360 Merrimack St,Bldg 9,Lawrence,MA,01843,30,"360 Merrimack St Bldg 9, Lawrence, MA 01843"
Medical Device,,NEXT HEALTH LLC,Robert,Jacobs,President/CEO,112 Rowayton Ave,,Rowayton,CT,06853,0,"112 Rowayton Ave, Rowayton, CT 06853"
Drug Development,,NIMBUS DISCOVERY INC,Rosana,Kapeller,CSO,25 First St,Suite 404,Cambridge,MA,02141,8,"25 First St Suite 404, Cambridge, MA 02141"
Medical Device,,NINEPOINT MEDICAL INC,Charles,Carignan,President/CEO,1 Kendall Sq,Suite B7501,Cambridge,MA,02139,0,"1 Kendall Sq Suite B7501, Cambridge, MA 02139"
Drug Development,MA Bio Member,NKT THERAPEUTICS,Robert,Mashal,President/CEO,1000 Winter St,Suite 3900,Waltham,MA,02451,,"1000 Winter St Suite 3900, Waltham, MA 02451"
Research Products & Instrumentation,,NOBLEGEN BIOSCIENCES INC,Frank,Feist,CEO,58 Elsinore St,,Concord,MA,01742,0,"58 Elsinore St, Concord, MA 01742"
Medical Device,,NORDSON EFD,Jeff,Pembroke,President,40 Catamore Blvd,,E Providence,RI,02914,280,"40 Catamore Blvd, E Providence, RI 02914"
Medical Device,,NORMATEC,Mary,Larkin,Primary Nurse,44 Glen Ave,,Newton Center,MA,02459,30,"44 Glen Ave, Newton Center, MA 02459"
Medical Device,,NORTH EAST PRECISION INC,Bruce,Benoit,President,3606 Memorial Dr,P O Box 7,St Johnsbury,VT,05819,54,"3606 Memorial Dr P O Box 7, St Johnsbury, VT 05819"
Medical Device,,NORTHEAST BIOMEDICAL INC,Timothy,Looney,President,3 Richards Cir,,Tyngsboro,MA,01879,0,"3 Richards Cir, Tyngsboro, MA 01879"
Contract Research & Manufacturing,,NORTHEAST LABORATORIES INC,Alan,Johnson,President,129 Mill St,,Berlin,CT,06037,22,"129 Mill St, Berlin, CT 06037"
Agricultural/Industrial Biotechnology,,NOURSE FARMS INC,Timothy,Nourse,President,41 River Rd,,S Deerfield,MA,01373,60,"41 River Rd, S Deerfield, MA 01373"
Medical Device,MA Bio Member,NOVA BIOMEDICAL CORP,Dan,Ouellette,Director Manufacturing Engineering,200 Prospect St,,Waltham,MA,02454,800,"200 Prospect St, Waltham, MA 02454"
Research Products & Instrumentation,,NOVA SCIENTIFIC INC,Paul,White,President,10 Picker Rd,,Sturbridge,MA,01566,6,"10 Picker Rd, Sturbridge, MA 01566"
Drug Development,MA Bio Member,NOVARTIS INSTITUTES FOR BIOMEDICAL RESEARCH,,,,250 Massacusetts Ave,,Cambridge,MA,02139,2000,"250 Massacusetts Ave, Cambridge, MA 02139"
Medical Device,,NOVATRACT SURGICAL LLC,Eleanor,Tandler,CEO,401 Winchester Ave,3rd Floor,New Haven,CT,06511,0,"401 Winchester Ave 3rd Floor, New Haven, CT 06511"
Drug Development,,NOVELOS THERAPEUTICS INC,Harry,Palmin,President/CEO,1 Gateway Center,Suite 504,Newton,MA,02458,0,"1 Gateway Center Suite 504, Newton, MA 02458"
Agricultural/Industrial Biotechnology,MA Bio Member,NOVOGY INC,Colin,South,Co-Founder,20 University Rd,Suite 450,Cambridge,MA,02138,0,"20 University Rd Suite 450, Cambridge, MA 02138"
Research Products & Instrumentation,MA Bio Member,NOVOZYMES BIOPHARMA US INC,Svend,Licht,Global Head Sales,1 Broadway,14th Floor,Cambridge,MA,02142,8,"1 Broadway 14th Floor, Cambridge, MA 02142"
Medical Device,,NT MEDICAL,Lynne,Vargas,Marketing Director,222 Ballardvale St,,Wilmington,MA,01887,22,"222 Ballardvale St, Wilmington, MA 01887"
Research Products & Instrumentation,MA Bio Member,NUCLEA BIOTECHNOLOGIES LLC,Patrick,Muraca,President/CEO,105 South St,,Pittsfield,MA,01201,0,"105 South St, Pittsfield, MA 01201"
Medical Device,,NUMIA MEDICAL TECHNOLOGY LLC,Eric,Flachbart,President,84 Farrant St,,Newport,VT,05855,24,"84 Farrant St, Newport, VT 05855"
Medical Device,,NUORTHO SURGICAL INC,Patrick,Janin,President/CEO,151 Martine St,,Fall River,MA,02723,3,"151 Martine St, Fall River, MA 02723"
Medical Device,,NXSTAGE MEDICAL INC,Jeffrey,Burbank,President/CEO,439 S Union St,5th Floor,Lawrence,MA,01843,280,"439 S Union St 5th Floor, Lawrence, MA 01843"
Agricultural/Industrial Biotechnology,,NYACOL NANO TECHNOLOGIES INC,Robert,Nehring Jr,CEO/President,PO Box 349,211 Megunko Rd,Ashland,MA,01721,28,"PO Box 349 211 Megunko Rd, Ashland, MA 01721"
Medical Device,,NYPRO INC,Gordon,Lankton,Chairman,101 Union St,,Clinton,MA,01510,1000,"101 Union St, Clinton, MA 01510"
Medical Device,,NYPRO INC/NP MEDICAL,,,,101 Union St,,Clinton,MA,01510,,"101 Union St, Clinton, MA 01510"
Medical Device,,NYX DEVICES,Thomas,Lipoma,Co-Founder,319 A St,Suite 4C,Boston,MA,02210,3,"319 A St Suite 4C, Boston, MA 02210"
Agricultural/Industrial Biotechnology,,NZYMSYS INC,David,Bloom,President,131 Pitkin St,,E Hartford,CT,06108,0,"131 Pitkin St, E Hartford, CT 06108"
Medical Device,,"O C WHITE CO, THE",Richard,May,President,4226 Church St,,Thorndike,MA,01079,20,"4226 Church St, Thorndike, MA 01079"
Medical Device,,O R M INC,Susan,Ormondroyd,President,71 Lyman St,,Northborough,MA,01532,20,"71 Lyman St, Northborough, MA 01532"
Medical Device,,O'BRIEN MEDICAL LLC,Todd,O'Brien,Founder,16 Winterhaven Dr,,Orono,ME,04473,0,"16 Winterhaven Dr, Orono, ME 04473"
Medical Device,MA Bio Member,OCULAR THERAPEUTIX INC,Amar,Sawhney,President/CEO,36 Crosby Dr,Suite 101,Bedford,MA,01730,0,"36 Crosby Dr Suite 101, Bedford, MA 01730"
Medical Device,,OKAY INDUSTRIES INC,,,,200 Ellis St,PO Box 2470,New Britain,CT,06050,165,"200 Ellis St PO Box 2470, New Britain, CT 06050"
Medical Device,,OMNI COMPONENTS CORP,William,Holka,President,46 River Rd,,Hudson,NH,03051,74,"46 River Rd, Hudson, NH 03051"
Medical Device,,OMNI CONTROL TECHNOLOGY,William,Rodny,VP Business Dev't,1 Main St,,Whitinsville,MA,01588,50,"1 Main St, Whitinsville, MA 01588"
Drug Development,MA Bio Member,OMNIGENE BIOPRODUCTS INC,Janice,Pero,President/CEO,25K Olympia Ave,Suite 400,Woburn,MA,01801,1,"25K Olympia Ave Suite 400, Woburn, MA 01801"
Medical Device,,OMNIGUIDE INC,Scott,Flora,President/CEO,One Kendall Sq,Suite B1301,Cambridge,MA,02139,60,"One Kendall Sq Suite B1301, Cambridge, MA 02139"
Human Diagnostic Development,MA Bio Member,ON-Q-ITY,Michael,Stocum,President/CEO,610 Lincoln St,3rd Floor,Waltham,MA,02451,28,"610 Lincoln St 3rd Floor, Waltham, MA 02451"
Drug Development,,ONCOPEP INC,Doris,Peterkin,CEO,520 Boston St,,N Andover,MA,,0,"520 Boston St, N Andover, MA "
Medical Device,,ONCOTREE DTS INC,Raul,Brauner,CEO,16 Lantern Rd,,Framingham,MA,01702,0,"16 Lantern Rd, Framingham, MA 01702"
Drug Development,MA Bio Member,OPK BIOTECH LLC,Gerald,Kowalski,CEO,11 Hurley St,,Cambridge,MA,02141,100,"11 Hurley St, Cambridge, MA 02141"
Agricultural/Industrial Biotechnology,,OPTEK-DANULAT,Joe,Ferrelli,Sales,76 Powers Rd,,Sudbury,MA,01776,30,"76 Powers Rd, Sudbury, MA 01776"
Human Diagnostic Development,,OPTHERION INC,Colin,Foster,President/CEO,The Maritime Center,555 Long Wharf Dr,New Haven,CT,06511,21,"The Maritime Center 555 Long Wharf Dr, New Haven, CT 06511"
Medical Device,,OPTIKOS CORP,Roger,Kirschner,Sales/Marketing Director,107 Audubon Rd,Bldg 3,Wakefield,MA,01880,30,"107 Audubon Rd Bldg 3, Wakefield, MA 01880"
Medical Device,,OPTIM LLC,Thomas,Root,President,64 Technology Park Rd,,Sturbridge,MA,01566,60,"64 Technology Park Rd, Sturbridge, MA 01566"
Medical Device,,OPTIMUM TECHNOLOGIES INC,Randal,Chinnock,President/CEO,68 West St,,Southbridge,MA,01550,40,"68 West St, Southbridge, MA 01550"
Research Products & Instrumentation,,OPTOMAX,Mike,Huns,Owner,P O Box 840,,Hollis,NH,03049,4,"P O Box 840, Hollis, NH 03049"
Medical Device,,OPTOS INC,Leslie,Amodei,Sr Director Marketing,67 Forest St,,Marlborough,MA,01752,100,"67 Forest St, Marlborough, MA 01752"
Drug Development,,ORBAN BIOTECH,Tihamer,Orban,CEO,674 Aspinwall St,,Brookine,MA,02142,2,"674 Aspinwall St, Brookine, MA 02142"
Medical Device,,ORBITAL THERAPY LLC,Jason,Koshnitsky,CEO,8 Alfred Cir,,Bedford,MA,01730,7,"8 Alfred Cir, Bedford, MA 01730"
Contract Research & Manufacturing,MA Bio Member,ORGANIX INC,Peter,Meltzer,President/CEO,240 Salem St,,Woburn,MA,01801,34,"240 Salem St, Woburn, MA 01801"
Contract Research & Manufacturing,MA Bio Member,ORGANOGENESIS INC,Geoff,MacKay,President/CEO,150 Dan Rd,,Canton,MA,02021,325,"150 Dan Rd, Canton, MA 02021"
Medical Device,,ORIDION CAPNOGRAPHY INC,Gerald,Feldman,President,160 Gould St,#205,Needham,MA,02494,19,"160 Gould St #205, Needham, MA 02494"
Medical Device,,ORIGIN PRODUCT DEVELOPMENT INC,Michael,Cattafe,President,2 Clock Tower Pl,Suite 355,Maynard,MA,01754,0,"2 Clock Tower Pl Suite 355, Maynard, MA 01754"
Medical Device,,ORTHOTIC CONCEPTS INC,Warren,Patten,President,320 Libbey Industrial Pkwy,Suite 3A,Weymouth,MA,02189,1,"320 Libbey Industrial Pkwy Suite 3A, Weymouth, MA 02189"
Contract Research & Manufacturing,,"OUTCOME, A QUINTILES CO",Renee,Hurley,Director Marketing,201 Broadway,,Cambridge,MA,02139,0,"201 Broadway, Cambridge, MA 02139"
Human Diagnostic Development,MA Bio Member,OVASCIENCE,Michelle,Dipp,CEO/Co-Founder,The Prudential Tower,800 Boylston St  Suite 1555,Boston,MA,02199,0,"The Prudential Tower 800 Boylston St  Suite 1555, Boston, MA 02199"
Medical Device,,OVATECH LLC,John,Williams,President/CEO,2000 Commonwealth Ave,,Auburndale,MA,02466,2,"2000 Commonwealth Ave, Auburndale, MA 02466"
Contract Research & Manufacturing,MA Bio Member,OVERBROOK SCIENTIFIC INC,Ted,Palashis,President,11 Fairmount Ave,,Boston,MA,02136,25,"11 Fairmount Ave, Boston, MA 02136"
Drug Development,,OXIGENE INC,Peter,Langecker,CEO,300 Bear Hill Rd,,Waltham,MA,02451,,"300 Bear Hill Rd, Waltham, MA 02451"
Drug Development,,PALOMA PHARMACEUTICALS INC,David,Sherris,CEO,37 Neillian Crescent,,Jamaica Plain,MA,02130,0,"37 Neillian Crescent, Jamaica Plain, MA 02130"
Medical Device,,PARAGONIX TECHNOLOGIES INC,Lisa,Maier,President,Two Canal Park,5th Floor,Cambridge,MA,02141,0,"Two Canal Park 5th Floor, Cambridge, MA 02141"
Drug Development,MA Bio Member,PARATEK PHARMACEUTICALS INC,Walter,Gibert,Chairman,75 Kneeland St,,Boston,MA,02111,38,"75 Kneeland St, Boston, MA 02111"
Medical Device,,PARATRONIX PARYLENE CONFORMAL COATINGS,Larry,Habershaw,President,129 Bank St,,Attleboro,MA,02703,19,"129 Bank St, Attleboro, MA 02703"
Contract Research & Manufacturing,MA Bio Member,PAREXEL INTERNATIONAL,Josef,von Rickenbach,Chairman/CEO,195 West St,,Waltham,MA,02451,1400,"195 West St, Waltham, MA 02451"
Medical Device,,PARKER MEDICAL INC,William,Holland,President,137 New Milford Rd E,,Bridgewater,CT,06752,40,"137 New Milford Rd E, Bridgewater, CT 06752"
Research Products & Instrumentation,,PATHOGENETIX,John,Canepa,CEO,12 Gill St,Suite 3150,Woburn,MA,01801,0,"12 Gill St Suite 3150, Woburn, MA 01801"
Research Products & Instrumentation,,PATHOGENICA,Yemi,Adesokan,Co-Founcer/CEO,27 Drydock Ave,2nd Floor,Boston,MA,02210,0,"27 Drydock Ave 2nd Floor, Boston, MA 02210"
Contract Research & Manufacturing,MA Bio Member,PCI,Edward,Price,President,9 Opportunity Way,,Newburyport,MA,01950,95,"9 Opportunity Way, Newburyport, MA 01950"
Medical Device,,PELHAM PLASTICS INC,,,,42 Dick Tracy Dr,P O Box 997,Pelham,NH,03076,0,"42 Dick Tracy Dr P O Box 997, Pelham, NH 03076"
Research Products & Instrumentation,,PENTRON CLINICAL TECHNOLOGIES LLC,,,,53 N Plains Industrial Rd,,Wallingford,CT,06492,200,"53 N Plains Industrial Rd, Wallingford, CT 06492"
Medical Device,,PEP MICROPEP,John,Harker,President,One Catamore Blvd,,E Providence,RI,02914,64,"One Catamore Blvd, E Providence, RI 02914"
Medical Device,,PERFECT THIRD INC,Greg,Nemeth,Co-Founder/President,,,New Haven,CT,,0,", New Haven, CT "
Medical Device,,PERFUZIA MEDICAL INC,Sagi,Brink-Danan,Co-founder/CEO,44 Sargent Ave,,Providence,RI,02906,0,"44 Sargent Ave, Providence, RI 02906"
Research Products & Instrumentation,,PERKINELMER INC,Robert,Friel,Chairman/CEO,940 Winter St,,Waltham,MA,02451,350,"940 Winter St, Waltham, MA 02451"
Drug Development,MA Bio Member,PERMEON BIOLOGICS INC,Alex,Franzusoff,Director/President,One Memorial Dr,7th Floor,Cambridge,MA,02142,0,"One Memorial Dr 7th Floor, Cambridge, MA 02142"
Drug Development,,PERVASIS THERAPEUTICS INC,Frederic,Chereau,CEO,1 Kendall Sq,Suite B6101,Cambridge,MA,02139,10,"1 Kendall Sq Suite B6101, Cambridge, MA 02139"
Medical Device,,PEXCO INC,,,,764 South Athol Rd,PO Box 659,Athol,MA,01331,0,"764 South Athol Rd PO Box 659, Athol, MA 01331"
Drug Development,MA Bio Member,PFIZER INC,Ian,Read,President/CEO,558 Eastern Point Rd,,Groton,CT,06340,4000,"558 Eastern Point Rd, Groton, CT 06340"
Research Products & Instrumentation,,PHARMACAL RESEARCH LABORATORIES INC,Jerry,Shapiro,CFO,33 Great Hill Rd,PO Box 369,Naugatuck,CT,06770,22,"33 Great Hill Rd PO Box 369, Naugatuck, CT 06770"
Contract Research & Manufacturing,MA Bio Member,PHARMALUCENCE INC,Glenn,Alto,CEO,29 Dunham Rd,,Billerica,MA,01821,95,"29 Dunham Rd, Billerica, MA 01821"
Medical Device,,PHASE 2 MEDICAL MANUFACTURING INC,Mark,Hefford,Sales/Marketing Manager,88 Airport Dr,,Rochester,NH,03867,100,"88 Airport Dr, Rochester, NH 03867"
Medical Device,,PHASE ONE MEDICAL LLC,Don,Woods,Business Dev't,35 Pond Park Rd,,Hingham,MA,02043,0,"35 Pond Park Rd, Hingham, MA 02043"
Research Products & Instrumentation,,PHASEX CORP,Val,Krukonis,President,360 Merrimack St,,Lawrence,MA,01843,7,"360 Merrimack St, Lawrence, MA 01843"
Medical Device,,PHILIPS HEALTHCARE,Steve,Rusckowski,CEO - Philips Healthcare,3000 Minuteman Rd,,Andover,MA,01810,3000,"3000 Minuteman Rd, Andover, MA 01810"
Research Products & Instrumentation,,PHOENIX CONTROLS,Diane,Perkins,Marketing Communication Specialist,75 Discovery Way,,Acton,MA,01720,100,"75 Discovery Way, Acton, MA 01720"
Agricultural/Industrial Biotechnology,,PHOENIX SCIENCE AND TECHNOLOGY INC,,,,27 Industrial Ave,,Chelmsford,MA,01824,0,"27 Industrial Ave, Chelmsford, MA 01824"
Medical Device,,PHOENIX WIRE INC,,,,31 Tracy Rd,P O Box 186,S Hero,VT,05486,8,"31 Tracy Rd P O Box 186, S Hero, VT 05486"
BioInformatics,,PHT CORP,Philip,Lee,President/CEO,500 Rutherford Ave,,Boston,MA,02129,195,"500 Rutherford Ave, Boston, MA 02129"
Contract Research & Manufacturing,MA Bio Member,PHYLONIX PHARMACEUTICALS,Patricia,McGrath,President/CEO,100 Inman St,Suite 300,Cambridge,MA,02139,20,"100 Inman St Suite 300, Cambridge, MA 02139"
Contract Research & Manufacturing,,PHYSICAL SCIENCES INC,B David,Green,President/CEO,20 New England  Business Ctr,,Andover,MA,01810,120,"20 New England  Business Ctr, Andover, MA 01810"
Medical Device,,PHYSIK INSTRUMENTE LP (PI USA),,,,16 Albert St,,Auburn,MA,01501,0,"16 Albert St, Auburn, MA 01501"
Contract Research & Manufacturing,MA Bio Member,PION INC,Cynthia,Berger,Vice President,10 Cook St,,Billerica,MA,01821,20,"10 Cook St, Billerica, MA 01821"
Medical Device,,PIONEER SURGICAL ORTHOBIOLOGICS,Jeff,Millin,President/CEO,150-A New Boston St,,Woburn,MA,01801,5,"150-A New Boston St, Woburn, MA 01801"
Non-profit Research Institution,MA Bio Member,PIONEER VALLEY LIFE SCIENCES INSTITUTE,Paul,Friedmann,Executive Director,3601 Main St,,Springfield,MA,01199,40,"3601 Main St, Springfield, MA 01199"
Research Products & Instrumentation,,PIONEER-DIETECS CORP,Jerold,Larson,President,73 Woodrock Rd,,Weymouth,MA,02189,0,"73 Woodrock Rd, Weymouth, MA 02189"
Contract Research & Manufacturing,,PJ NOYES CO INC,David,Hill,President/CEO,89 Bridge St,,Lancaster,NH,03584,100,"89 Bridge St, Lancaster, NH 03584"
Research Products & Instrumentation,,PLASTIC STERILIZING TRAY CORP,Sandra,Christensen,President,1520 East St,,Pittsfield,MA,01201,6,"1520 East St, Pittsfield, MA 01201"
Research Products & Instrumentation,,PLATE CENTRIC,Rich,Tula,President/CEO,245 Constitution Dr,,Taunton,MA,02780,20,"245 Constitution Dr, Taunton, MA 02780"
Medical Device,,PLC MEDICAL SYSTEMS INC,Mark,Tauscher,President/CEO,10 Forge Park,,Franklin,MA,02038,35,"10 Forge Park, Franklin, MA 02038"
Medical Device,,PLUROMED INC,Jean-Marie,Vogel,President/CEO,175 F New Boston St,,Woburn,MA,01801,16,"175 F New Boston St, Woburn, MA 01801"
Research Products & Instrumentation,,POLESTAR TECHNOLOGIES INC,Karen,Carpenter,Founder/CEO,220 Reservoir St,#3,Needham,MA,02494,8,"220 Reservoir St #3, Needham, MA 02494"
Agricultural/Industrial Biotechnology,,POLNOX CORP,Ashok,Cholli,Founder,225 Stedman St,#23,Lowell,MA,01851,,"225 Stedman St #23, Lowell, MA 01851"
Medical Device,,POLYMER  CORP,Caren,Jenkins,Marketing Manager,180 Pleasant St,,Rockland,MA,02370,80,"180 Pleasant St, Rockland, MA 02370"
Drug Development,,PONDERA PHARMACEUTICALS,William,Crain,President/CEO/Counsel,209 Chadsey Road,,Pownal,ME,04069,0,"209 Chadsey Road, Pownal, ME 04069"
Medical Device,,POWER ACCESS CORP,Nils,Sellman,President,PO Box 1050,170 Main St,New Hartford,CT,06057,7,"PO Box 1050 170 Main St, New Hartford, CT 06057"
BioInformatics,,PRAXEON,Dennis,Underwood,CEO,28 John A Andrew St,,Jamaica Plain,MA,02130,7,"28 John A Andrew St, Jamaica Plain, MA 02130"
Human Diagnostic Development,,PRECIPIO DIAGNOSTICS,Ilan,Danieli,CEO,4 Science Park,3rd Floor,New Haven,CT,06511,0,"4 Science Park 3rd Floor, New Haven, CT 06511"
Medical Device,,PRECISE-PAK INC,Allan,Schwinn,President,30 Centre Rd,Unit 4,Somersworth,NH,03878,25,"30 Centre Rd Unit 4, Somersworth, NH 03878"
BioInformatics,,PRECISION BIOASSAY INC,David,Lansky,President,431 Pine St,Suite 110,Burlington,VT,05401,3,"431 Pine St Suite 110, Burlington, VT 05401"
Medical Device,,PRECISION COATING CO INC,Robert,DeAngelis,President,58 McDonald St,,Dedham,MA,02026,80,"58 McDonald St, Dedham, MA 02026"
Medical Device,,PRECISION OPTICS CORP,Chuck,Gerlowski,Business Dev't Director,22 E Broadway,,Gardner,MA,01440,30,"22 E Broadway, Gardner, MA 01440"
Medical Device,,PRECISION SYSTEMS INC,Charles,Bell,Sales Manager,16 Tech Cir,,Natick,MA,01760,25,"16 Tech Cir, Natick, MA 01760"
Medical Device,,PRECISION TOOL & DIE,Mike,Driscoll,Operations Manager Tool Room,22 Manchester Rd,,Derry,NH,03038,0,"22 Manchester Rd, Derry, NH 03038"
Drug Development,,PRECLINICAL &  REGULATORY CONSULTING,Mary,Sherman,Principal,67 Monadnock Dr,,Westford,MA,01886,1,"67 Monadnock Dr, Westford, MA 01886"
Human Diagnostic Development,MA Bio Member,PREDICTIVE BIOSCIENCES,Peter,Klemm,President/CEO,128 Spring St,B Annex 400 Level,Lexington,MA,02421,23,"128 Spring St B Annex 400 Level, Lexington, MA 02421"
Research Products & Instrumentation,MA Bio Member,PRESSURE BIOSCIENCES INC,Richard,Schumacher,CEO/President,14 Norfolk Ave,,S Easton,MA,02375,6,"14 Norfolk Ave, S Easton, MA 02375"
Research Products & Instrumentation,MA Bio Member,PRIMERADX,Matthew,McManus,President/CEO,171 Forbes Blvd,Suite 2000,Mansfield,MA,02048,40,"171 Forbes Blvd Suite 2000, Mansfield, MA 02048"
Medical Device,,PRIMROSE MEDICAL INC,Fletcher,Longley,President,478 High Plain St,,Walpole,MA,02081,10,"478 High Plain St, Walpole, MA 02081"
Research Products & Instrumentation,,PRIOR SCIENTIFIC INC,Tom,Freda,President,80 Reservoir Park Dr,,Rockland,MA,02370,30,"80 Reservoir Park Dr, Rockland, MA 02370"
Agricultural/Industrial Biotechnology,,PRO-ACT BIOTECH,Bill,Donohue,COO,P O Box 345,,Warren,RI,02885,10,"P O Box 345, Warren, RI 02885"
Medical Device,,PRODUCT RESOURCES INC,John,Erickson,President/CEO,4 Mulliken Way,,Newburyport,MA,01950,40,"4 Mulliken Way, Newburyport, MA 01950"
Agricultural/Industrial Biotechnology,,PRODYNE CORP,Steven,Africk,President/CEO,30 Fenwick Rd,,Newton,MA,02468,2,"30 Fenwick Rd, Newton, MA 02468"
Human Diagnostic Development,,PROGENIKA INC,Antonio,Martinez,Co-CEO,200 Rivers Edge Dr,1st floor,Medford,MA,02155,6,"200 Rivers Edge Dr 1st floor, Medford, MA 02155"
Contract Research & Manufacturing,MA Bio Member,PROMEDDX LLC,Jim,Boushell,CEO,10 Commerce Way,,Norton,MA,02766,15,"10 Commerce Way, Norton, MA 02766"
Medical Device,,"PROMETHEUS GROUP, THE",Richard,Poore,Principal,One Washington St,Suite 303,Dover,NH,03820,10,"One Washington St Suite 303, Dover, NH 03820"
Medical Device,,PROMOLD PLASTICS,N Richard,Puglielli,President,91 Main St,,Portland,CT,06480,0,"91 Main St, Portland, CT 06480"
Drug Development,,PROTEIN SCIENCES CORP,Manon,Cox,CEO,1000 Research Pkwy,,Meriden,CT,06450,37,"1000 Research Pkwy, Meriden, CT 06450"
Drug Development,MA Bio Member,PROTEOSTASIS THERAPEUTICS INC,Mark,Enyedy,CEO,200 Technology Sq,Suite 402,Cambridge,MA,02139,40,"200 Technology Sq Suite 402, Cambridge, MA 02139"
Drug Development,,PROTHELIA INC,Rich,Cloud,CEO,30 Haven St,,Milford,MA,01757,0,"30 Haven St, Milford, MA 01757"
Drug Development,,PROTHERA BIOLOGICS LLC,Yow-Pin,Lim,President/CSO,551 Warren Ave,,E Providence,RI,02914,0,"551 Warren Ave, E Providence, RI 02914"
Medical Device,,PROTOPEUTICS INC,Evie,Hawley,President,38 Mulberry St,,Leeds,MA,01053,1,"38 Mulberry St, Leeds, MA 01053"
Drug Development,MA Bio Member,PROVASCULON INC,Anthony,Sandrasagra,CSO,161 First St,Suite 1A,Cambridge,MA,02142,5,"161 First St Suite 1A, Cambridge, MA 02142"
Medical Device,,PROVEN PROCESS MEDICAL DEVICES INC,Kenneth,Fine,President/Co-Founder,110 Forbes Blvd,,Mansfield,MA,02048,100,"110 Forbes Blvd, Mansfield, MA 02048"
Drug Development,,PROVENANCE BIOPHARMACEUTICALS CORP,Stephen,Gillies,CEO,1 Garfield Cir,,Burlington,MA,01803,6,"1 Garfield Cir, Burlington, MA 01803"
Medical Device,,PROXY MANUFACTURING INC,Shawn,Foy,President,55 Chase St,,Methuen,MA,01844,35,"55 Chase St, Methuen, MA 01844"
Medical Device,MA Bio Member,PSIVIDA CORP,Paul,Ashton,President/CEO,400 Pleasant St,,Watertown,MA,02472,25,"400 Pleasant St, Watertown, MA 02472"
Research Products & Instrumentation,,PSYCHEMEDICS CORP,Raymond,Kubacki Jr,President/CEO,125 Nagog Park,,Acton,MA,01720,88,"125 Nagog Park, Acton, MA 01720"
Drug Development,MA Bio Member,PULMATRIX INC,Robert,Connolly,CEO,99 Hayden Ave,Suite 390,Lexington,MA,02421,,"99 Hayden Ave Suite 390, Lexington, MA 02421"
Drug Development,,PURDUE PHARMA LP,John,Stewart,President/CEO,1 Stamford Forum,201 Tressor Blvd,Stamford,CT,06901,0,"1 Stamford Forum 201 Tressor Blvd, Stamford, CT 06901"
Medical Device,,PUTNEY INC,Jean,Hoffman,Chairman/President/CEO,400 Congress St,Suite 200,Portland,ME,04101,13,"400 Congress St Suite 200, Portland, ME 04101"
Drug Development,,QTEROS,Mick,Sawka,CEO,100 Campus Dr,6th Floor,Marlborough,MA,01752,45,"100 Campus Dr 6th Floor, Marlborough, MA 01752"
Medical Device,,QUALITY INNOVATIONS LLC,Bruce,Witte,President,14 Autumn St,,Windham,NH,03087,1,"14 Autumn St, Windham, NH 03087"
BioInformatics,,QUALITYMETRIC INC,Gus,Gardner,President/COO,24 Albion Rd,Bldg 400,Lincoln,RI,02865,,"24 Albion Rd Bldg 400, Lincoln, RI 02865"
Drug Development,MA Bio Member,QUANTERIX CORP,Martin,Madaus,Chairman/CEO,1 Kendall Sq,Suite B14201,Cambridge,MA,02139,29,"1 Kendall Sq Suite B14201, Cambridge, MA 02139"
Contract Research & Manufacturing,MA Bio Member,QUANTICATE,Daniel,Chapple,Commercial VP,101 Main St,Suite 1720,Cambridge,MA,02142,12,"101 Main St Suite 1720, Cambridge, MA 02142"
BioInformatics,,QUERALT INC,Michael,Queralt,CEO,250 State St,,N Haven,CT,06473,7,"250 State St, N Haven, CT 06473"
Contract Research & Manufacturing,,QUICK-MED TECHNOLOGIES INC,Jerry,Olderman,VP R&D,17 Pickman Dr,,Bedford,MA,01730,2,"17 Pickman Dr, Bedford, MA 01730"
Drug Development,MA Bio Member,RA PHARMACEUTICALS,Douglas,Treco,President/CEO,One Kendall Sq,Suite B14301,Cambridge,MA,02139,16,"One Kendall Sq Suite B14301, Cambridge, MA 02139"
BioInformatics,,RADIANT SAGE LLC,Ven,Thangaraj,CEO/President,464 Common St,Suite 133,Belmont,MA,02478,0,"464 Common St Suite 133, Belmont, MA 02478"
Medical Device,,RADIATION MONITORING DEVICES INC,Steve,Rugary,President,44 Hunt St,,Watertown,MA,02472,80,"44 Hunt St, Watertown, MA 02472"
Drug Development,MA Bio Member,RADIUS HEALTH INC,Michael,Wyzga,CEO,201 Broadway,6th Floor,Cambridge,MA,02139,11,"201 Broadway 6th Floor, Cambridge, MA 02139"
Medical Device,,RADIUS MEDICAL TECHNOLOGIES INC,Rich,DeMello,Vice President,15 Craig Rd,,Acton,MA,01720,0,"15 Craig Rd, Acton, MA 01720"
Medical Device,,RADIUS PRODUCT DEVELOPMENT,Keith,Kiernan,Global Director Business Dev't,200 Union St,,Clinton,MA,01510,30,"200 Union St, Clinton, MA 01510"
Research Products & Instrumentation,MA Bio Member,RAINDANCE TECHNOLOGIES INC,S Roopom,Banerjee,President/CEO,44 Hartwell Ave,,Lexington,MA,02421,,"44 Hartwell Ave, Lexington, MA 02421"
Agricultural/Industrial Biotechnology,,RALPH BRILL ASSOCIATES,Ralph,Brill,President,Box 786,,N Adams,MA,01247,7,"Box 786, N Adams, MA 01247"
Medical Device,,RANFAC CORP,Bob,Adler,CEO,30 Doherty Ave,,Avon,MA,02322,50,"30 Doherty Ave, Avon, MA 02322"
Research Products & Instrumentation,MA Bio Member,RAPID MICRO BIOSYSTEMS,Steve,Delity,President/CEO,One Oak Park Dr,,Bedford,MA,01730,50,"One Oak Park Dr, Bedford, MA 01730"
Medical Device,,RAZEL SCIENTIFIC INSTRUMENTS INC,Steve,Jarvis,President,PO Box 111,,St Albans,VT,05478,10,"PO Box 111, St Albans, VT 05478"
Medical Device,,REFLECTANCE MEDICAL INC,Richard,Ganz,CEO,116 Flanders Rd,Suite 1000,Westborough,MA,01581,10,"116 Flanders Rd Suite 1000, Westborough, MA 01581"
Contract Research & Manufacturing,,REGENOCELL THERAPEUTICS INC,James,Mongiardo,CEO/Director,2 Briar Lane,,Natick,MA,01760,1,"2 Briar Lane, Natick, MA 01760"
BioInformatics,,REGULATORY SCIENCE INC,Leona,Saunders,Head Compliance Training,322 Warren St,,Roxbury,MA,02119,5,"322 Warren St, Roxbury, MA 02119"
Medical Device,,REHAB SEATING SYSTEMS INC,Harold,Sharff,President,8 Alton Pl,Suite 3,Brookline,MA,02446,4,"8 Alton Pl Suite 3, Brookline, MA 02446"
Contract Research & Manufacturing,,REMTEC INC,Nahum,Rapoport,President/CEO,100 Morse St,,Norwood,MA,02062,45,"100 Morse St, Norwood, MA 02062"
Medical Device,,RENCO CORP,Richard,Renehan,CEO,5 Beaver Dam Rd,P O Box 412,Manchester,MA,01944,6,"5 Beaver Dam Rd P O Box 412, Manchester, MA 01944"
Drug Development,MA Bio Member,REPLIGEN CORP,Walter,Herlihy,CEO/President,41 Seyon St,Suite 100,Waltham,MA,02453,70,"41 Seyon St Suite 100, Waltham, MA 02453"
Drug Development,,REPLIKINS LTD,Samuel,Bogoch,Chairman,38 The Fenway,,Boston,MA,02215,,"38 The Fenway, Boston, MA 02215"
Human Diagnostic Development,,REPROSOURCE INC,Benjamin,Leader,CEO,300 TradeCenter,Suite 6540,Woburn,MA,01801,40,"300 TradeCenter Suite 6540, Woburn, MA 01801"
Drug Development,,RESOLVYX PHARMACEUTICALS INC,James,Nichols,President/CEO,25 First St,,Cambridge,MA,02141,26,"25 First St, Cambridge, MA 02141"
Medical Device,,RESONANCE RESEARCH INC,,,,5 Fortune Dr,,Billerica,MA,01821,0,"5 Fortune Dr, Billerica, MA 01821"
Medical Device,,RESONETICS INC,Cliff,Gabay,CEO/President,4 Bud Way,,Nashua,NH,03063,125,"4 Bud Way, Nashua, NH 03063"
Medical Device,,RESPIRATORY DELIVERY SYSTEMS INC,Walter,Makiej Jr,President/CEO,6 Courthouse La,Suite 8,Chelmsford,MA,01824,1,"6 Courthouse La Suite 8, Chelmsford, MA 01824"
Medical Device,,RESPIRATORY MOTION INC,Jenny,Freeman,Co-Founder/CEO,305 Second Ave,,Waltham,MA,02451,0,"305 Second Ave, Waltham, MA 02451"
Contract Research & Manufacturing,,RESTECH PLASTIC MOLDING,Richard,McKenney,VP Business Dev't,34 Tower St,,Hudson,MA,01749,100,"34 Tower St, Hudson, MA 01749"
Research Products & Instrumentation,MA Bio Member,RESURFX LLC,Suresh,Gopalan,"Co-founder, CEO",12220 Main Campus Dr,,Lexington,MA,02421,0,"12220 Main Campus Dr, Lexington, MA 02421"
Drug Development,MA Bio Member,RHYTHM,Keith,Gottesdiener,CEO,855 Boylston St,11th Floor,Boston,MA,02116,0,"855 Boylston St 11th Floor, Boston, MA 02116"
Medical Device,,RHYTHMIA MEDICAL INC,Doron,Harlev,Co-CEO/Founder,111 S Bedford St,Suite 205,Burlington,MA,01803,,"111 S Bedford St Suite 205, Burlington, MA 01803"
Drug Development,MA Bio Member,RIB-X PHARMACEUTICALS INC,Mark,Leuchtenberger,President/CEO,300 George St,Suite 301,New Haven,CT,06511,41,"300 George St Suite 301, New Haven, CT 06511"
Medical Device,,RIGAKU AMERICA,Dave,Mahoney,COO,7A Raymond Ave,Suite 4A,Salem,NH,03079,12,"7A Raymond Ave Suite 4A, Salem, NH 03079"
Medical Device,,ROBERT DEFELICE & ASSOCIATES,Robert,DeFelice,Principal,85 Constitution Ln,Suite 200E,Danvers,MA,01923,5,"85 Constitution Ln Suite 200E, Danvers, MA 01923"
Medical Device,,ROUSH LIFE SCIENCES,Dean,Massab,CEO,8E Industrial Way,Suite 1,Salem,NH,03079,0,"8E Industrial Way Suite 1, Salem, NH 03079"
Research Products & Instrumentation,,ROWLEY BIOCHEMICAL INSTITUTE INC,,,,10 Electronics Ave,,Danvers,MA,01923,14,"10 Electronics Ave, Danvers, MA 01923"
Drug Development,MA Bio Member,RXI PHARMACEUTICALS CORP,Mark,Ahn,President/CEO,60 Prescott St,,Worcester,MA,01605,32,"60 Prescott St, Worcester, MA 01605"
Medical Device,,RYNEL INC,James,Detert,Site Director,11 Twin Rivers Dr,,Wiscasset,ME,04578,70,"11 Twin Rivers Dr, Wiscasset, ME 04578"
Research Products & Instrumentation,MA Bio Member,SAGE SCIENCE INC,Gary Paul,Magnant,CEO,500 Cummings Center,Suite 3150,Beverly,MA,01915,17,"500 Cummings Center Suite 3150, Beverly, MA 01915"
Drug Development,,SAGE THERAPEUTICS,Kevin,Starr,CEO,29 Newbury St,,Boston,MA,02116,0,"29 Newbury St, Boston, MA 02116"
Research Products & Instrumentation,,SAINT-GOBAIN PERFORMANCE PLASTICS,,,,700 Joseph E Warner Blvd,,Taunton,MA,02780,60,"700 Joseph E Warner Blvd, Taunton, MA 02780"
Medical Device,,SALIENT SURGICAL TECHNOLOGIES INC,Joseph,Army,CEO,180 International Dr,,Portsmouth,NH,03801,100,"180 International Dr, Portsmouth, NH 03801"
Research Products & Instrumentation,,SAMPLE6 TECHNOLOGIES INC,Micah,Rosenbloom,CEO,27 Drydock Ave,,Boston,MA,02210,12,"27 Drydock Ave, Boston, MA 02210"
Drug Development,MA Bio Member,SANOFI ONCOLOGY,,,,300 Third St,,Cambridge,MA,02142,300,"300 Third St, Cambridge, MA 02142"
Drug Development,MA Bio Member,SANOFI PASTEUR BIOLOGICALS,Jeffrey,Almond,VP Global Discovery Research/External R&D,38 Sidney St,,Cambridge,MA,02139,180,"38 Sidney St, Cambridge, MA 02139"
Drug Development,MA Bio Member,SANTHERA PHARMACEUTICALS (USA),William,Richmond,General Manager,40 Warren St,3rd Floor,Charlestown,MA,02129,2,"40 Warren St 3rd Floor, Charlestown, MA 02129"
Drug Development,MA Bio Member,SATORI PHARMACEUTICALS INC,Jeffrey,Ives,CEO,281 Albany St,,Cambridge,MA,02139,10,"281 Albany St, Cambridge, MA 02139"
Non-profit Research Institution,,"SCHEPENS EYE RESEARCH INSTITUTE INC, THE",Patricia,D'Amore,Research Co-Director,20 Staniford St,,Boston,MA,02114,200,"20 Staniford St, Boston, MA 02114"
Medical Device,,SCHUERCH CORP,Peter,Schuerch,President,50 Messina Dr,,Braintree,MA,02184,14,"50 Messina Dr, Braintree, MA 02184"
Drug Development,MA Bio Member,SCIDOSE LLC,Michael,Beaulieu,CFO,196 N Pleasant St,Suite 16,Amherst,MA,01002,3,"196 N Pleasant St Suite 16, Amherst, MA 01002"
Medical Device,,SCIESSENT LLC,Paul,Ford,CEO,60 Audubon Rd,,Wakefield,MA,01880,0,"60 Audubon Rd, Wakefield, MA 01880"
Drug Development,MA Bio Member,SCIFLUOR LIFE SCIENCES LLC,Arthur,Hiller,CEO,33 Arch St,Suite 3201,Boston,MA,02110,0,"33 Arch St Suite 3201, Boston, MA 02110"
Contract Research & Manufacturing,MA Bio Member,SCIVAX USA INC,Hiromi,Miura,President,100 TradeCenter,Suite G700,Woburn,MA,01801,0,"100 TradeCenter Suite G700, Woburn, MA 01801"
Drug Development,,SCOT-TUSSIN PHARMACAL CO INC,Salvatore,Scotti,CEO,32 W Hamden Rd,PO Box 8217,Cranston,RI,02920,,"32 W Hamden Rd PO Box 8217, Cranston, RI 02920"
Medical Device,,SEABOARD METAL FINISHING CO INC,Steve,Tarantino,President,50 Fresh Meadow Rd,,W Haven,CT,06516,45,"50 Fresh Meadow Rd, W Haven, CT 06516"
Medical Device,,SEABROOK INTERNATIONAL LLC,,,,15 Woodworkers Way,,Seabrook,NH,03874,,"15 Woodworkers Way, Seabrook, NH 03874"
BioInformatics,,SEACOAST LABORATORY DATA SYSTEMS INC,Suzanne,Ray,Account Rep,195 New Hampshire Ave,Suite 140,Portsmouth,NH,03801,25,"195 New Hampshire Ave Suite 140, Portsmouth, NH 03801"
Research Products & Instrumentation,MA Bio Member,SEAHORSE BIOSCIENCE,Jay,Teich,CEO,16 Esquire Rd,,Billerica,MA,01810,150,"16 Esquire Rd, Billerica, MA 01810"
Drug Development,MA Bio Member,SEASIDE THERAPEUTICS INC,Randall,Carpenter,Co-Founder/President/CEO,840 Memorial Dr,5th Floor,Cambridge,MA,02139,32,"840 Memorial Dr 5th Floor, Cambridge, MA 02139"
Research Products & Instrumentation,,SEATECH BIOPRODUCTS CORP,James,Hughes,CEO,159 Memorial Dr,#C,Shrewsbury,MA,01545,0,"159 Memorial Dr #C, Shrewsbury, MA 01545"
Contract Research & Manufacturing,MA Bio Member,SEEDING LABS,Nina,Dudnik,CEO,281 Summer St,5th fl,Boston,MA,02210,3,"281 Summer St 5th fl, Boston, MA 02210"
Drug Development,MA Bio Member,SELECTA BIOSCIENCES INC,Werner,Cautreels,CEO,480 Arsenal St,,Watertown,MA,02472,0,"480 Arsenal St, Watertown, MA 02472"
Drug Development,,SELECTX PHARMACEUTICALS INC,Michael,Chaparian,CEO,607 Boylston St LL,,Boston,MA,02116,20,"607 Boylston St LL, Boston, MA 02116"
Drug Development,MA Bio Member,SELVENTA,Jim,Matheson,Chairman,One Alewife Center,,Cambridge,MA,02140,31,"One Alewife Center, Cambridge, MA 02140"
Agricultural/Industrial Biotechnology,,SEMBIOSYS GENETICS INC,Rick,Pierce,President US/Int'l Operations,Suite #43,3 Concord Ave,Cambridge,MA,02138,1,"Suite #43 3 Concord Ave, Cambridge, MA 02138"
Research Products & Instrumentation,,SEMIPROBE INC,Denis,Place,President/CEO,276 E Allen St,,Winooski,VT,05404,11,"276 E Allen St, Winooski, VT 05404"
Medical Device,MA Bio Member,SEMPRUS BIOSCIENCES CORP,David,Lucchino,CEO,One Kendall Sq,Building 1400W 1st floor,Cambridge,MA,02139,32,"One Kendall Sq Building 1400W 1st floor, Cambridge, MA 02139"
Contract Research & Manufacturing,,SENOPSYS LLC,Jeffrey,Worthington,President,800 W Cummings Park,Suite 1500,Woburn,MA,01801,0,"800 W Cummings Park Suite 1500, Woburn, MA 01801"
Medical Device,,SENSABLE TECHNOLOGIES INC,Carmichael,Roberts,Chairman,181 Ballardvale St,,Wilmington,MA,01887,0,"181 Ballardvale St, Wilmington, MA 01887"
Medical Device,,SENTICARE INC,Yogendra,Jain,CTO/Founder,132 Turnpike Rd,Suite 130,Southborough,MA,01772,0,"132 Turnpike Rd Suite 130, Southborough, MA 01772"
Research Products & Instrumentation,MA Bio Member,SERACARE LIFE SCIENCES INC,Greg,Gould,Interim CEO/CFO,37 Birch St,,Milford,MA,01757,250,"37 Birch St, Milford, MA 01757"
BioInformatics,,SEVEN BRIDGES GENOMICS,John,Sheffield,President,,,Cambridge,MA,02142,0,", Cambridge, MA 02142"
Human Diagnostic Development,MA Bio Member,SEVENTH SENSE BIOSYSTEMS INC,Doug,Levinson,President/CEO,286 Cardinal Medeiros Ave,,Cambridge,MA,02141,15,"286 Cardinal Medeiros Ave, Cambridge, MA 02141"
Medical Device,,SHIELDS HEALTH CARE GROUP,Thomas,Shields,CEO,700 Congress St,,Quincy,MA,02169,25,"700 Congress St, Quincy, MA 02169"
Medical Device,,SHINE WIRE PRODUCTS INC,Greg,Shine,President,25 Printworks Dr,,Adams,MA,01220,47,"25 Printworks Dr, Adams, MA 01220"
Medical Device,,SHINEMOUND ENTERPRISE INC,Gloria,Shiao,President,17A Sterling Rd,,N Billerica,MA,01862,3,"17A Sterling Rd, N Billerica, MA 01862"
Drug Development,MA Bio Member,SHIRE HUMAN GENETIC THERAPIES (HGT),Sylvie,Gregoire,President HGT,300 Patriot Way,,Lexington,MA,02421,1500,"300 Patriot Way, Lexington, MA 02421"
Drug Development,,SIBTECH INC,Joseph,Backer,CEO,115A Commerce Dr,,Brookfield,CT,06804,5,"115A Commerce Dr, Brookfield, CT 06804"
Drug Development,,SIGNABLOK INC,Alexander,Sigalov,President/Founder,PO Box 4064,,Shrewsbury,MA,01545,1,"PO Box 4064, Shrewsbury, MA 01545"
Medical Device,,SIMPLICITY ORTHOPEDICS INC,Barry,Bickley,CTO/Chairman/Founder,,,,MA,,0,", , MA "
Drug Development,MA Bio Member,SIRTRIS PHARMACEUTICALS INC,George,Vlasuk,CEO,200 Technology Sq,,Cambridge,MA,02139,,"200 Technology Sq, Cambridge, MA 02139"
Contract Research & Manufacturing,MA Bio Member,SISTEMIC LTD,Verna,McErlane,Director Commercial Operations,28 State St,Suite 2300,Boston,MA,02109,1,"28 State St Suite 2300, Boston, MA 02109"
BioInformatics,,SITEAVAIL INC,Daniel,Weddle,Founder/President,25 Leach Ln,,Natick,MA,01760,1,"25 Leach Ln, Natick, MA 01760"
Medical Device,,SKELSCAN INC,Karin,Wetmore,President,165 Pleasant St #102,,Cambridge,MA,02139,2,"165 Pleasant St #102, Cambridge, MA 02139"
Medical Device,,SLEEPNET CORP,Tom,Moulton,CEO/President,5 Merrill Industrial Dr,,Hampton,NH,03842,0,"5 Merrill Industrial Dr, Hampton, NH 03842"
Medical Device,,SMART ANIMAL INC,Catherine,McNeil,President,P O Box 269,,Marlborough,MA,01752,3,"P O Box 269, Marlborough, MA 01752"
Medical Device,,SMART HEALTH AND FITNESS LLC,Sean,O'Connor,CEO,66 Fort Point St,,Norwalk,CT,06855,0,"66 Fort Point St, Norwalk, CT 06855"
Medical Device,,SMC LTD,,,,32 Chocksett Rd,,Sterling,MA,01564,0,"32 Chocksett Rd, Sterling, MA 01564"
Medical Device,,SMC LTD,,,,30 Patriots Cir,,Leominster,MA,01453,56,"30 Patriots Cir, Leominster, MA 01453"
Medical Device,,SMITH & NEPHEW INC,Michael,Frazzette,President,150 Minuteman Rd,,Andover,MA,01810,1000,"150 Minuteman Rd, Andover, MA 01810"
Medical Device,,SMITHS MEDICAL ASD INC,Stuart,Morris-Hipkins,VP Global Sales/Marketing,600 Cordwainer Dr,,Norwell,MA,02061,50,"600 Cordwainer Dr, Norwell, MA 02061"
Medical Device,,SOFT TISSUE REGENERATION INC,Joseph,Reilly,President/CEO,142 Temple St,Suite 206,New Haven,CT,06510,,"142 Temple St Suite 206, New Haven, CT 06510"
Medical Device,,SOLOS ENDOSCOPY,,,,65 Sprague St,West B,Boston,MA,02136,14,"65 Sprague St West B, Boston, MA 02136"
Medical Device,,SOLX INC,Doug,Adams,President/CEO,230 Second Ave,Suite 120,Waltham,MA,02451,5,"230 Second Ave Suite 120, Waltham, MA 02451"
Research Products & Instrumentation,,SONICS & MATERIALS INC,Robert,Soloff,President,53 Church Hill Rd,,Newtown,CT,06470,65,"53 Church Hill Rd, Newtown, CT 06470"
Medical Device,,SONTEK MEDICAL INC,,,,20 Pond Park Rd,,Hingham,MA,02043,0,"20 Pond Park Rd, Hingham, MA 02043"
Medical Device,,SOTEIRA INC,Larry,Jasinski,President/CEO,14 Tech Cir,,Natick,MA,01760,10,"14 Tech Cir, Natick, MA 01760"
Medical Device,,SOUNDWAVE RESEARCH LABORATORIES INC,,,,72 Nickerson Rd,,Ashland,MA,01721,7,"72 Nickerson Rd, Ashland, MA 01721"
Research Products & Instrumentation,,SPECTRAL EVOLUTION INC,Dennis,Witz,President/CEO,90 Sutton St,Unit 4,N Andover,MA,01845,7,"90 Sutton St Unit 4, N Andover, MA 01845"
Medical Device,,SPECTRUM PLASTICS GROUP,David,Kelly,GM,401 Birmingham Blvd,,Ansonia,CT,06410,85,"401 Birmingham Blvd, Ansonia, CT 06410"
Medical Device,,SPINE WAVE INC,Terry,Brennan,CFO,3 Enterprise Dr,Suite 210,Shelton,CT,06484,0,"3 Enterprise Dr Suite 210, Shelton, CT 06484"
Medical Device,,SPINEFRONTIER INC,,,,500 Cummings Center,Suite 3500,Beverly,MA,01915,,"500 Cummings Center Suite 3500, Beverly, MA 01915"
Medical Device,,SPIROMETRICS MEDICAL EQUIPMENT CO,Walter,Hebold,General Manager,22 Shaker Rd,PO Box 680,Gray,ME,04039,20,"22 Shaker Rd PO Box 680, Gray, ME 04039"
Medical Device,,SPLASH SHIELD,Patrick,Grant,President,8 Cedar St #61,,Woburn,MA,01801,3,"8 Cedar St #61, Woburn, MA 01801"
Medical Device,,SPRING MANUFACTURING CORP,Roger,Desmarias,CEO/President,2235 Main St,,Tewksbury,MA,01876,13,"2235 Main St, Tewksbury, MA 01876"
Medical Device,MA Bio Member,SPRINGLEAF THERAPEUTICS INC,Glenn,Larsen,CSO/EVP R&D,8 St Mary's St,,Boston,MA,02215,14,"8 St Mary's St, Boston, MA 02215"
Agricultural/Industrial Biotechnology,,SPS ALFACHEM,Syed,Rizvi,Vice President,237 Worthen Rd East,,Lexington,MA,02421,3,"237 Worthen Rd East, Lexington, MA 02421"
Medical Device,,SRC MEDICAL INC,,,,263 Winter St,,Hanover,MA,02339,85,"263 Winter St, Hanover, MA 02339"
Medical Device,,SRS MEDICAL SYSTEMS INC,Kevin,Connolly,CEO,76 Treble Cove Rd,Bldg 2,Billerica,MA,01862,15,"76 Treble Cove Rd Bldg 2, Billerica, MA 01862"
Medical Device,,STATIC SOLUTIONS INC,Lenard,Cohen,President,43  Broad  St,,Hudson,MA,01749,26,"43  Broad  St, Hudson, MA 01749"
Medical Device,,STATVIDEO LLC,Al,Kyle,President/Founder,PO Box 491,,Andover,MA,01810,2,"PO Box 491, Andover, MA 01810"
Medical Device,,STD MED INC,Francis,Fedorowicz Jr,EVP/COO,75 Mill St,,Stoughton,MA,02072,180,"75 Mill St, Stoughton, MA 02072"
Medical Device,,STEELCRAFT INC,,,,115 W Main St,,Millbury,MA,01527,35,"115 W Main St, Millbury, MA 01527"
Research Products & Instrumentation,,STEMGENT INC,Ian,Ratcliffe,President,1 Kendall Sq,Suite B6201,Cambridge,MA,02139,30,"1 Kendall Sq Suite B6201, Cambridge, MA 02139"
Research Products & Instrumentation,,STERIS-ISOMEDIX SERVICES,Jody,Dean,Plant Manager,435 Whitney St,,Northborough,MA,01532,52,"435 Whitney St, Northborough, MA 01532"
Medical Device,,STREAM PRODUCT DEVELOPMENT INC,Derek,Riemer,Principal,313 Littleton Rd,Suite 14,Chelmsford,MA,01824,3,"313 Littleton Rd Suite 14, Chelmsford, MA 01824"
Research Products & Instrumentation,,STREM CHEMICALS INC,Michael,Strem,President,7 Mulliken Way,,Newburyport,MA,01950,42,"7 Mulliken Way, Newburyport, MA 01950"
Medical Device,,STROHL MEDICAL TECHNOLOGIES INC,,,,126 Prospect St,,Norwell,MA,02061,0,"126 Prospect St, Norwell, MA 02061"
Medical Device,,STROMATEC INC,Robert,Davis,Founder/President/CEO,431 Pine St,Suite 214,S Burlington,VT,05403,,"431 Pine St Suite 214, S Burlington, VT 05403"
Medical Device,,STRYKER BIOTECH,,,,One Broadway,14th Floor,Cambridge,MA,02142,285,"One Broadway 14th Floor, Cambridge, MA 02142"
Drug Development,MA Bio Member,SUNOVION PHARMACEUTICALS INC,Mark,Iwicki,President/COO,84 Waterford Dr,,Marlborough,MA,01752,699,"84 Waterford Dr, Marlborough, MA 01752"
Medical Device,,SUNRISE LABS INC,Drew,Sunstein,President/CTO,5 Dartmouth Dr,,Auburn,NH,03032,30,"5 Dartmouth Dr, Auburn, NH 03032"
Medical Device,,SUPERCONDUCTING SYSTEMS INC,,,,5 Fortune Dr,,Billerica,MA,01821,0,"5 Fortune Dr, Billerica, MA 01821"
Medical Device,,SURFACE SOLUTIONS LABS INC,Margaret,Palmer,President,399 Concord St,,Carlisle,MA,01741,0,"399 Concord St, Carlisle, MA 01741"
Medical Device,,SURGIMED SOLUTIONS LLC,,,,27 Siemon Company Dr,Suite 104W,Watertown,CT,06795,0,"27 Siemon Company Dr Suite 104W, Watertown, CT 06795"
Medical Device,,SUTURTEK INC,,,,51 Middlesex St,,N Chelmsford,MA,01863,6,"51 Middlesex St, N Chelmsford, MA 01863"
Drug Development,,SYMBOLLON PHARMACEUTICALS INC,Paul,Desjourdy,President,25 Eastmount Road,,Medfield,MA,02052,1,"25 Eastmount Road, Medfield, MA 02052"
Medical Device,,SYMMETRY MEDICAL INC,Thomas,Sullivan,President/CEO/Director,61 John Vertente Blvd,,New Bedford,MA,02745,0,"61 John Vertente Blvd, New Bedford, MA 02745"
Drug Development,MA Bio Member,SYNAGEVA BIOPHARMA,Sanj,Patel,President/CEO,128 Spring St,Suite 520,Lexington,MA,02421,0,"128 Spring St Suite 520, Lexington, MA 02421"
Human Diagnostic Development,MA Bio Member,SYNAPDX CORP,,,,153 Cordaville Road,Suite 120,Southborough,MA,01772,10,"153 Cordaville Road Suite 120, Southborough, MA 01772"
Drug Development,,SYNBODY BIOTECHNOLOGY INC,Paul,Hallenbeck,President,,,Farmington,CT,,0,", Farmington, CT "
Drug Development,MA Bio Member,SYNDAX PHARMACEUTICALS INC,Joanna,Horobin,President/CEO,460 Totten Pond Rd,Suite 650,Waltham,MA,02451,0,"460 Totten Pond Rd Suite 650, Waltham, MA 02451"
Drug Development,MA Bio Member,SYNDEVRX INC,Bradley,Carver,Chairman/President/Co-founder,One Broadway,14th floor,Cambridge,MA,02142,0,"One Broadway 14th floor, Cambridge, MA 02142"
Drug Development,MA Bio Member,SYNDEXA PHARMACEUTICALS CORP,Teo,Uysal,CEO,480 Arsenal St,,Watertown,MA,02459,12,"480 Arsenal St, Watertown, MA 02459"
Medical Device,,SYNSONIX LLC,William,Tyler,President,77 Massachusetts Ave,,Cambridge,MA,02138,,"77 Massachusetts Ave, Cambridge, MA 02138"
Drug Development,MA Bio Member,SYNTA PHARMACEUTICALS CORP,Safi,Bahcall,CEO,45 Hartwell Ave,,Lexington,MA,02421,120,"45 Hartwell Ave, Lexington, MA 02421"
Research Products & Instrumentation,,SYNVIVO CORP,Alexander,Sunguroff,President,333 Franklin St,,Duxbury,MA,02332,1,"333 Franklin St, Duxbury, MA 02332"
BioInformatics,,SYSTEMS ANALYTICS INC,John,Zhang,Founder/President,946 Great Plain Ave,#125,Needham,MA,02492,12,"946 Great Plain Ave #125, Needham, MA 02492"
Human Diagnostic Development,MA Bio Member,T2 BIOSYSTEMS INC,John,McDonough,CEO/President,101 Hartwell Ave,,Lexington,MA,02421,0,"101 Hartwell Ave, Lexington, MA 02421"
Medical Device,,TANGENX TECHNOLOGY CORP,John,Connors,President,910 Boston Turnpike Rd,,Shrewsbury,MA,01545,0,"910 Boston Turnpike Rd, Shrewsbury, MA 01545"
Human Diagnostic Development,MA Bio Member,TARGANOX INC,Roger,Kitterman,President,37 Spinelli Pl,,Cambridge,MA,02138,3,"37 Spinelli Pl, Cambridge, MA 02138"
Drug Development,MA Bio Member,TARGETED CELL THERAPIES,Edward,Ginns,President/CEO,MBI/Gateway Park,60 Prescott St,Worcester,MA,01605,0,"MBI/Gateway Park 60 Prescott St, Worcester, MA 01605"
Medical Device,,TARIS BIOMEDICAL INC,Michael,Cima,Founder,99 Hayden Ave,Suite 100,Lexington,MA,02421,0,"99 Hayden Ave Suite 100, Lexington, MA 02421"
Research Products & Instrumentation,,TARPON BIOSYSTEMS INC,Robert,Dishman,CEO/Director,1 Innovation Dr,c/o MBI Biotech 3,Worcester,MA,01605,0,"1 Innovation Dr c/o MBI Biotech 3, Worcester, MA 01605"
Medical Device,,TBS TECHNOLOGIES LLC,Thomas,Dee,CEO,68 Briarcliff Ln,,Holliston,MA,01746,2,"68 Briarcliff Ln, Holliston, MA 01746"
Medical Device,,TDC MEDICAL INC,Michael,Sullivan,GM East Coast Operations,261 Cedar Hill St,,Marlborough,MA,01752,40,"261 Cedar Hill St, Marlborough, MA 01752"
Medical Device,,TECH NH INC,Richard,Grosky,CEO,8-10 Continental Blvd,PO Box 476,Merrimack,NH,03054,80,"8-10 Continental Blvd PO Box 476, Merrimack, NH 03054"
Medical Device,,TECHDEVICE CORP,Gordon,Brown,Founder,650 Pleasant St,,Watertown,MA,02472,53,"650 Pleasant St, Watertown, MA 02472"
Medical Device,,TECHPRINT INC,Paul,Durant,President,137 Marston St,,Lawrence,MA,01841,100,"137 Marston St, Lawrence, MA 01841"
Medical Device,,TECOMET,Bill,Dow,President,115 Eames St,,Wilmington,MA,01887,230,"115 Eames St, Wilmington, MA 01887"
Contract Research & Manufacturing,MA Bio Member,TEDOR PHARMACEUTICALS,John,Yanusas,Executive Director,400 Highland Corporate Dr,,Cumberland,RI,02864,50,"400 Highland Corporate Dr, Cumberland, RI 02864"
Medical Device,,TEGRA MEDICAL,Bob,Roche,President/CEO/Director,9 Forge Park,,Franklin,MA,02038,275,"9 Forge Park, Franklin, MA 02038"
Medical Device,,TEI BIOSCIENCES INC,Yiannis,Monovoukas,Chairman/CEO/President,7 Elkins St,,Boston,MA,02127,30,"7 Elkins St, Boston, MA 02127"
Medical Device,,TEKNICOTE INC,,,,2 Titus St,,Cumberland,RI,02864,0,"2 Titus St, Cumberland, RI 02864"
Research Products & Instrumentation,,TELECARDIA INC,David,Wagner,Chairman/CEO/Co-Founder,225 Franklin St,26th Flr,Boston,MA,02110,0,"225 Franklin St 26th Flr, Boston, MA 02110"
Medical Device,,TELEFLEX MEDICAL (ARROW INTERNATIONAL),,,,9 Plymouth St,,Everett,MA,02149,125,"9 Plymouth St, Everett, MA 02149"
Medical Device,,TELEFLEX MEDICAL OEM,,,,50 Plantation Dr,,Jaffrey,NH,03452,300,"50 Plantation Dr, Jaffrey, NH 03452"
Medical Device,,TELEMED SYSTEMS INC,Michael,Carroll,CEO/President,8 Kane Industrial Dr,,Hudson,MA,01749,30,"8 Kane Industrial Dr, Hudson, MA 01749"
Research Products & Instrumentation,,TEMPERATURE GUARD MICROTECHNOLOGIES INC,,,,123 Whiting St,Suite 1A,Plainville,CT,06062,5,"123 Whiting St Suite 1A, Plainville, CT 06062"
Drug Development,MA Bio Member,TEMPERO PHARMACEUTICALS INC,,,,200 Technology Sq,Suite 602,Cambridge,MA,02139,17,"200 Technology Sq Suite 602, Cambridge, MA 02139"
Drug Development,,TENSHA THERAPEUTICS INC,James,Bradner,Founder,,,Cambridge,MA,,0,", Cambridge, MA "
Medical Device,MA Bio Member,TEPHA INC,Simon,Williams,President/CEO/Director,99 Hayden Ave,East Wing Suite 360,Lexington,MA,02421,20,"99 Hayden Ave East Wing Suite 360, Lexington, MA 02421"
Medical Device,,TERASON DIVISION OF TERATECH CORP,Alice,Chiang,Founder/Chairman,77-79 Terrace Hall Ave,,Burlington,MA,01803,50,"77-79 Terrace Hall Ave, Burlington, MA 01803"
Agricultural/Industrial Biotechnology,,TERRAVERDAE BIOWORKS INC,William,Bardosh,CEO,Cummings Center,PO Box 5331,Beverly,MA,01915,12,"Cummings Center PO Box 5331, Beverly, MA 01915"
Medical Device,,TERUMO CARDIOVASCULAR SYSTEMS,,,,28 Howe St,,Ashland,MA,01721,50,"28 Howe St, Ashland, MA 01721"
Drug Development,MA Bio Member,TESARO INC,Lonnie,Moulder,CEO/Co-Founder,1000 Winter St,Suite 3300,Waltham,MA,02451,0,"1000 Winter St Suite 3300, Waltham, MA 02451"
Drug Development,MA Bio Member,TETRAPHASE PHARMACEUTICALS INC,Guy,Macdonald,President/CEO,480 Arsenal St,Suite 110,Watertown,MA,02472,0,"480 Arsenal St Suite 110, Watertown, MA 02472"
Contract Research & Manufacturing,MA Bio Member,TGA SCIENCES INC,Michael,Settles,President/CEO,47 Hall St,,Medford,MA,02155,16,"47 Hall St, Medford, MA 02155"
Contract Research & Manufacturing,,THERACOS INC,Albert,Collinson,President/CEO,225 Cedar Hill Rd,Suite 200,Marlborough,MA,01532,0,"225 Cedar Hill Rd Suite 200, Marlborough, MA 01532"
Drug Development,,THERACRINE INC,Steven,Kelly,President/CEO,1 Memorial Dr,7th Flr,Cambridge,MA,02142,0,"1 Memorial Dr 7th Flr, Cambridge, MA 02142"
Medical Device,,THERATORR MEDICAL INC,David,Bertoni,CEO,Box 5071,62 Hart St,Beverly,MA,01915,2,"Box 5071 62 Hart St, Beverly, MA 01915"
Medical Device,,THERMEDICAL INC,Michael,Curley,Founder/President,35 Medford St,Suite 204,Somerville,MA,02143,7,"35 Medford St Suite 204, Somerville, MA 02143"
Research Products & Instrumentation,MA Bio Member,THERMO FISHER SCIENTIFIC,Marc,Casper,President/CEO,81 Wyman St,,Waltham,MA,02451,220,"81 Wyman St, Waltham, MA 02451"
Drug Development,,THETIS PHARMACEUTICALS LLC,Frank,Sciavolino,CSO/President,167 Old Post Rd,2nd Floor,Southport,CT,06890,0,"167 Old Post Rd 2nd Floor, Southport, CT 06890"
Research Products & Instrumentation,,THIELSCH ENGINEERING INC/BAL LABORATORY,Thomas,Lent,President/CEO,185 Frances Ave,,Cranston,RI,02910,4,"185 Frances Ave, Cranston, RI 02910"
Research Products & Instrumentation,,THIN FILMS RESEARCH,T,Raghunath,President,270 Littleton Rd,,Westford,MA,01886,4,"270 Littleton Rd, Westford, MA 01886"
Medical Device,,THREECORE INC,Thomas,Petersen,President,100 Cummings Center,Suite 215F,Beverly,MA,01915,12,"100 Cummings Center Suite 215F, Beverly, MA 01915"
Drug Development,,THROMBOLYTIC SCIENCE INTERNATIONAL,Alexis,Wallace,CEO,763D Concord Ave,,Cambridge,MA,02138,3,"763D Concord Ave, Cambridge, MA 02138"
Research Products & Instrumentation,MA Bio Member,TISSUEVISION INC,,,,955 Mass Ave,Suite 316,Cambridge,MA,02139,25,"955 Mass Ave Suite 316, Cambridge, MA 02139"
Medical Device,,TITAN MANUFACTURING INC,,,,27 Maple Ave,,Holbrook,MA,02343,7,"27 Maple Ave, Holbrook, MA 02343"
Drug Development,,TIVORSAN PHARMACEUTICALS,Joel,Braunstein,Director/Acting CEO,3 Davol Sq,A301,Providence,RI,02903,0,"3 Davol Sq A301, Providence, RI 02903"
Medical Device,,TM ELECTRONICS INC,Stanley,Riccardi,Business Dev't Manager,45 Main St,,Boylston,MA,01505,20,"45 Main St, Boylston, MA 01505"
Drug Development,MA Bio Member,TOKAI PHARMACEUTICALS INC,Martin,Williams,President/CEO,One Broadway,9th Floor,Cambridge,MA,02142,0,"One Broadway 9th Floor, Cambridge, MA 02142"
Medical Device,,TOMOPHASE CORP,Peter,Norris,Executive Chairman,1 North Ave,,Burlington,MA,01803,6,"1 North Ave, Burlington, MA 01803"
Research Products & Instrumentation,,TOMTEC INC,Thomas,Astle,President,1000 Sherman Ave,,Hamden,CT,06514,50,"1000 Sherman Ave, Hamden, CT 06514"
Medical Device,,TORBOT GROUP INC,Sharon,Yarlias,President,1367 Elmwood Ave,,Cranston,RI,02910,24,"1367 Elmwood Ave, Cranston, RI 02910"
Contract Research & Manufacturing,MA Bio Member,TOXIKON CORP,Laxman,Desai,CEO/President,15 Wiggins Ave,,Bedford,MA,01730,150,"15 Wiggins Ave, Bedford, MA 01730"
Medical Device,,TRANSDUCER ENGINEERING INC,George,Lewis,President,4034 Ballardvale Station,,Andover,MA,01810,1,"4034 Ballardvale Station, Andover, MA 01810"
Contract Research & Manufacturing,,TRANSLATIONAL MEDICINE INDIA INC,Eugene,Williams,Chairman,1 Broadway,14th Floor,Cambridge,MA,02142,2,"1 Broadway 14th Floor, Cambridge, MA 02142"
Medical Device,,TRANSMEDICS INC,Waleed,Hassanein,President/CEO,200 Minuteman Rd,Suite 302,Andover,MA,01810,80,"200 Minuteman Rd Suite 302, Andover, MA 01810"
Medical Device,,TRANSREPLICATOR INC,Robert,Goulart,CEO,104 Boston Post Rd,,Weston,MA,02493,0,"104 Boston Post Rd, Weston, MA 02493"
Drug Development,,"TRIDENT PHARMACEUTICALS, INC.",Charlie,Cohen,President/CEO,184 High St,4th Floor,Boston,MA,02110,0,"184 High St 4th Floor, Boston, MA 02110"
Human Diagnostic Development,,TRILLIUM DIAGNOSTICS LLC,Bruce,Davis,Founder/President,4 Union St,Suite #24 (2nd Fl),Bangor,ME,04401,6,"4 Union St Suite #24 (2nd Fl), Bangor, ME 04401"
Contract Research & Manufacturing,,TRINITY PHARMA SOLUTIONS,John,Corcoran,CEO,230 Third Ave,,Waltham,MA,02451,100,"230 Third Ave, Waltham, MA 02451"
Medical Device,,TRIOMED INNOVATIONS CORP,Pierre Jean,Messier,President/CEO,40 Allen Rd,,S Burlington,VT,05403,0,"40 Allen Rd, S Burlington, VT 05403"
Medical Device,,TRUEX MACHINE CO INC,Ruth,Flood,President,25 Pond St,,Hanover,MA,02339,11,"25 Pond St, Hanover, MA 02339"
Academic,MA Bio Member,TUFTS UNIV CUMMINGS SCHOOL OF VETERINARY MEDICINE,George,Saperstein,Director Contract Research,200 Westboro Rd,,N Grafton,MA,01536,400,"200 Westboro Rd, N Grafton, MA 01536"
Medical Device,,UFP TECHNOLOGIES INC,R Jeffrey,Bailly,President/CEO,172 E Main St,,Georgetown,MA,01833,105,"172 E Main St, Georgetown, MA 01833"
Contract Research & Manufacturing,,ULTRA FILTRONICS CORP,Gene,Dennen,General Manager,91 York Ave,,Randolph,MA,02368,5,"91 York Ave, Randolph, MA 02368"
Research Products & Instrumentation,,ULTRAPURE TECHNOLOGY INC,John,Goodwin,Sales Manager,50 Krawski Dr,,S Windsor,CT,06074,3,"50 Krawski Dr, S Windsor, CT 06074"
Medical Device,,ULTRASONIC SYSTEMS INC (USI),Drew,Erickson,CEO,135 Ward Hill Ave,,Haverhill,MA,01835,0,"135 Ward Hill Ave, Haverhill, MA 01835"
Research Products & Instrumentation,,UNICLEAN,Suneela,Mistry,Location Manager,8 Industrial Park Dr,,Nashua,NH,03062,75,"8 Industrial Park Dr, Nashua, NH 03062"
Research Products & Instrumentation,,UNION BIOMETRICA INC,David,Strack,CEO/President,84 October Hill Rd,,Holliston,MA,01746,12,"84 October Hill Rd, Holliston, MA 01746"
Medical Device,,UNITED PROSTHETICS INC,Paul,Martino,CP,295 Columbia Rd,,Dorchester,MA,02121,17,"295 Columbia Rd, Dorchester, MA 02121"
Contract Research & Manufacturing,,UNITED STATES BIOLOGICAL CORP,Warren,Shore,President/CEO,4 Technology Way,,Salem,MA,01970,35,"4 Technology Way, Salem, MA 01970"
Academic,MA Bio Member,UNIVERSITY OF MASSACHUSETTS AMHERST,Thomas,Hankinson,Partnership Dev't Specialist,715 N Pleasant St,,Amherst,MA,01054,9500,"715 N Pleasant St, Amherst, MA 01054"
Academic,MA Bio Member,UNIVERSITY OF MASSACHUSETTS BOSTON,Keith,Motley,Chancellor,100 Morrissey Boulevard,,Boston,MA,02125,2596,"100 Morrissey Boulevard, Boston, MA 02125"
Academic,MA Bio Member,UNIVERSITY OF MASSACHUSETTS DARTMOUTH,Paul,Vigeant,Assistant Chancellor,285 Old Westport Rd,,Dartmouth,MA,02747,1100,"285 Old Westport Rd, Dartmouth, MA 02747"
Academic,MA Bio Member,UNIVERSITY OF MASSACHUSETTS LOWELL,,,,One University Ave,,Lowell,MA,01854,1500,"One University Ave, Lowell, MA 01854"
Academic,MA Bio Member,UNIVERSITY OF MASSACHUSETTS MEDICAL SCHOOL,,,,55 Lake Ave N,,Worcester,MA,01655,0,"55 Lake Ave N, Worcester, MA 01655"
Medical Device,,VASCULAR TECHNOLOGY (VTI),David,Regan,Vice President,12 Murphy Dr,,Nashua,NH,03062,30,"12 Murphy Dr, Nashua, NH 03062"
Drug Development,,VASCULOMEDICS INC,David,Sherris,CEO,37 Neillian Crescent,,Jamaica Plain,MA,02130,0,"37 Neillian Crescent, Jamaica Plain, MA 02130"
Medical Device,,VAUPELL RAPID SOLUTIONS,Stratton,Smith,General Manager,20 Executive Dr,,Hudson,NH,03051,50,"20 Executive Dr, Hudson, NH 03051"
Drug Development,,VBI VACCINES,Jeff,Baxter,President/CEO,245 First St,Suite 1100,Cambridge,MA,02142,0,"245 First St Suite 1100, Cambridge, MA 02142"
Medical Device,MA Bio Member,VELICO MEDICAL INC,Douglas,Clibourn,CEO,100 Cummings Center,Suite 436H,Beverly,MA,01915,12,"100 Cummings Center Suite 436H, Beverly, MA 01915"
Medical Device,,VENTION MEDICAL,Dan,Croteau,President/CEO,261 Cedar Hill St,,Marlborough,MA,01752,0,"261 Cedar Hill St, Marlborough, MA 01752"
Drug Development,MA Bio Member,VERASTEM INC,Christoph,Westphal,Chairman/CEO,215 First St,Suite 440,Cambridge,MA,02142,0,"215 First St Suite 440, Cambridge, MA 02142"
Human Diagnostic Development,MA Bio Member,VERAX BIOMEDICAL INC,James,Lousararian,CEO,4 Biotech,377 Plantation St,Worcester,MA,01605,,"4 Biotech 377 Plantation St, Worcester, MA 01605"
Contract Research & Manufacturing,MA Bio Member,VERISTAT INC,John,Balser,President,1750 Washington St,,Holliston,MA,01746,0,"1750 Washington St, Holliston, MA 01746"
Drug Development,MA Bio Member,VERTEX PHARMACEUTICALS INC,Jeffrey,Leiden,President/CEO,130 Waverly St,,Cambridge,MA,02139,1400,"130 Waverly St, Cambridge, MA 02139"
Medical Device,,VIAMED CORP,,,,15-D Plymouth Dr,,S Easton,MA,02375,15,"15-D Plymouth Dr, S Easton, MA 02375"
Agricultural/Industrial Biotechnology,,"VICAM, A WATERS BUSINESS",Marjorie,Radlo- Zandi,Director and General Manager,34 Maple St,,Milford,MA,01757,20,"34 Maple St, Milford, MA 01757"
Medical Device,,VIKING SYSTEMS INC,Jed,Kennedy,President/CEO,134 Flanders Rd,,Westborough,MA,01581,25,"134 Flanders Rd, Westborough, MA 01581"
Research Products & Instrumentation,,VIROSTAT INC,Douglas,McAllister,President,PO Box 8522,,Portland,ME,04104,5,"PO Box 8522, Portland, ME 04104"
Medical Device,,VISION-SCIENCES INC,Warren,Bielke,Interim CEO,6 Mercer Rd,,Natick,MA,01760,16,"6 Mercer Rd, Natick, MA 01760"
Medical Device,,VISTA SCIENTIFIC LLC,Bob,Thompson,Managing Partner/Product Dev't,1 Dundee Park,Suite 8,Andover,MA,01810,0,"1 Dundee Park Suite 8, Andover, MA 01810"
Research Products & Instrumentation,,VITAL DIAGNOSTICS,,,,27 Wellington Rd,,Lincoln,RI,02865,50,"27 Wellington Rd, Lincoln, RI 02865"
Drug Development,,VITHERA PHARMACEUTICALS LLC,Johannes,Fruehauf,Founder/President,1 Kendall Sq,,Cambridge,MA,02139,0,"1 Kendall Sq, Cambridge, MA 02139"
Agricultural/Industrial Biotechnology,,VITRO TECHNOLOGY LTD,George,Davis,President,205 Research Dr,Unit 12,Milford,CT,06460,8,"205 Research Dr Unit 12, Milford, CT 06460"
Medical Device,,VIVAX MEDICAL CORP,Richard,Swanson,Executive Vice President,54 Great Hill Rd,,Naugatuck,CT,06770,9,"54 Great Hill Rd, Naugatuck, CT 06770"
Contract Research & Manufacturing,MA Bio Member,VIVISOURCE LABORATORIES INC,,,,830 Winter St,,Waltham,MA,02451,25,"830 Winter St, Waltham, MA 02451"
Contract Research & Manufacturing,MA Bio Member,VIVOPATH,Philip,Lambert,Co-Founder/CSO,55 Union St,Redstone Center,Worcester,MA,01608,10,"55 Union St Redstone Center, Worcester, MA 01608"
Contract Research & Manufacturing,,W K HILLQUIST INC,Michael,Torpey,VP/General Manager,37 Executive Dr,,Hudson,NH,03051,47,"37 Executive Dr, Hudson, NH 03051"
Medical Device,,WADSWORTH MEDICAL TECHNOLOGIES,Andrew,Fox,President/CEO,,,Westborough,MA,,0,", Westborough, MA "
Drug Development,MA Bio Member,WARP DRIVE BIO LLC,Gregory,Verdine,Founder,215 First St,Suite 430,Cambridge,MA,02142,0,"215 First St Suite 430, Cambridge, MA 02142"
Research Products & Instrumentation,,WATERS CORP,Douglas,Berthiaume,Chairman/President/CEO,34 Maple St,,Milford,MA,01757,1340,"34 Maple St, Milford, MA 01757"
Research Products & Instrumentation,,WATSON MARLOW/BREDEL PUMPS,,,,37 Upton Technology Park,,Wilmington,MA,01887,50,"37 Upton Technology Park, Wilmington, MA 01887"
Medical Device,,WAVELET TECHNOLOGIES INC,Dr Robert,Hohlfeld,Chief Scientist,664 Pike Ave,,Attleboro,MA,02703,4,"664 Pike Ave, Attleboro, MA 02703"
Medical Device,,WAVERX INC,Marc,Gibeley,CEO/President,300 Bear Hill Rd,,Waltham,MA,02451,,"300 Bear Hill Rd, Waltham, MA 02451"
Contract Research & Manufacturing,,WEB INDUSTRIES INC,Donald,Romine,President/CEO,377 Simarano Dr,,Marlborough,MA,01752,12,"377 Simarano Dr, Marlborough, MA 01752"
Medical Device,,WHALEN BIOMEDICAL INC,Robert,Whalen,President/CEO,12 Summer St,,Lexington,MA,02420,5,"12 Summer St, Lexington, MA 02420"
Contract Research & Manufacturing,,WIN ENTERPRISES INC,Chiman,Patel,CEO/CTO,300 Willow St S,,N Andover,MA,01845,25,"300 Willow St S, N Andover, MA 01845"
Medical Device,,WING GROUP LLC,Wendy,Yurick Wing,President,20A Northwest Blvd #216,,Nashua,NH,03063,0,"20A Northwest Blvd #216, Nashua, NH 03063"
Medical Device,,WINMED INC,Ed,Winters,President,P O Box 2087,,Andover,MA,01810,3,"P O Box 2087, Andover, MA 01810"
Contract Research & Manufacturing,MA Bio Member,WOLFE LABORATORIES INC,Janet,Wolfe,President,134 Coolidge Ave,,Watertown,MA,02472,25,"134 Coolidge Ave, Watertown, MA 02472"
Academic,MA Bio Member,WORCESTER POLYTECHNIC INSTITUTE,D David,Easson,Director of the LSBC,100 Institute Road,,Worcester,MA,01609,0,"100 Institute Road, Worcester, MA 01609"
Contract Research & Manufacturing,,WORLDCARE CLINICAL LLC,Richard,Walovitch,President,7 Bulfinch Pl,P O Box 8908,Boston,MA,02114,50,"7 Bulfinch Pl P O Box 8908, Boston, MA 02114"
Contract Research & Manufacturing,,WORTHINGTON ASSEMBLY,Neil,Scanlon,President,14 Industrial Dr East,,S Deerfield,MA,01373,14,"14 Industrial Dr East, S Deerfield, MA 01373"
Drug Development,MA Bio Member,X-BODY BIOSCIENCES,Tod,Woolf,CBO,100 Beaver St,Suite 101,Waltham,MA,02453,10,"100 Beaver St Suite 101, Waltham, MA 02453"
Drug Development,MA Bio Member,X-CHEM INC,Richard,Wagner,Co-Founder/President,100 Beaver St,Suite 101,Waltham,MA,02453,25,"100 Beaver St Suite 101, Waltham, MA 02453"
Research Products & Instrumentation,MA Bio Member,XCELLEREX INC,Guy,Broadbent,President/CEO,170 Locke Dr,,Marlborough,MA,01752,95,"170 Locke Dr, Marlborough, MA 01752"
Medical Device,,XENON CORP,Louis,Panico,CEO/President,37 Upton Dr,,Wilmington,MA,01887,30,"37 Upton Dr, Wilmington, MA 01887"
Medical Device,,XIMEDICA,Randall,Barko,President/CEO,55 Dupont Dr,,Providence,RI,02907,160,"55 Dupont Dr, Providence, RI 02907"
Contract Research & Manufacturing,MA Bio Member,XTAL BIOSTRUCTURES INC,Robert,Suto,President/CSO,12 Michigan Dr,,Natick,MA,01760,15,"12 Michigan Dr, Natick, MA 01760"
Medical Device,,XTALIC CORP,Tom,Clay,CEO,260 Cedar Hill St,,Marlborough,MA,01752,19,"260 Cedar Hill St, Marlborough, MA 01752"
Medical Device,,YANKEE MEDICAL INC,,,,276 North Ave,,Burlington,VT,05401,33,"276 North Ave, Burlington, VT 05401"
Medical Device,,Z-MEDICA CORP,Ted,Russell,VP Sales,4 Fairfield Blvd,,Wallingford,CT,06492,0,"4 Fairfield Blvd, Wallingford, CT 06492"
Drug Development,MA Bio Member,ZALICUS INC,Mark,Corrigan,President,245 First St,3rd Floor,Cambridge,MA,02142,0,"245 First St 3rd Floor, Cambridge, MA 02142"
Drug Development,,ZARZATECH INC,Sonia,Divney,President/CEO,1 Broadway,,Cambridge,MA,02142,0,"1 Broadway, Cambridge, MA 02142"
Medical Device,,ZEO INC,Dave,Dickinson,President/CEO,320 Nevada St,4th Floor,Newton,MA,02460,40,"320 Nevada St 4th Floor, Newton, MA 02460"
Drug Development,MA Bio Member,ZIOPHARM ONCOLOGY INC,Jonathan,Lewis,CEO,1 First Ave,"Parris Bldg, 34",Charlestown,MA,02129,35,"1 First Ave Parris Bldg, 34, Charlestown, MA 02129"
Medical Device,,ZOLL MEDICAL CORP,Richard,Packer,CEO,269 Mill Rd,,Chelmsford,MA,01824,786,"269 Mill Rd, Chelmsford, MA 01824"
